{"features":[{"geometry":{"coordinates":[[[106.603987,11.072108],[106.605849,11.071401],[106.606447,11.070728],[106.606613,11.069978],[106.605861,11.067964],[106.606732,11.066579],[106.610464,11.064245],[106.613927,11.062875],[106.616221,11.059509],[106.616606,11.05864],[106.616558,11.057886],[106.614716,11.056311],[106.614336,11.055119],[106.614391,11.053569],[106.615691,11.051135],[106.616455,11.051424],[106.616824,11.051083],[106.618072,11.051328],[106.619319,11.05228],[106.624183,11.053824],[106.625329,11.047563],[106.625675,11.047627],[106.626159,11.046431],[106.625832,11.046366],[106.625943,11.045735],[106.625482,11.045657],[106.625815,11.043677],[106.626835,11.043839],[106.627807,11.042983],[106.629862,11.043956],[106.630462,11.04324],[106.634146,11.044978],[106.64005,11.034216],[106.64703,11.045896],[106.653459,11.052884],[106.653998,11.05675],[106.653644,11.058093],[106.65798,11.058447],[106.660245,11.057275],[106.663623,11.057001],[106.664173,11.061663],[106.663942,11.064875],[106.663578,11.065259],[106.663706,11.066212],[106.663449,11.066818],[106.662448,11.066862],[106.662303,11.067656],[106.663434,11.067956],[106.663132,11.070334],[106.664835,11.074146],[106.664693,11.074362],[106.66633,11.075246],[106.666927,11.076864],[106.6692,11.075992],[106.670097,11.078587],[106.667968,11.079416],[106.670841,11.08721],[106.670015,11.08786],[106.668853,11.091679],[106.666925,11.093021],[106.667194,11.095061],[106.667936,11.095259],[106.667487,11.098565],[106.667746,11.100133],[106.667164,11.102306],[106.667244,11.107247],[106.66917,11.107347],[106.669494,11.107826],[106.671259,11.107648],[106.67145,11.107976],[106.672029,11.107911],[106.672185,11.108508],[106.673982,11.108908],[106.677155,11.108363],[106.677353,11.108063],[106.678264,11.107936],[106.678405,11.107282],[106.678708,11.107226],[106.682812,11.106898],[106.685424,11.107129],[106.685839,11.107405],[106.686297,11.10545],[106.687095,11.105921],[106.692926,11.106629],[106.692506,11.107119],[106.692483,11.108106],[106.693059,11.108569],[106.692762,11.109231],[106.693003,11.111049],[106.693714,11.112663],[106.693567,11.113222],[106.694128,11.113546],[106.694192,11.11396],[106.693609,11.115217],[106.693563,11.118538],[106.692985,11.11898],[106.693154,11.119604],[106.69252,11.120428],[106.692626,11.12126],[106.69217,11.121715],[106.692309,11.122336],[106.691835,11.123691],[106.691019,11.123807],[106.690846,11.124292],[106.69037,11.124351],[106.690252,11.126165],[106.689983,11.126615],[106.68949,11.126708],[106.689437,11.127313],[106.688474,11.12875],[106.685421,11.127292],[106.682896,11.126897],[106.681591,11.127032],[106.680712,11.128018],[106.678875,11.128333],[106.679094,11.127676],[106.676867,11.128152],[106.676729,11.127296],[106.674803,11.128285],[106.673381,11.128558],[106.67326,11.129492],[106.669743,11.129062],[106.669345,11.130619],[106.667845,11.130575],[106.66738,11.131058],[106.666225,11.131114],[106.665987,11.130159],[106.659062,11.131061],[106.658105,11.131789],[106.657006,11.131716],[106.656249,11.129792],[106.655775,11.129748],[106.65807,11.122457],[106.658866,11.122363],[106.657569,11.107637],[106.659471,11.10736],[106.65906,11.101515],[106.65982,11.101506],[106.660046,11.099917],[106.657857,11.099863],[106.658073,11.097084],[106.65873,11.095433],[106.657629,11.093954],[106.658593,11.091632],[106.637736,11.080212],[106.627888,11.076183],[106.626789,11.079211],[106.619138,11.080099],[106.617388,11.081257],[106.615493,11.083117],[106.614032,11.08053],[106.614782,11.080148],[106.614826,11.079808],[106.614024,11.079333],[106.613692,11.078575],[106.61274,11.078037],[106.612307,11.078342],[106.610928,11.07791],[106.6089,11.078023],[106.606186,11.074205],[106.603987,11.072108]]],"type":"Polygon"},"properties":{"dashboard_href":"/?tab=signals&city=B%E1%BA%BFn%20C%C3%A1t","dashboard_label":"Lọc tin Bến Cát","former_units":"Tân Định và Hòa Lợi","group":"Bến Cát","layer":"current","name":"Hòa Lợi","slug":"hoa-loi","source":"OpenStreetMap","summary":"Phường Hòa Lợi thuộc khu vực Bến Cát sau sắp xếp năm 2025.","unit_type":"Phường"},"type":"Feature"},{"geometry":{"coordinates":[[[106.429528,11.174726],[106.430691,11.174471],[106.432241,11.17269],[106.432693,11.171437],[106.433002,11.165821],[106.433428,11.16469],[106.436325,11.16104],[106.43699,11.158119],[106.436576,11.155528],[106.434115,11.152919],[106.432773,11.150682],[106.431974,11.150222],[106.430027,11.149845],[106.429694,11.14908],[106.434195,11.144108],[106.436003,11.14125],[106.440587,11.138448],[106.443309,11.136308],[106.445997,11.136008],[106.450921,11.136235],[106.452869,11.137524],[106.456101,11.140698],[106.457962,11.145372],[106.45826,11.148461],[106.457884,11.152498],[106.457335,11.153161],[106.456463,11.153377],[106.453714,11.151687],[106.452346,11.151664],[106.451686,11.152293],[106.451485,11.153645],[106.451938,11.156618],[106.452941,11.158464],[106.45465,11.159808],[106.456066,11.160308],[106.457055,11.160106],[106.45854,11.158725],[106.459644,11.158253],[106.461178,11.15874],[106.462795,11.15985],[106.463856,11.159819],[106.466462,11.157072],[106.470617,11.155103],[106.471084,11.153958],[106.470909,11.152911],[106.469968,11.151345],[106.467589,11.148916],[106.46735,11.147977],[106.46791,11.147198],[106.469656,11.146066],[106.470915,11.144368],[106.472567,11.14319],[106.478623,11.142356],[106.482142,11.142403],[106.486498,11.144056],[106.490028,11.144624],[106.4958,11.143203],[106.497356,11.142537],[106.499928,11.140782],[106.501382,11.14029],[106.5026,11.14052],[106.506,11.14215],[106.5075,11.14208],[106.5083,11.13974],[106.5113,11.13555],[106.5142,11.12775],[106.5159,11.12542],[106.5174,11.12404],[106.5212,11.12181],[106.5244,11.12124],[106.5258,11.12149],[106.5267,11.12104],[106.527,11.12023],[106.527,11.11752],[106.5278,11.11415],[106.5263,11.10586],[106.5253,11.10449],[106.5241,11.10362],[106.5177,11.10231],[106.5164,11.10156],[106.5162,11.10069],[106.5164,11.09928],[106.5173,11.09741],[106.5224,11.09005],[106.5242,11.08953],[106.5251,11.08986],[106.5273,11.09156],[106.5291,11.09223],[106.5323,11.092],[106.5338,11.09055],[106.5339,11.08852],[106.5325,11.08636],[106.5279,11.08208],[106.5268,11.0807],[106.524425,11.076021],[106.523933,11.073502],[106.525151,11.06975],[106.526094,11.068564],[106.529292,11.066025],[106.532137,11.060158],[106.533469,11.058484],[106.536107,11.056463],[106.543649,11.053543],[106.545802,11.052295],[106.547429,11.050408],[106.5483,11.04795],[106.5495,11.0465],[106.5503,11.04603],[106.552,11.04577],[106.5587,11.045628],[106.559033,11.047132],[106.558693,11.048521],[106.559011,11.049322],[106.560023,11.050251],[106.560653,11.05183],[106.560624,11.052685],[106.560211,11.053134],[106.5595,11.053078],[106.557826,11.05515],[106.55695,11.055166],[106.555868,11.057499],[106.558902,11.061887],[106.561357,11.064262],[106.563172,11.067654],[106.564543,11.06912],[106.56458,11.070091],[106.566325,11.073739],[106.567173,11.073431],[106.568068,11.075422],[106.567094,11.076035],[106.57342,11.079265],[106.568865,11.08599],[106.567966,11.085791],[106.567976,11.100826],[106.56194,11.100686],[106.56204,11.126161],[106.549738,11.126084],[106.54965,11.133194],[106.549826,11.13408],[106.550866,11.134126],[106.55071,11.134969],[106.551216,11.135089],[106.550971,11.1367],[106.549441,11.136267],[106.548975,11.137859],[106.548499,11.137716],[106.542079,11.159181],[106.544552,11.15994],[106.544005,11.162308],[106.544041,11.166462],[106.542857,11.166711],[106.540706,11.166366],[106.540058,11.167083],[106.538812,11.166905],[106.538195,11.167673],[106.536707,11.167715],[106.536226,11.168876],[106.534203,11.169579],[106.532689,11.171894],[106.532174,11.172215],[106.532238,11.173018],[106.531655,11.173494],[106.532316,11.174381],[106.532589,11.17586],[106.532354,11.177799],[106.530202,11.17744],[106.529494,11.178449],[106.528705,11.178763],[106.528359,11.179674],[106.52715,11.180954],[106.52703,11.182691],[106.525782,11.183021],[106.525642,11.183701],[106.524669,11.184262],[106.523962,11.185427],[106.524311,11.186264],[106.523293,11.186569],[106.523425,11.187835],[106.523018,11.188527],[106.523389,11.190611],[106.522569,11.191011],[106.522422,11.191857],[106.521665,11.192579],[106.521793,11.19402],[106.52137,11.194979],[106.52149,11.19565],[106.52206,11.195506],[106.522515,11.195792],[106.522114,11.196662],[106.522357,11.197286],[106.521125,11.198089],[106.521823,11.198455],[106.52182,11.199044],[106.520952,11.199263],[106.520702,11.200142],[106.519904,11.200137],[106.519609,11.20067],[106.520156,11.201789],[106.520219,11.203114],[106.520671,11.203587],[106.521561,11.203743],[106.521289,11.204465],[106.521775,11.205481],[106.521421,11.207024],[106.521636,11.207957],[106.520606,11.209223],[106.521197,11.21041],[106.520424,11.212108],[106.519546,11.212944],[106.518458,11.213168],[106.517755,11.214213],[106.518011,11.215117],[106.517663,11.21618],[106.518193,11.217581],[106.51398,11.218122],[106.508213,11.216456],[106.507806,11.217427],[106.478143,11.209001],[106.47929,11.204828],[106.478994,11.204468],[106.463192,11.195215],[106.431918,11.188625],[106.433768,11.17952],[106.432682,11.179181],[106.432833,11.17876],[106.430812,11.176926],[106.429528,11.174726]]],"type":"Polygon"},"properties":{"dashboard_href":"/?tab=signals&city=B%E1%BA%BFn%20C%C3%A1t","dashboard_label":"Lọc tin Bến Cát","former_units":"An Tây và một phần Thanh Tuyền, An Lập","group":"Bến Cát","layer":"current","name":"Tây Nam","slug":"tay-nam","source":"OpenStreetMap","summary":"Phường Tây Nam thuộc khu vực Bến Cát sau sắp xếp năm 2025.","unit_type":"Phường"},"type":"Feature"},{"geometry":{"coordinates":[[[106.50318,11.226084],[106.50418,11.225434],[106.5052,11.225811],[106.505837,11.224804],[106.506596,11.224345],[106.507355,11.224801],[106.508484,11.224221],[106.509529,11.224737],[106.509825,11.22371],[106.511286,11.224337],[106.512108,11.222915],[106.512241,11.222031],[106.513269,11.222058],[106.513458,11.221298],[106.514739,11.221452],[106.514656,11.220147],[106.515531,11.220348],[106.515802,11.21944],[106.51704,11.219363],[106.517148,11.218611],[106.518259,11.217441],[106.517663,11.21618],[106.518011,11.215117],[106.517755,11.214213],[106.518458,11.213168],[106.519546,11.212944],[106.520325,11.212242],[106.521186,11.210482],[106.520589,11.209326],[106.521636,11.207957],[106.521421,11.207024],[106.521775,11.205481],[106.521289,11.204465],[106.521561,11.203743],[106.520671,11.203587],[106.520219,11.203114],[106.520156,11.201789],[106.519609,11.20067],[106.519904,11.200137],[106.520702,11.200142],[106.520952,11.199263],[106.52182,11.199044],[106.521823,11.198455],[106.521125,11.198089],[106.522357,11.197286],[106.522114,11.196662],[106.522515,11.195792],[106.52206,11.195506],[106.52149,11.19565],[106.52137,11.194979],[106.521793,11.19402],[106.521665,11.192579],[106.522422,11.191857],[106.522569,11.191011],[106.523389,11.190611],[106.523018,11.188527],[106.523425,11.187835],[106.523293,11.186569],[106.524311,11.186264],[106.523962,11.185427],[106.524669,11.184262],[106.525642,11.183701],[106.525782,11.183021],[106.52703,11.182691],[106.52715,11.180954],[106.528359,11.179674],[106.528705,11.178763],[106.529494,11.178449],[106.530202,11.17744],[106.532354,11.177799],[106.532589,11.17586],[106.532316,11.174381],[106.531655,11.173494],[106.532238,11.173018],[106.532174,11.172215],[106.532689,11.171894],[106.534203,11.169579],[106.536226,11.168876],[106.536707,11.167715],[106.538195,11.167673],[106.538812,11.166905],[106.540058,11.167083],[106.540706,11.166366],[106.542857,11.166711],[106.544041,11.166462],[106.544005,11.162308],[106.544552,11.15994],[106.542079,11.159181],[106.548499,11.137716],[106.548975,11.137859],[106.549441,11.136267],[106.550971,11.1367],[106.551216,11.135089],[106.55071,11.134969],[106.550866,11.134126],[106.549826,11.13408],[106.54965,11.133194],[106.549738,11.126084],[106.56204,11.126161],[106.56194,11.100686],[106.567976,11.100826],[106.567966,11.085791],[106.568865,11.08599],[106.57342,11.079265],[106.585242,11.08548],[106.586169,11.082446],[106.586516,11.079585],[106.58774,11.076703],[106.590363,11.073175],[106.593668,11.076253],[106.591557,11.079698],[106.590858,11.082873],[106.591251,11.083562],[106.593078,11.084553],[106.595088,11.088934],[106.59544,11.094233],[106.596524,11.096955],[106.596989,11.099772],[106.594737,11.10492],[106.591544,11.109437],[106.590812,11.110094],[106.58765,11.111241],[106.585905,11.11322],[106.584003,11.114637],[106.582331,11.11885],[106.580861,11.120303],[106.581106,11.121611],[106.581863,11.12284],[106.58434,11.124805],[106.586464,11.126019],[106.588103,11.127999],[106.590547,11.130235],[106.591309,11.135463],[106.592151,11.137981],[106.591791,11.140924],[106.592511,11.142402],[106.591735,11.144615],[106.591475,11.146678],[106.59099,11.147482],[106.589523,11.148974],[106.58907,11.150075],[106.587278,11.15173],[106.5855,11.152164],[106.585867,11.153832],[106.58711,11.154119],[106.587375,11.154442],[106.586544,11.156065],[106.585878,11.156527],[106.585288,11.157919],[106.585474,11.158274],[106.585101,11.158598],[106.585407,11.159114],[106.585993,11.159073],[106.586274,11.159672],[106.585619,11.162798],[106.586545,11.164624],[106.58656,11.166824],[106.588162,11.169019],[106.589426,11.169825],[106.590242,11.172231],[106.591059,11.173255],[106.590338,11.176118],[106.589156,11.177134],[106.588076,11.176613],[106.587192,11.177601],[106.586698,11.177603],[106.586189,11.179273],[106.586963,11.179921],[106.587313,11.181238],[106.587984,11.181959],[106.588642,11.18396],[106.589816,11.185989],[106.589364,11.187111],[106.589661,11.188303],[106.589534,11.189444],[106.58886,11.189761],[106.588436,11.190995],[106.588536,11.191955],[106.589197,11.192216],[106.589188,11.192676],[106.58899,11.193051],[106.588778,11.192871],[106.58833,11.195196],[106.588592,11.195626],[106.587987,11.196697],[106.587784,11.197979],[106.585925,11.199689],[106.585782,11.200323],[106.584554,11.201599],[106.584258,11.202356],[106.584211,11.202859],[106.584715,11.203219],[106.584424,11.203788],[106.585236,11.205293],[106.585402,11.206345],[106.585139,11.207403],[106.584892,11.207329],[106.584281,11.208526],[106.584478,11.208638],[106.582065,11.212902],[106.581625,11.212783],[106.580989,11.213346],[106.581287,11.213986],[106.581963,11.213749],[106.582552,11.214754],[106.581612,11.215921],[106.579509,11.224773],[106.587762,11.226693],[106.58773,11.227101],[106.588878,11.227414],[106.591721,11.227525],[106.59247,11.227849],[106.593502,11.227676],[106.595146,11.228169],[106.597704,11.227085],[106.598523,11.228714],[106.598058,11.229195],[106.598348,11.229691],[106.59811,11.230416],[106.596576,11.231185],[106.596711,11.231488],[106.596408,11.231872],[106.595031,11.231823],[106.594274,11.232224],[106.591766,11.23558],[106.590675,11.236664],[106.589506,11.237139],[106.589128,11.237869],[106.588258,11.23817],[106.588176,11.238875],[106.587063,11.239098],[106.585265,11.24136],[106.58504,11.242415],[106.585305,11.243725],[106.586059,11.243997],[106.586211,11.244754],[106.588409,11.247653],[106.590031,11.250838],[106.589715,11.255376],[106.5892,11.256115],[106.587686,11.262805],[106.575006,11.261419],[106.568575,11.258225],[106.557566,11.254772],[106.555868,11.259406],[106.55502,11.258336],[106.55318,11.257865],[106.552777,11.257198],[106.549629,11.257215],[106.548328,11.256694],[106.548028,11.25722],[106.548162,11.259285],[106.547655,11.260635],[106.544203,11.258609],[106.543956,11.258762],[106.543396,11.258315],[106.542996,11.258551],[106.542159,11.257836],[106.541558,11.258509],[106.537846,11.255037],[106.537675,11.253459],[106.536548,11.253711],[106.536827,11.254511],[106.535357,11.255153],[106.535078,11.254079],[106.535456,11.253894],[106.534983,11.252401],[106.53344,11.251867],[106.531972,11.252419],[106.531538,11.252059],[106.531565,11.252448],[106.530336,11.252512],[106.52937,11.251459],[106.529843,11.250786],[106.527832,11.249733],[106.527461,11.250149],[106.525454,11.249028],[106.525674,11.247971],[106.525355,11.247098],[106.52426,11.247145],[106.522662,11.244959],[106.521236,11.245537],[106.521013,11.246012],[106.51878,11.245327],[106.520562,11.240489],[106.519399,11.239901],[106.51866,11.238385],[106.516895,11.239151],[106.515356,11.239],[106.513639,11.239697],[106.512494,11.239295],[106.513261,11.237706],[106.512591,11.236335],[106.509348,11.234031],[106.509908,11.233244],[106.510756,11.232957],[106.511576,11.231637],[106.511606,11.230139],[106.510581,11.227743],[106.508412,11.226836],[106.507278,11.226868],[106.506039,11.227373],[106.504957,11.228906],[106.503203,11.226635],[106.50318,11.226084]]],"type":"Polygon"},"properties":{"dashboard_href":"/?tab=signals&city=B%E1%BA%BFn%20C%C3%A1t","dashboard_label":"Lọc tin Bến Cát","former_units":"An Điền, Long Nguyên và một phần Mỹ Phước","group":"Bến Cát","layer":"current","name":"Long Nguyên","slug":"long-nguyen","source":"OpenStreetMap","summary":"Phường Long Nguyên thuộc khu vực Bến Cát sau sắp xếp năm 2025.","unit_type":"Phường"},"type":"Feature"},{"geometry":{"coordinates":[[[106.579509,11.224773],[106.581612,11.215921],[106.582552,11.214754],[106.581963,11.213749],[106.581287,11.213986],[106.580989,11.213346],[106.581625,11.212783],[106.582065,11.212902],[106.584478,11.208638],[106.584281,11.208526],[106.584892,11.207329],[106.585139,11.207403],[106.585402,11.206345],[106.585236,11.205293],[106.584424,11.203788],[106.584715,11.203219],[106.584211,11.202859],[106.584258,11.202356],[106.584554,11.201599],[106.585782,11.200323],[106.585925,11.199689],[106.587784,11.197979],[106.587987,11.196697],[106.588592,11.195626],[106.58833,11.195196],[106.588778,11.192871],[106.589017,11.193027],[106.589228,11.192292],[106.588612,11.192104],[106.588451,11.190852],[106.58886,11.189761],[106.589521,11.189474],[106.589658,11.188791],[106.589364,11.187111],[106.589762,11.185776],[106.588642,11.18396],[106.587984,11.181959],[106.587313,11.181238],[106.586963,11.179921],[106.586189,11.179273],[106.586698,11.177603],[106.587192,11.177601],[106.588076,11.176613],[106.589156,11.177134],[106.590338,11.176118],[106.591065,11.173148],[106.590242,11.172231],[106.589426,11.169825],[106.588162,11.169019],[106.586571,11.166855],[106.586545,11.164624],[106.585619,11.162798],[106.586274,11.159672],[106.585993,11.159073],[106.585503,11.159158],[106.585104,11.158716],[106.585474,11.158274],[106.585288,11.157919],[106.585878,11.156527],[106.586544,11.156065],[106.58738,11.154548],[106.58711,11.154119],[106.585867,11.153832],[106.5855,11.152164],[106.587278,11.15173],[106.58907,11.150075],[106.589523,11.148974],[106.59099,11.147482],[106.591475,11.146678],[106.591735,11.144615],[106.592506,11.142667],[106.591791,11.140924],[106.592151,11.137981],[106.591309,11.135463],[106.590652,11.130582],[106.589927,11.129408],[106.588028,11.127915],[106.588427,11.12709],[106.588942,11.126854],[106.589697,11.127814],[106.59134,11.126762],[106.594761,11.125456],[106.609225,11.127542],[106.610569,11.126904],[106.611677,11.128401],[106.613239,11.126788],[106.614699,11.122044],[106.619571,11.124151],[106.621315,11.126673],[106.623768,11.126532],[106.626763,11.125486],[106.629167,11.125772],[106.633767,11.125216],[106.635346,11.125452],[106.635741,11.126345],[106.635395,11.127912],[106.633544,11.131819],[106.62985,11.134839],[106.628815,11.138844],[106.627437,11.140511],[106.629034,11.141791],[106.630376,11.144415],[106.637253,11.15197],[106.634088,11.155529],[106.632566,11.153462],[106.63066,11.15406],[106.628608,11.155071],[106.627977,11.155819],[106.625567,11.156881],[106.625863,11.158704],[106.624674,11.159133],[106.623829,11.159832],[106.62334,11.159264],[106.622713,11.15942],[106.622326,11.16094],[106.623309,11.162383],[106.622376,11.163958],[106.622519,11.166568],[106.621472,11.168187],[106.622033,11.168192],[106.622469,11.1678],[106.62482,11.168987],[106.625742,11.169838],[106.625659,11.170457],[106.627982,11.171995],[106.628923,11.173105],[106.630358,11.173373],[106.631842,11.17436],[106.632821,11.176581],[106.634198,11.176668],[106.635929,11.17797],[106.636273,11.178357],[106.636122,11.17926],[106.63693,11.180254],[106.638681,11.181175],[106.639153,11.181849],[106.639491,11.181828],[106.640722,11.182888],[106.642731,11.183191],[106.642662,11.183491],[106.644244,11.184485],[106.644783,11.185435],[106.646232,11.185998],[106.647157,11.187117],[106.649222,11.188432],[106.650706,11.190414],[106.647557,11.193671],[106.646322,11.196266],[106.646104,11.206056],[106.647176,11.207584],[106.652301,11.207498],[106.652318,11.211839],[106.660399,11.21175],[106.661011,11.212494],[106.661612,11.212618],[106.66163,11.213565],[106.669185,11.213721],[106.671023,11.214154],[106.672198,11.216559],[106.672853,11.217227],[106.673802,11.217332],[106.675165,11.218506],[106.677281,11.221418],[106.677844,11.221263],[106.682176,11.227856],[106.683844,11.229347],[106.682658,11.230791],[106.681283,11.231684],[106.680808,11.232918],[106.680442,11.237435],[106.680755,11.239333],[106.679486,11.248583],[106.681826,11.248904],[106.682394,11.279879],[106.682899,11.281407],[106.67343,11.281741],[106.673663,11.286385],[106.66895,11.286601],[106.668655,11.28191],[106.664841,11.282047],[106.664878,11.284452],[106.638912,11.283746],[106.640831,11.278671],[106.639592,11.274306],[106.637812,11.270407],[106.637708,11.269374],[106.637911,11.26807],[106.639416,11.264802],[106.639938,11.261493],[106.640629,11.260551],[106.639703,11.259988],[106.641318,11.256742],[106.641225,11.25621],[106.641876,11.255497],[106.642235,11.251301],[106.641243,11.247129],[106.641025,11.244042],[106.64152,11.239062],[106.642083,11.238001],[106.641723,11.237745],[106.641825,11.236724],[106.642572,11.234626],[106.641653,11.234101],[106.641087,11.230753],[106.641605,11.229545],[106.641474,11.229182],[106.641905,11.229021],[106.641862,11.228356],[106.642731,11.227396],[106.642753,11.225949],[106.641527,11.222328],[106.641318,11.2202],[106.640521,11.21835],[106.639534,11.217051],[106.638164,11.21619],[106.637665,11.215185],[106.636825,11.214985],[106.636246,11.214388],[106.633542,11.213744],[106.633266,11.213381],[106.631225,11.212675],[106.630565,11.212725],[106.634004,11.223397],[106.63505,11.22895],[106.621861,11.231287],[106.621794,11.231029],[106.62034,11.230989],[106.618506,11.233925],[106.618854,11.237081],[106.618649,11.238044],[106.618154,11.238438],[106.618415,11.239558],[106.617508,11.2398],[106.619367,11.250649],[106.592453,11.245899],[106.586162,11.244527],[106.586059,11.243997],[106.585305,11.243725],[106.585056,11.242796],[106.585359,11.241134],[106.587063,11.239098],[106.588176,11.238875],[106.588258,11.23817],[106.589128,11.237869],[106.589438,11.237203],[106.590128,11.236748],[106.590728,11.236621],[106.594274,11.232224],[106.595031,11.231823],[106.596408,11.231872],[106.596711,11.231488],[106.596576,11.231185],[106.59811,11.230416],[106.598348,11.229691],[106.598058,11.229195],[106.598523,11.228714],[106.598319,11.228043],[106.597704,11.227085],[106.595146,11.228169],[106.593502,11.227676],[106.59247,11.227849],[106.591721,11.227525],[106.588878,11.227414],[106.58773,11.227101],[106.587762,11.226693],[106.579509,11.224773]]],"type":"Polygon"},"properties":{"dashboard_href":"/?tab=signals&city=B%E1%BA%BFn%20C%C3%A1t","dashboard_label":"Lọc tin Bến Cát","former_units":"Tân Hưng, Lai Hưng và phần còn lại của Mỹ Phước","group":"Bến Cát","layer":"current","name":"Bến Cát","slug":"ben-cat","source":"OpenStreetMap","summary":"Phường Bến Cát thuộc khu vực Bến Cát sau sắp xếp năm 2025.","unit_type":"Phường"},"type":"Feature"},{"geometry":{"coordinates":[[[106.621472,11.168187],[106.622519,11.166568],[106.622376,11.163958],[106.623309,11.162383],[106.622326,11.16094],[106.622713,11.15942],[106.62334,11.159264],[106.623829,11.159832],[106.624674,11.159133],[106.625863,11.158704],[106.625567,11.156881],[106.627977,11.155819],[106.628608,11.155071],[106.63066,11.15406],[106.632566,11.153462],[106.634088,11.155529],[106.637253,11.15197],[106.630376,11.144415],[106.629034,11.141791],[106.627437,11.140511],[106.628815,11.138844],[106.62985,11.134839],[106.633544,11.131819],[106.635192,11.128501],[106.635741,11.126345],[106.635725,11.125903],[106.634847,11.125233],[106.629167,11.125772],[106.626763,11.125486],[106.625106,11.126098],[106.625545,11.121191],[106.627364,11.12055],[106.627605,11.118428],[106.628154,11.118041],[106.628448,11.117273],[106.629579,11.118243],[106.634437,11.118327],[106.635493,11.118866],[106.636256,11.118883],[106.636754,11.119102],[106.638337,11.120998],[106.639449,11.124047],[106.639814,11.126672],[106.639638,11.128063],[106.640308,11.128972],[106.639509,11.132483],[106.641183,11.1332],[106.641526,11.134076],[106.642814,11.135103],[106.643449,11.135019],[106.644565,11.133992],[106.646813,11.135103],[106.648873,11.134396],[106.649839,11.133519],[106.655877,11.131785],[106.656823,11.131134],[106.657006,11.131716],[106.658105,11.131789],[106.658785,11.131115],[106.665987,11.130159],[106.666225,11.131114],[106.66738,11.131058],[106.667845,11.130575],[106.669345,11.130619],[106.669743,11.129062],[106.67326,11.129492],[106.673381,11.128558],[106.674803,11.128285],[106.676729,11.127296],[106.676867,11.128152],[106.679094,11.127676],[106.678875,11.128333],[106.680712,11.128018],[106.681591,11.127032],[106.682896,11.126897],[106.685421,11.127292],[106.688474,11.12875],[106.687118,11.132188],[106.686379,11.132353],[106.685942,11.133484],[106.685695,11.135598],[106.685207,11.135898],[106.68452,11.13785],[106.68467,11.139308],[106.683869,11.139758],[106.683295,11.141051],[106.683249,11.142014],[106.683901,11.14303],[106.683443,11.143527],[106.683278,11.144369],[106.683383,11.145569],[106.683742,11.145687],[106.68348,11.146993],[106.683662,11.148703],[106.683447,11.150622],[106.682627,11.152119],[106.682154,11.154814],[106.681918,11.15533],[106.679974,11.15529],[106.680438,11.157519],[106.678955,11.157898],[106.68019,11.161492],[106.680224,11.1621],[106.679322,11.16205],[106.679531,11.163142],[106.683394,11.177881],[106.683136,11.180186],[106.683517,11.182707],[106.684113,11.182875],[106.685766,11.184275],[106.688149,11.187556],[106.690825,11.192095],[106.694023,11.193772],[106.695967,11.195911],[106.697677,11.195629],[106.698471,11.195976],[106.70414,11.200783],[106.706541,11.201036],[106.708257,11.201776],[106.721647,11.203274],[106.712077,11.210835],[106.710496,11.224852],[106.708244,11.224659],[106.706399,11.229833],[106.706002,11.233234],[106.704599,11.234081],[106.704299,11.236469],[106.70568,11.236618],[106.706419,11.237087],[106.706269,11.239128],[106.709333,11.239453],[106.711734,11.241215],[106.713805,11.244252],[106.714272,11.245478],[106.714944,11.245987],[106.716208,11.24786],[106.716747,11.247627],[106.719596,11.252023],[106.721127,11.252054],[106.721142,11.256513],[106.720828,11.256763],[106.721023,11.259004],[106.719958,11.258938],[106.717667,11.257478],[106.716493,11.257364],[106.715688,11.257623],[106.714071,11.259248],[106.712679,11.259301],[106.711497,11.258951],[106.710602,11.258346],[106.709804,11.257271],[106.709159,11.254895],[106.706931,11.25393],[106.707032,11.25198],[106.679486,11.248583],[106.680755,11.239333],[106.680442,11.237435],[106.680808,11.232918],[106.681283,11.231684],[106.682658,11.230791],[106.683844,11.229347],[106.682176,11.227856],[106.677844,11.221263],[106.677281,11.221418],[106.675165,11.218506],[106.673802,11.217332],[106.672853,11.217227],[106.672198,11.216559],[106.671023,11.214154],[106.669185,11.213721],[106.66163,11.213565],[106.661612,11.212618],[106.661011,11.212494],[106.660399,11.21175],[106.652318,11.211839],[106.652301,11.207498],[106.647176,11.207584],[106.646104,11.206056],[106.646322,11.196266],[106.647557,11.193671],[106.650706,11.190414],[106.649222,11.188432],[106.647157,11.187117],[106.646232,11.185998],[106.644783,11.185435],[106.644244,11.184485],[106.642662,11.183491],[106.642731,11.183191],[106.640722,11.182888],[106.639491,11.181828],[106.639153,11.181849],[106.638681,11.181175],[106.63693,11.180254],[106.636122,11.17926],[106.636273,11.178357],[106.635929,11.17797],[106.634198,11.176668],[106.632821,11.176581],[106.631842,11.17436],[106.630358,11.173373],[106.628923,11.173105],[106.627982,11.171995],[106.625659,11.170457],[106.625742,11.169838],[106.62482,11.168987],[106.622469,11.1678],[106.622033,11.168192],[106.621472,11.168187]]],"type":"Polygon"},"properties":{"dashboard_href":"/?tab=signals&city=B%E1%BA%BFn%20C%C3%A1t","dashboard_label":"Lọc tin Bến Cát","former_units":"Chánh Phú Hòa và Hưng Hòa","group":"Bến Cát","layer":"current","name":"Chánh Phú Hòa","slug":"chanh-phu-hoa","source":"OpenStreetMap","summary":"Phường Chánh Phú Hòa thuộc khu vực Bến Cát sau sắp xếp năm 2025.","unit_type":"Phường"},"type":"Feature"},{"geometry":{"coordinates":[[[106.580827,11.120552],[106.582331,11.11885],[106.584003,11.114637],[106.585905,11.11322],[106.58765,11.111241],[106.590812,11.110094],[106.591544,11.109437],[106.594737,11.10492],[106.596721,11.100826],[106.597014,11.099211],[106.596524,11.096955],[106.59544,11.094233],[106.595088,11.088934],[106.593078,11.084553],[106.591037,11.083359],[106.590881,11.082392],[106.591557,11.079698],[106.593668,11.076253],[106.596987,11.074494],[106.600438,11.073206],[106.603987,11.072108],[106.606186,11.074205],[106.6089,11.078023],[106.610928,11.07791],[106.612307,11.078342],[106.61274,11.078037],[106.613692,11.078575],[106.614024,11.079333],[106.614826,11.079808],[106.614782,11.080148],[106.614032,11.08053],[106.615493,11.083117],[106.617388,11.081257],[106.619138,11.080099],[106.626789,11.079211],[106.627888,11.076183],[106.637736,11.080212],[106.658593,11.091632],[106.657629,11.093954],[106.65873,11.095433],[106.658073,11.097084],[106.657857,11.099863],[106.660046,11.099917],[106.65982,11.101506],[106.65906,11.101515],[106.659471,11.10736],[106.657569,11.107637],[106.658866,11.122363],[106.65807,11.122457],[106.655775,11.129748],[106.656249,11.129792],[106.656823,11.131134],[106.655877,11.131785],[106.649303,11.133739],[106.648873,11.134396],[106.646505,11.135086],[106.644565,11.133992],[106.643449,11.135019],[106.642814,11.135103],[106.641526,11.134076],[106.641183,11.1332],[106.639509,11.132483],[106.640342,11.129427],[106.639638,11.128063],[106.639814,11.126672],[106.639322,11.123515],[106.638927,11.123082],[106.638337,11.120998],[106.636754,11.119102],[106.634437,11.118327],[106.629579,11.118243],[106.628448,11.117273],[106.628154,11.118041],[106.627605,11.118428],[106.627364,11.12055],[106.625545,11.121191],[106.625106,11.126098],[106.623768,11.126532],[106.621315,11.126673],[106.619571,11.124151],[106.614699,11.122044],[106.613239,11.126788],[106.611677,11.128401],[106.610569,11.126904],[106.609225,11.127542],[106.594761,11.125456],[106.59134,11.126762],[106.589697,11.127814],[106.588616,11.12682],[106.588028,11.127915],[106.586464,11.126019],[106.58434,11.124805],[106.581863,11.12284],[106.580827,11.120552]]],"type":"Polygon"},"properties":{"dashboard_href":"/?tab=signals&city=B%E1%BA%BFn%20C%C3%A1t","dashboard_label":"Lọc tin Bến Cát","former_units":"Đơn vị không thực hiện sắp xếp","group":"Bến Cát","layer":"current","name":"Thới Hòa","slug":"thoi-hoa","source":"OpenStreetMap","summary":"Phường Thới Hòa thuộc khu vực Bến Cát sau sắp xếp năm 2025.","unit_type":"Phường"},"type":"Feature"}],"name":"Khu vực Bến Cát sau sắp xếp 2025 - 6 phường hiện tại","type":"FeatureCollection","updated_at":"2026-07-29"}
