{"features":[{"geometry":{"coordinates":[[[106.716091,10.973742],[106.719174,10.971757],[106.724445,10.97061],[106.724904,10.969829],[106.72538,10.970116],[106.727441,10.966976],[106.726546,10.966931],[106.725155,10.964641],[106.726339,10.960953],[106.725763,10.956785],[106.726798,10.945899],[106.724749,10.944818],[106.72445,10.94191],[106.725009,10.93822],[106.724388,10.938012],[106.726035,10.933923],[106.725816,10.93345],[106.726863,10.931731],[106.726673,10.931357],[106.727067,10.930919],[106.726981,10.930464],[106.727479,10.930245],[106.727823,10.929604],[106.728698,10.929301],[106.728612,10.92684],[106.728938,10.926908],[106.728973,10.926621],[106.732217,10.927009],[106.732217,10.926587],[106.734778,10.927334],[106.741802,10.926927],[106.742101,10.931882],[106.743132,10.931877],[106.743144,10.932169],[106.745123,10.932569],[106.744857,10.933358],[106.746394,10.934117],[106.747145,10.934106],[106.74674,10.934695],[106.7507,10.937264],[106.749375,10.940229],[106.748311,10.944508],[106.746941,10.947302],[106.745368,10.953401],[106.747058,10.957145],[106.750429,10.961727],[106.752653,10.964027],[106.753359,10.965711],[106.751953,10.967783],[106.751528,10.967185],[106.750718,10.967832],[106.751227,10.968463],[106.75066,10.969373],[106.749358,10.969176],[106.749366,10.970429],[106.748932,10.970847],[106.748957,10.971388],[106.74955,10.973092],[106.749391,10.973936],[106.749764,10.977184],[106.741022,10.978071],[106.740624,10.981197],[106.742465,10.986697],[106.740505,10.986336],[106.73779,10.986382],[106.735893,10.987326],[106.735282,10.986259],[106.731013,10.988507],[106.730078,10.987824],[106.726412,10.990866],[106.724654,10.991955],[106.723217,10.992214],[106.722513,10.98632],[106.721464,10.982434],[106.716091,10.973742]]],"type":"Polygon"},"properties":{"dashboard_href":"/?tab=signals","dashboard_label":"Xem toàn bộ tin đang bán","former_units":"An Phú và một phần Bình Chuẩn","group":"Thuận An","layer":"current","name":"An Phú","slug":"an-phu","source":"OpenStreetMap","summary":"Phường An Phú thuộc khu vực Thuận An sau sắp xếp năm 2025.","unit_type":"Phường"},"type":"Feature"},{"geometry":{"coordinates":[[[106.694908,10.873533],[106.698489,10.869681],[106.701602,10.867503],[106.704391,10.866925],[106.710178,10.86647],[106.713114,10.865707],[106.715473,10.868384],[106.71504,10.872618],[106.716293,10.872861],[106.717914,10.872412],[106.719961,10.872322],[106.72146,10.871735],[106.723645,10.871782],[106.72348,10.872746],[106.722628,10.873419],[106.721736,10.87485],[106.721437,10.876385],[106.715294,10.877417],[106.714047,10.876996],[106.713841,10.877807],[106.712851,10.877417],[106.712647,10.877882],[106.713983,10.879366],[106.717879,10.880983],[106.716935,10.882678],[106.716614,10.884616],[106.717586,10.887748],[106.71704,10.887985],[106.71555,10.887704],[106.714427,10.886869],[106.713863,10.887505],[106.714505,10.888152],[106.713471,10.888785],[106.713105,10.889426],[106.713107,10.889902],[106.715649,10.893147],[106.717641,10.896436],[106.721047,10.894028],[106.727496,10.89019],[106.72868,10.891062],[106.729565,10.889677],[106.732829,10.890733],[106.731462,10.885913],[106.736817,10.884747],[106.739615,10.889853],[106.741802,10.926927],[106.734778,10.927334],[106.732217,10.926587],[106.732217,10.927009],[106.728973,10.926621],[106.728938,10.926908],[106.728612,10.92684],[106.728698,10.929301],[106.727823,10.929604],[106.727479,10.930245],[106.726981,10.930464],[106.727067,10.930919],[106.726673,10.931357],[106.726863,10.931731],[106.725816,10.93345],[106.726035,10.933923],[106.724388,10.938012],[106.725009,10.93822],[106.72445,10.94191],[106.723003,10.941906],[106.722385,10.941571],[106.721904,10.939144],[106.721235,10.939127],[106.720222,10.935688],[106.719759,10.935773],[106.71913,10.934676],[106.71957,10.93429],[106.718558,10.932332],[106.717819,10.932672],[106.716909,10.93161],[106.716411,10.930413],[106.716154,10.930582],[106.71217,10.926859],[106.713536,10.920711],[106.712533,10.903477],[106.711996,10.901832],[106.710448,10.899259],[106.705146,10.892897],[106.70552,10.892424],[106.7063,10.892293],[106.706587,10.891484],[106.706896,10.89143],[106.707487,10.892032],[106.708742,10.89127],[106.70684,10.883918],[106.704874,10.884235],[106.704517,10.882318],[106.702322,10.882781],[106.701136,10.882555],[106.70188,10.879783],[106.703057,10.877307],[106.697402,10.875215],[106.694908,10.873533]]],"type":"Polygon"},"properties":{"dashboard_href":"/?tab=signals","dashboard_label":"Xem toàn bộ tin đang bán","former_units":"Bình Hòa và một phần Vĩnh Phú","group":"Thuận An","layer":"current","name":"Bình Hòa","slug":"binh-hoa","source":"OpenStreetMap","summary":"Phường Bình Hòa thuộc khu vực Thuận An sau sắp xếp năm 2025.","unit_type":"Phường"},"type":"Feature"},{"geometry":{"coordinates":[[[106.68026,10.925392],[106.680449,10.923521],[106.681871,10.923161],[106.683401,10.922312],[106.684712,10.921207],[106.68566,10.919896],[106.688034,10.915588],[106.691156,10.908502],[106.693264,10.9027],[106.69442,10.897529],[106.694393,10.894797],[106.693565,10.892698],[106.689599,10.886296],[106.689114,10.884974],[106.688961,10.883116],[106.690009,10.880012],[106.694908,10.873533],[106.697402,10.875215],[106.703057,10.877307],[106.70188,10.879783],[106.701136,10.882555],[106.702322,10.882781],[106.704517,10.882318],[106.704874,10.884235],[106.70684,10.883918],[106.708742,10.89127],[106.707487,10.892032],[106.706896,10.89143],[106.706587,10.891484],[106.7063,10.892293],[106.70552,10.892424],[106.705146,10.892897],[106.710448,10.899259],[106.71241,10.902906],[106.713536,10.920711],[106.713232,10.922923],[106.7108,10.932218],[106.709767,10.932201],[106.709741,10.9328],[106.708188,10.932804],[106.708237,10.934491],[106.70773,10.934875],[106.706162,10.932902],[106.705125,10.933347],[106.705473,10.933854],[106.705247,10.934464],[106.704935,10.934817],[106.704596,10.934582],[106.704128,10.935805],[106.703456,10.935565],[106.702914,10.936983],[106.702331,10.936889],[106.698305,10.938584],[106.695153,10.939374],[106.693953,10.938126],[106.692198,10.939147],[106.689347,10.93662],[106.689169,10.936242],[106.689445,10.935801],[106.688945,10.935699],[106.687942,10.933676],[106.685927,10.932115],[106.684828,10.930716],[106.684507,10.930771],[106.683753,10.92894],[106.682008,10.929973],[106.681663,10.928725],[106.681724,10.926993],[106.680651,10.926214],[106.68026,10.925392]]],"type":"Polygon"},"properties":{"dashboard_href":"/?tab=signals","dashboard_label":"Xem toàn bộ tin đang bán","former_units":"Bình Nhâm, Lái Thiêu và phần còn lại của Vĩnh Phú","group":"Thuận An","layer":"current","name":"Lái Thiêu","slug":"lai-thieu","source":"OpenStreetMap","summary":"Phường Lái Thiêu thuộc khu vực Thuận An sau sắp xếp năm 2025.","unit_type":"Phường"},"type":"Feature"},{"geometry":{"coordinates":[[[106.6502,10.9362],[106.6508,10.93312],[106.6525,10.93027],[106.6534,10.92909],[106.657293,10.925885],[106.66156,10.923257],[106.663904,10.922174],[106.66782,10.920909],[106.670106,10.9209],[106.678145,10.923369],[106.680449,10.923521],[106.680363,10.925835],[106.681724,10.926993],[106.681663,10.928725],[106.682008,10.929973],[106.683753,10.92894],[106.684507,10.930771],[106.684828,10.930716],[106.685927,10.932115],[106.687942,10.933676],[106.688945,10.935699],[106.689445,10.935801],[106.689169,10.936242],[106.689347,10.93662],[106.692198,10.939147],[106.693953,10.938126],[106.695153,10.939374],[106.698305,10.938584],[106.702331,10.936889],[106.702914,10.936983],[106.704071,10.939484],[106.704722,10.939927],[106.705396,10.941086],[106.706142,10.941237],[106.706539,10.944268],[106.706264,10.946847],[106.707299,10.947029],[106.70611,10.950652],[106.702504,10.951602],[106.69997,10.951507],[106.700692,10.95283],[106.699439,10.953649],[106.701654,10.955687],[106.698622,10.958632],[106.696202,10.960311],[106.689261,10.963605],[106.686103,10.960895],[106.685631,10.960037],[106.681752,10.95731],[106.680046,10.961464],[106.678147,10.960613],[106.677285,10.959862],[106.675015,10.959199],[106.675028,10.958986],[106.673783,10.959059],[106.673794,10.958801],[106.672845,10.958527],[106.673062,10.957761],[106.671981,10.95721],[106.6723,10.956352],[106.671423,10.956231],[106.671549,10.955849],[106.669108,10.954403],[106.669932,10.953253],[106.66783,10.952008],[106.666344,10.952652],[106.665892,10.951029],[106.667825,10.949842],[106.668437,10.948274],[106.67011,10.946943],[106.667712,10.943329],[106.666932,10.943528],[106.666479,10.944412],[106.665642,10.94364],[106.664841,10.943853],[106.664424,10.945623],[106.663606,10.946672],[106.660952,10.946147],[106.660001,10.943984],[106.659116,10.942886],[106.658064,10.940002],[106.657447,10.939723],[106.655694,10.940362],[106.654142,10.940117],[106.653391,10.940592],[106.652599,10.941964],[106.6516,10.94217],[106.6504,10.93846],[106.6502,10.9362]]],"type":"Polygon"},"properties":{"dashboard_href":"/?tab=signals","dashboard_label":"Xem toàn bộ tin đang bán","former_units":"Hưng Định, An Thạnh và An Sơn","group":"Thuận An","layer":"current","name":"Thuận An","slug":"thuan-an","source":"OpenStreetMap","summary":"Phường Thuận An thuộc khu vực Thuận An sau sắp xếp năm 2025.","unit_type":"Phường"},"type":"Feature"},{"geometry":{"coordinates":[[[106.689261,10.963605],[106.696927,10.959896],[106.701654,10.955687],[106.699439,10.953649],[106.700692,10.95283],[106.69997,10.951507],[106.702504,10.951602],[106.70611,10.950652],[106.707299,10.947029],[106.706264,10.946847],[106.706539,10.944268],[106.706142,10.941237],[106.705396,10.941086],[106.704722,10.939927],[106.704071,10.939484],[106.702913,10.937428],[106.702928,10.936863],[106.703456,10.935565],[106.704128,10.935805],[106.704596,10.934582],[106.704935,10.934817],[106.705247,10.934464],[106.705473,10.933854],[106.705125,10.933347],[106.706162,10.932902],[106.70773,10.934875],[106.708237,10.934491],[106.708188,10.932804],[106.709741,10.9328],[106.709767,10.932201],[106.7108,10.932218],[106.71217,10.926859],[106.716154,10.930582],[106.716411,10.930413],[106.716909,10.93161],[106.717819,10.932672],[106.718558,10.932332],[106.71957,10.93429],[106.71913,10.934676],[106.719759,10.935773],[106.720222,10.935688],[106.721235,10.939127],[106.721904,10.939144],[106.722385,10.941571],[106.723003,10.941906],[106.72445,10.94191],[106.724749,10.944818],[106.726798,10.945899],[106.725763,10.956785],[106.726339,10.960953],[106.725155,10.964641],[106.726546,10.966931],[106.727441,10.966976],[106.72538,10.970116],[106.724904,10.969829],[106.724445,10.97061],[106.719174,10.971757],[106.716091,10.973742],[106.721387,10.982246],[106.722161,10.984471],[106.72293,10.989996],[106.721664,10.990259],[106.721068,10.990879],[106.720262,10.99093],[106.720303,10.991831],[106.718335,10.992087],[106.718321,10.992946],[106.717891,10.992836],[106.717868,10.993187],[106.715314,10.993495],[106.716138,10.995347],[106.715419,10.995441],[106.714896,10.995431],[106.714743,10.995105],[106.712179,10.993814],[106.712321,10.992434],[106.711608,10.992463],[106.711576,10.992113],[106.710924,10.992329],[106.710769,10.991696],[106.709516,10.991994],[106.707644,10.99172],[106.707507,10.994054],[106.708706,10.997493],[106.707167,10.996662],[106.70479,10.994679],[106.697648,10.990282],[106.696467,10.988701],[106.696259,10.987403],[106.697247,10.986795],[106.697205,10.986296],[106.698348,10.985878],[106.698807,10.984149],[106.698448,10.982953],[106.699191,10.982355],[106.699425,10.980979],[106.700568,10.979602],[106.701152,10.978193],[106.700894,10.974965],[106.701086,10.974203],[106.70193,10.973385],[106.702178,10.972644],[106.700821,10.970813],[106.70029,10.970871],[106.697622,10.968681],[106.693539,10.966329],[106.690328,10.96502],[106.689261,10.963605]]],"type":"Polygon"},"properties":{"dashboard_href":"/?tab=signals","dashboard_label":"Xem toàn bộ tin đang bán","former_units":"Thuận Giao và phần còn lại của Bình Chuẩn","group":"Thuận An","layer":"current","name":"Thuận Giao","slug":"thuan-giao","source":"OpenStreetMap","summary":"Phường Thuận Giao thuộc khu vực Thuận An sau sắp xếp năm 2025.","unit_type":"Phường"},"type":"Feature"}],"name":"Khu vực Thuận An sau sắp xếp 2025 - 5 phường hiện tại","type":"FeatureCollection","updated_at":"2026-07-29"}
