{"features":[{"geometry":{"coordinates":[[[106.749977,10.938452],[106.746506,10.935289],[106.746071,10.934806],[106.745949,10.934625],[106.745979,10.934473],[106.745758,10.93405],[106.745575,10.933899],[106.745148,10.933872],[106.744926,10.933812],[106.744926,10.932751],[106.744476,10.932632],[106.744019,10.932574],[106.743126,10.932034],[106.742416,10.931492],[106.741745,10.931326],[106.741562,10.92702],[106.736893,10.927137],[106.736069,10.927233],[106.735802,10.927234],[106.731895,10.926317],[106.73172,10.926863],[106.73027,10.92672],[106.729507,10.926482],[106.729195,10.926362],[106.729012,10.926333],[106.728737,10.926729],[106.728218,10.926731],[106.728188,10.927126],[106.728073,10.928218],[106.727997,10.928521],[106.727722,10.928796],[106.727356,10.92898],[106.727356,10.929131],[106.727669,10.929675],[106.727303,10.929981],[106.726868,10.930286],[106.726868,10.930438],[106.72715,10.931133],[106.726173,10.931988],[106.725655,10.932658],[106.72541,10.933144],[106.725388,10.933993],[106.725441,10.934902],[106.725136,10.935723],[106.724739,10.936634],[106.724625,10.937059],[106.724442,10.937788],[106.724442,10.938122],[106.724571,10.938447],[106.724663,10.938719],[106.724693,10.939082],[106.72467,10.939477],[106.724487,10.940418],[106.724533,10.942006],[106.724541,10.943521],[106.724564,10.943885],[106.72496,10.944489],[106.72506,10.944731],[106.725426,10.945063],[106.725677,10.945243],[106.725922,10.945332],[106.726227,10.945634],[106.726326,10.945967],[106.726395,10.94724],[106.726402,10.94921],[106.726349,10.953122],[106.726204,10.95482],[106.725952,10.956398],[106.725746,10.957521],[106.725983,10.960794],[106.725754,10.962311],[106.725395,10.963223],[106.724602,10.964713],[106.725998,10.966554],[106.726601,10.967643],[106.727165,10.966823],[106.728973,10.967115],[106.73027,10.96735],[106.730545,10.967318],[106.731262,10.967224],[106.736221,10.969408],[106.744057,10.969182],[106.749153,10.969341],[106.749527,10.968972],[106.750137,10.968317],[106.750473,10.968112],[106.751411,10.967414],[106.752846,10.966716],[106.753044,10.966477],[106.753105,10.966265],[106.753105,10.965961],[106.752853,10.965235],[106.752388,10.964207],[106.751862,10.963695],[106.750443,10.962521],[106.749664,10.961494],[106.747627,10.958687],[106.747017,10.957872],[106.745682,10.955333],[106.744904,10.95367],[106.745697,10.951695],[106.746155,10.949418],[106.746696,10.947293],[106.747787,10.944831],[106.748444,10.943342],[106.748764,10.941491],[106.749008,10.940064],[106.749977,10.938452]]],"type":"Polygon"},"properties":{"boundary_claim":true,"boundary_confidence":"source_snapshot","boundary_source":"source_snapshot","current_ward_after_2025":"An Phú","dashboard_href":"/?tab=signals","dashboard_label":"Xem toàn bộ tin đang bán","derived_from":"","former_units":"","group":"Thuận An trước 2025","is_derived_boundary":false,"last_updated":"2026-07-29","layer":"legacy","name":"An Phú","slug":"an-phu","source":"Stanford Geospatial Center / GADM v2.8 snapshot","source_id":"FID:1139","source_url":"https://geodiscovery.uwm.edu/catalog/stanford-dk039bc2779/metadata","summary":"Ranh đơn vị cũ tham khảo từ snapshot hành chính lịch sử.","unit_type":"Phường cũ"},"type":"Feature"},{"geometry":{"coordinates":[[[106.651329,10.942219],[106.652252,10.941814],[106.65258,10.941392],[106.652817,10.940924],[106.653145,10.940502],[106.653755,10.939892],[106.654182,10.939843],[106.654984,10.940025],[106.655983,10.94002],[106.656593,10.939737],[106.657112,10.93936],[106.657539,10.939311],[106.657967,10.939542],[106.658203,10.940335],[106.658356,10.941408],[106.658737,10.942292],[106.659691,10.943408],[106.660454,10.944944],[106.660789,10.945689],[106.661217,10.94592],[106.663017,10.946284],[106.663345,10.946235],[106.663918,10.945765],[106.664337,10.944923],[106.664711,10.943847],[106.664894,10.943333],[106.665131,10.943285],[106.665703,10.943795],[106.665985,10.944167],[106.666267,10.944165],[106.666458,10.944024],[106.666786,10.943602],[106.667114,10.943227],[106.667496,10.943132],[106.667778,10.943223],[106.668068,10.943502],[106.668449,10.94392],[106.669113,10.945084],[106.669487,10.945945],[106.669739,10.945683],[106.669769,10.945441],[106.669518,10.943897],[106.66954,10.942867],[106.669441,10.941898],[106.66935,10.941353],[106.66938,10.94105],[106.669807,10.940623],[106.670418,10.940499],[106.671463,10.940251],[106.672546,10.939909],[106.672287,10.939509],[106.671234,10.935532],[106.672531,10.934267],[106.674309,10.932984],[106.675072,10.932283],[106.676514,10.931274],[106.679131,10.932564],[106.679695,10.932379],[106.680092,10.932225],[106.680367,10.931738],[106.680733,10.931373],[106.68187,10.930911],[106.681862,10.930821],[106.681557,10.930337],[106.681702,10.929366],[106.681847,10.927577],[106.681442,10.927064],[106.680687,10.92637],[106.680412,10.925887],[106.680344,10.925523],[106.680374,10.924705],[106.680397,10.924037],[106.680389,10.923902],[106.680122,10.923903],[106.680008,10.923904],[106.679184,10.923874],[106.678093,10.923678],[106.676178,10.92308],[106.671143,10.921384],[106.669502,10.921021],[106.668648,10.921026],[106.666359,10.921512],[106.66288,10.922679],[106.658623,10.924933],[106.65712,10.925786],[106.654984,10.927458],[106.653122,10.929095],[106.652191,10.930274],[106.651215,10.931868],[106.650497,10.933122],[106.650063,10.934476],[106.649834,10.9362],[106.649879,10.937417],[106.650055,10.938463],[106.650475,10.939982],[106.651268,10.942174],[106.651329,10.942219]]],"type":"Polygon"},"properties":{"boundary_claim":true,"boundary_confidence":"source_snapshot","boundary_source":"source_snapshot","current_ward_after_2025":"Thuận An","dashboard_href":"/?tab=signals","dashboard_label":"Xem toàn bộ tin đang bán","derived_from":"","former_units":"","group":"Thuận An trước 2025","is_derived_boundary":false,"last_updated":"2026-07-29","layer":"legacy","name":"An Sơn","slug":"an-son","source":"Stanford Geospatial Center / GADM v2.8 snapshot","source_id":"FID:1140","source_url":"https://geodiscovery.uwm.edu/catalog/stanford-dk039bc2779/metadata","summary":"Ranh đơn vị cũ tham khảo từ snapshot hành chính lịch sử.","unit_type":"Phường cũ"},"type":"Feature"},{"geometry":{"coordinates":[[[106.696877,10.95146],[106.695786,10.949255],[106.694473,10.947233],[106.69088,10.943303],[106.690559,10.942998],[106.690292,10.94345],[106.690048,10.943877],[106.689781,10.944223],[106.689461,10.944437],[106.689331,10.944438],[106.689056,10.944386],[106.688927,10.944281],[106.688736,10.944069],[106.688385,10.943673],[106.688271,10.943568],[106.68811,10.943489],[106.687706,10.943465],[106.687088,10.943389],[106.68679,10.942197],[106.686546,10.941746],[106.686058,10.941138],[106.686218,10.941031],[106.686188,10.940793],[106.68602,10.940289],[106.685455,10.939549],[106.684288,10.938202],[106.68206,10.935908],[106.680946,10.934773],[106.680756,10.934189],[106.680649,10.933792],[106.680183,10.933316],[106.679131,10.932564],[106.676514,10.931274],[106.675072,10.932283],[106.674309,10.932984],[106.672531,10.934267],[106.671234,10.935532],[106.672287,10.939509],[106.672546,10.939909],[106.671463,10.940251],[106.670418,10.940499],[106.669807,10.940623],[106.66938,10.94105],[106.66935,10.941353],[106.669441,10.941898],[106.66954,10.942867],[106.669518,10.943897],[106.669769,10.945441],[106.669739,10.945683],[106.669487,10.945945],[106.670021,10.946747],[106.669975,10.946923],[106.668556,10.947854],[106.668205,10.948383],[106.66803,10.948823],[106.667809,10.949395],[106.667633,10.949791],[106.667839,10.950625],[106.667892,10.95203],[106.66803,10.952293],[106.668297,10.952599],[106.668831,10.952948],[106.670174,10.953512],[106.670753,10.953904],[106.670006,10.955182],[106.668274,10.956421],[106.671089,10.958251],[106.673782,10.959641],[106.675705,10.960553],[106.679054,10.962687],[106.681602,10.957335],[106.683266,10.958511],[106.684998,10.959716],[106.686142,10.961017],[106.687286,10.962039],[106.68895,10.963431],[106.689178,10.963752],[106.693375,10.961959],[106.697639,10.959479],[106.701477,10.955749],[106.696877,10.95146]]],"type":"Polygon"},"properties":{"boundary_claim":true,"boundary_confidence":"source_snapshot","boundary_source":"source_snapshot","current_ward_after_2025":"Thuận An","dashboard_href":"/?tab=signals","dashboard_label":"Xem toàn bộ tin đang bán","derived_from":"","former_units":"","group":"Thuận An trước 2025","is_derived_boundary":false,"last_updated":"2026-07-29","layer":"legacy","name":"An Thạnh","slug":"an-thanh","source":"Stanford Geospatial Center / GADM v2.8 snapshot","source_id":"FID:1141","source_url":"https://geodiscovery.uwm.edu/catalog/stanford-dk039bc2779/metadata","summary":"Ranh đơn vị cũ tham khảo từ snapshot hành chính lịch sử.","unit_type":"Phường cũ"},"type":"Feature"},{"geometry":{"coordinates":[[[106.749153,10.969341],[106.744057,10.969182],[106.736221,10.969408],[106.731262,10.967224],[106.730545,10.967318],[106.73027,10.96735],[106.728973,10.967115],[106.727165,10.966823],[106.726601,10.967643],[106.725075,10.969744],[106.724533,10.970717],[106.724007,10.970477],[106.723236,10.970481],[106.721123,10.9711],[106.718246,10.972147],[106.715721,10.973586],[106.713982,10.970928],[106.711143,10.9734],[106.709969,10.972678],[106.709557,10.972529],[106.708878,10.972503],[106.707253,10.97236],[106.70639,10.972365],[106.706146,10.972306],[106.705956,10.972064],[106.705246,10.970674],[106.70488,10.970827],[106.704475,10.97083],[106.704323,10.970739],[106.703957,10.970438],[106.703461,10.970229],[106.703217,10.969988],[106.703056,10.969776],[106.702995,10.969443],[106.702904,10.969201],[106.702744,10.969081],[106.702377,10.969022],[106.702194,10.969054],[106.701859,10.96945],[106.70047,10.970981],[106.700706,10.971213],[106.701515,10.972236],[106.701897,10.973075],[106.701805,10.973356],[106.701431,10.973825],[106.700912,10.974248],[106.700722,10.974763],[106.700729,10.975651],[106.700836,10.977098],[106.700912,10.978266],[106.70063,10.979201],[106.699783,10.980374],[106.698898,10.982481],[106.698532,10.983838],[106.698441,10.984492],[106.698112,10.985568],[106.697784,10.985991],[106.696732,10.986934],[106.696342,10.989517],[106.69632,10.98966],[106.706657,10.99687],[106.708305,10.997839],[106.707474,10.995862],[106.707024,10.994644],[106.707024,10.993729],[106.707245,10.991762],[106.710121,10.991914],[106.711182,10.993298],[106.71228,10.994302],[106.713181,10.99496],[106.713951,10.995493],[106.715134,10.996055],[106.715492,10.996179],[106.715652,10.996052],[106.715584,10.995579],[106.715317,10.994222],[106.715378,10.993685],[106.716629,10.993836],[106.71714,10.99377],[106.717461,10.993515],[106.718254,10.992753],[106.718811,10.991703],[106.719109,10.991701],[106.719559,10.991894],[106.719803,10.99199],[106.7201,10.991989],[106.720444,10.991303],[106.720787,10.991204],[106.721184,10.991201],[106.721382,10.991005],[106.721924,10.990611],[106.722565,10.990461],[106.722923,10.992803],[106.727524,10.991312],[106.731964,10.989773],[106.734337,10.989027],[106.737251,10.988278],[106.741997,10.98664],[106.74147,10.984799],[106.741089,10.981071],[106.741135,10.978132],[106.745201,10.977828],[106.74955,10.977335],[106.749763,10.977368],[106.74939,10.976801],[106.749344,10.976434],[106.749336,10.975863],[106.749184,10.974349],[106.749138,10.972965],[106.749161,10.969992],[106.749153,10.969341]]],"type":"Polygon"},"properties":{"boundary_claim":true,"boundary_confidence":"source_snapshot","boundary_source":"source_snapshot","current_ward_after_2025":"An Phú, Thuận Giao","dashboard_href":"/?tab=signals","dashboard_label":"Xem toàn bộ tin đang bán","derived_from":"","former_units":"","group":"Thuận An trước 2025","is_derived_boundary":false,"last_updated":"2026-07-29","layer":"legacy","name":"Bình Chuẩn","slug":"binh-chuan","source":"Stanford Geospatial Center / GADM v2.8 snapshot","source_id":"FID:1142","source_url":"https://geodiscovery.uwm.edu/catalog/stanford-dk039bc2779/metadata","summary":"Ranh đơn vị cũ tham khảo từ snapshot hành chính lịch sử.","unit_type":"Phường cũ"},"type":"Feature"},{"geometry":{"coordinates":[[[106.7127,10.889808],[106.712372,10.890257],[106.712067,10.890501],[106.711426,10.89093],[106.710594,10.891662],[106.709984,10.892303],[106.709862,10.892607],[106.709503,10.893853],[106.70932,10.894279],[106.709137,10.894402],[106.708923,10.894191],[106.708817,10.892856],[106.708664,10.891977],[106.708443,10.891705],[106.708153,10.89158],[106.707993,10.891719],[106.707733,10.8919],[106.707375,10.891921],[106.707092,10.891923],[106.706848,10.891766],[106.706612,10.891707],[106.706429,10.891728],[106.706108,10.892166],[106.705933,10.892484],[106.705307,10.892468],[106.70491,10.893004],[106.707634,10.896204],[106.709648,10.898596],[106.710304,10.899286],[106.711472,10.901255],[106.712021,10.902587],[106.712189,10.903654],[106.712585,10.905894],[106.712601,10.90835],[106.71315,10.915555],[106.713211,10.91721],[106.713318,10.921267],[106.712845,10.924153],[106.712212,10.926399],[106.712006,10.927177],[106.71479,10.929843],[106.715225,10.930234],[106.715591,10.930444],[106.716148,10.930714],[106.716393,10.930986],[106.716583,10.931561],[106.716957,10.932104],[106.717232,10.932406],[106.717445,10.932617],[106.718048,10.932917],[106.718513,10.933278],[106.718788,10.933519],[106.71904,10.93379],[106.719131,10.934093],[106.719162,10.934366],[106.71907,10.935033],[106.719078,10.935397],[106.7192,10.93576],[106.719421,10.935971],[106.719788,10.93609],[106.720032,10.93621],[106.720245,10.936451],[106.720406,10.936754],[106.72081,10.938207],[106.720985,10.938691],[106.72123,10.939174],[106.72142,10.939294],[106.721573,10.939445],[106.721695,10.939657],[106.721794,10.940384],[106.721886,10.941081],[106.722015,10.941413],[106.722229,10.941685],[106.722443,10.941835],[106.723305,10.942013],[106.724533,10.942006],[106.724487,10.940418],[106.72467,10.939477],[106.724693,10.939082],[106.724663,10.938719],[106.724571,10.938447],[106.724442,10.938122],[106.724442,10.937788],[106.724625,10.937059],[106.724739,10.936634],[106.725136,10.935723],[106.725441,10.934902],[106.725388,10.933993],[106.72541,10.933144],[106.725655,10.932658],[106.726173,10.931988],[106.72715,10.931133],[106.726868,10.930438],[106.726868,10.930286],[106.727303,10.929981],[106.727669,10.929675],[106.727356,10.929131],[106.727356,10.92898],[106.727722,10.928796],[106.727997,10.928521],[106.728073,10.928218],[106.728188,10.927126],[106.728218,10.926731],[106.728737,10.926729],[106.729012,10.926333],[106.729195,10.926362],[106.729507,10.926482],[106.73027,10.92672],[106.73172,10.926863],[106.731895,10.926317],[106.735802,10.927234],[106.736069,10.927233],[106.736893,10.927137],[106.741562,10.92702],[106.741531,10.925065],[106.740906,10.914512],[106.740578,10.908719],[106.739525,10.890035],[106.739349,10.88839],[106.739014,10.887898],[106.73822,10.886472],[106.737541,10.886687],[106.73481,10.886374],[106.731529,10.885719],[106.731522,10.886312],[106.731476,10.886808],[106.73156,10.887136],[106.732185,10.889296],[106.732986,10.891292],[106.73259,10.891333],[106.731438,10.891049],[106.728867,10.889872],[106.728477,10.890614],[106.727448,10.890586],[106.726715,10.890496],[106.726471,10.890638],[106.72541,10.891127],[106.724724,10.891442],[106.722954,10.892518],[106.721436,10.893445],[106.718292,10.895658],[106.717545,10.896232],[106.717354,10.896416],[106.716034,10.894167],[106.71563,10.893472],[106.715027,10.892617],[106.7127,10.889808]]],"type":"Polygon"},"properties":{"boundary_claim":true,"boundary_confidence":"source_snapshot","boundary_source":"source_snapshot","current_ward_after_2025":"Bình Hòa","dashboard_href":"/?tab=signals","dashboard_label":"Xem toàn bộ tin đang bán","derived_from":"","former_units":"","group":"Thuận An trước 2025","is_derived_boundary":false,"last_updated":"2026-07-29","layer":"legacy","name":"Bình Hòa","slug":"binh-hoa","source":"Stanford Geospatial Center / GADM v2.8 snapshot","source_id":"FID:1143","source_url":"https://geodiscovery.uwm.edu/catalog/stanford-dk039bc2779/metadata","summary":"Ranh đơn vị cũ tham khảo từ snapshot hành chính lịch sử.","unit_type":"Phường cũ"},"type":"Feature"},{"geometry":{"coordinates":[[[106.704437,10.93369],[106.704247,10.932487],[106.703819,10.93056],[106.703476,10.929867],[106.702126,10.929305],[106.702759,10.927974],[106.70314,10.927244],[106.70311,10.926865],[106.702721,10.925856],[106.702049,10.924215],[106.701988,10.92371],[106.702049,10.923393],[106.702263,10.92238],[106.702385,10.92083],[106.702484,10.918643],[106.702248,10.916843],[106.699692,10.916794],[106.699402,10.916606],[106.698303,10.91557],[106.695961,10.914319],[106.694962,10.913597],[106.69371,10.912562],[106.692299,10.91257],[106.691689,10.912383],[106.689865,10.911354],[106.689735,10.911408],[106.688156,10.914802],[106.686974,10.91731],[106.685692,10.919648],[106.68457,10.921243],[106.683517,10.922161],[106.682426,10.92291],[106.681198,10.923593],[106.680389,10.923902],[106.680397,10.924037],[106.680374,10.924705],[106.680344,10.925523],[106.680412,10.925887],[106.680687,10.92637],[106.681442,10.927064],[106.681847,10.927577],[106.681702,10.929366],[106.681557,10.930337],[106.682915,10.929353],[106.683464,10.929046],[106.683556,10.929076],[106.684143,10.929952],[106.684769,10.931283],[106.685356,10.931977],[106.68634,10.932911],[106.688408,10.934719],[106.689827,10.935924],[106.690125,10.936498],[106.690216,10.936952],[106.690163,10.937195],[106.690002,10.937226],[106.689789,10.937167],[106.68911,10.936686],[106.688744,10.936384],[106.688622,10.936385],[106.688408,10.936508],[106.688347,10.936902],[106.688622,10.937204],[106.690201,10.938408],[106.690964,10.938767],[106.691307,10.939069],[106.691582,10.938764],[106.692505,10.939395],[106.693756,10.938327],[106.695122,10.939775],[106.698792,10.93839],[106.70295,10.936639],[106.703712,10.935604],[106.704346,10.934843],[106.704498,10.934599],[106.704529,10.934296],[106.704437,10.93369]]],"type":"Polygon"},"properties":{"boundary_claim":true,"boundary_confidence":"source_snapshot","boundary_source":"source_snapshot","current_ward_after_2025":"Lái Thiêu","dashboard_href":"/?tab=signals","dashboard_label":"Xem toàn bộ tin đang bán","derived_from":"","former_units":"","group":"Thuận An trước 2025","is_derived_boundary":false,"last_updated":"2026-07-29","layer":"legacy","name":"Bình Nhâm","slug":"binh-nham","source":"Stanford Geospatial Center / GADM v2.8 snapshot","source_id":"FID:1144","source_url":"https://geodiscovery.uwm.edu/catalog/stanford-dk039bc2779/metadata","summary":"Ranh đơn vị cũ tham khảo từ snapshot hành chính lịch sử.","unit_type":"Phường cũ"},"type":"Feature"},{"geometry":{"coordinates":[[[106.681557,10.930337],[106.681862,10.930821],[106.68187,10.930911],[106.680733,10.931373],[106.680367,10.931738],[106.680092,10.932225],[106.679695,10.932379],[106.679131,10.932564],[106.680183,10.933316],[106.680649,10.933792],[106.680756,10.934189],[106.680946,10.934773],[106.68206,10.935908],[106.684288,10.938202],[106.685455,10.939549],[106.68602,10.940289],[106.686188,10.940793],[106.686218,10.941031],[106.686058,10.941138],[106.686546,10.941746],[106.68679,10.942197],[106.687088,10.943389],[106.687706,10.943465],[106.68811,10.943489],[106.688271,10.943568],[106.688385,10.943673],[106.688736,10.944069],[106.688927,10.944281],[106.689056,10.944386],[106.689331,10.944438],[106.689461,10.944437],[106.689781,10.944223],[106.690048,10.943877],[106.690292,10.94345],[106.690559,10.942998],[106.69088,10.943303],[106.694473,10.947233],[106.695786,10.949255],[106.696877,10.95146],[106.7006,10.951655],[106.702126,10.951695],[106.702957,10.951642],[106.703903,10.951322],[106.705055,10.951098],[106.706017,10.950876],[106.707062,10.947543],[106.706429,10.947126],[106.706062,10.946669],[106.705849,10.946162],[106.705795,10.945582],[106.70562,10.943963],[106.705414,10.943215],[106.704758,10.941958],[106.704506,10.940872],[106.704453,10.93993],[106.70433,10.939568],[106.703987,10.939184],[106.703712,10.93817],[106.70295,10.936639],[106.698792,10.93839],[106.695122,10.939775],[106.693756,10.938327],[106.692505,10.939395],[106.691582,10.938764],[106.691307,10.939069],[106.690964,10.938767],[106.690201,10.938408],[106.688622,10.937204],[106.688347,10.936902],[106.688408,10.936508],[106.688622,10.936385],[106.688744,10.936384],[106.68911,10.936686],[106.689789,10.937167],[106.690002,10.937226],[106.690163,10.937195],[106.690216,10.936952],[106.690125,10.936498],[106.689827,10.935924],[106.688408,10.934719],[106.68634,10.932911],[106.685356,10.931977],[106.684769,10.931283],[106.684143,10.929952],[106.683556,10.929076],[106.683464,10.929046],[106.682915,10.929353],[106.681557,10.930337]]],"type":"Polygon"},"properties":{"boundary_claim":true,"boundary_confidence":"source_snapshot","boundary_source":"source_snapshot","current_ward_after_2025":"Thuận An","dashboard_href":"/?tab=signals","dashboard_label":"Xem toàn bộ tin đang bán","derived_from":"","former_units":"","group":"Thuận An trước 2025","is_derived_boundary":false,"last_updated":"2026-07-29","layer":"legacy","name":"Hưng Định","slug":"hung-dinh","source":"Stanford Geospatial Center / GADM v2.8 snapshot","source_id":"FID:1145","source_url":"https://geodiscovery.uwm.edu/catalog/stanford-dk039bc2779/metadata","summary":"Ranh đơn vị cũ tham khảo từ snapshot hành chính lịch sử.","unit_type":"Phường cũ"},"type":"Feature"},{"geometry":{"coordinates":[[[106.705307,10.892468],[106.705231,10.892051],[106.7052,10.89128],[106.70504,10.890252],[106.705116,10.889796],[106.705246,10.889361],[106.705284,10.889091],[106.7052,10.888707],[106.705048,10.888477],[106.704575,10.888095],[106.704025,10.887637],[106.702492,10.884915],[106.691307,10.889279],[106.691261,10.889336],[106.69136,10.889475],[106.691605,10.889947],[106.69323,10.892776],[106.693848,10.894125],[106.69413,10.895711],[106.694168,10.896657],[106.694107,10.897502],[106.693932,10.898561],[106.693581,10.900648],[106.693077,10.902712],[106.692642,10.90395],[106.692535,10.904235],[106.691429,10.907148],[106.68985,10.911173],[106.689865,10.911354],[106.691689,10.912383],[106.692299,10.91257],[106.69371,10.912562],[106.694962,10.913597],[106.695961,10.914319],[106.698303,10.91557],[106.699402,10.916606],[106.699692,10.916794],[106.702248,10.916843],[106.702484,10.918643],[106.702385,10.92083],[106.702263,10.92238],[106.702049,10.923393],[106.701988,10.92371],[106.702049,10.924215],[106.702721,10.925856],[106.70311,10.926865],[106.70314,10.927244],[106.702759,10.927974],[106.702126,10.929305],[106.703476,10.929867],[106.703819,10.93056],[106.704247,10.932487],[106.704437,10.93369],[106.707016,10.933948],[106.707039,10.935313],[106.708267,10.935488],[106.708443,10.933819],[106.710289,10.933624],[106.710754,10.93196],[106.712006,10.927177],[106.712212,10.926399],[106.712845,10.924153],[106.713318,10.921267],[106.713211,10.91721],[106.71315,10.915555],[106.712601,10.90835],[106.712585,10.905894],[106.712189,10.903654],[106.712021,10.902587],[106.711472,10.901255],[106.710304,10.899286],[106.709648,10.898596],[106.707634,10.896204],[106.70491,10.893004],[106.705307,10.892468]]],"type":"Polygon"},"properties":{"boundary_claim":true,"boundary_confidence":"source_snapshot","boundary_source":"source_snapshot","current_ward_after_2025":"Lái Thiêu","dashboard_href":"/?tab=signals","dashboard_label":"Xem toàn bộ tin đang bán","derived_from":"","former_units":"","group":"Thuận An trước 2025","is_derived_boundary":false,"last_updated":"2026-07-29","layer":"legacy","name":"Lái Thiêu","slug":"lai-thieu","source":"Stanford Geospatial Center / GADM v2.8 snapshot","source_id":"FID:1146","source_url":"https://geodiscovery.uwm.edu/catalog/stanford-dk039bc2779/metadata","summary":"Ranh đơn vị cũ tham khảo từ snapshot hành chính lịch sử.","unit_type":"Phường cũ"},"type":"Feature"},{"geometry":{"coordinates":[[[106.704437,10.93369],[106.704529,10.934296],[106.704498,10.934599],[106.704346,10.934843],[106.703712,10.935604],[106.70295,10.936639],[106.703712,10.93817],[106.703987,10.939184],[106.70433,10.939568],[106.704453,10.93993],[106.704506,10.940872],[106.704758,10.941958],[106.705414,10.943215],[106.70562,10.943963],[106.705795,10.945582],[106.705849,10.946162],[106.706062,10.946669],[106.706429,10.947126],[106.707062,10.947543],[106.706017,10.950876],[106.705055,10.951098],[106.703903,10.951322],[106.702957,10.951642],[106.702126,10.951695],[106.7006,10.951655],[106.696877,10.95146],[106.701477,10.955749],[106.697639,10.959479],[106.693375,10.961959],[106.689178,10.963752],[106.689713,10.964501],[106.690475,10.965244],[106.691803,10.966031],[106.694077,10.966766],[106.69574,10.967784],[106.697899,10.969127],[106.699135,10.970101],[106.699898,10.970657],[106.700233,10.970936],[106.70047,10.970981],[106.701859,10.96945],[106.702194,10.969054],[106.702377,10.969022],[106.702744,10.969081],[106.702904,10.969201],[106.702995,10.969443],[106.703056,10.969776],[106.703217,10.969988],[106.703461,10.970229],[106.703957,10.970438],[106.704323,10.970739],[106.704475,10.97083],[106.70488,10.970827],[106.705246,10.970674],[106.705956,10.972064],[106.706146,10.972306],[106.70639,10.972365],[106.707253,10.97236],[106.708878,10.972503],[106.709557,10.972529],[106.709969,10.972678],[106.711143,10.9734],[106.713982,10.970928],[106.715721,10.973586],[106.718246,10.972147],[106.721123,10.9711],[106.723236,10.970481],[106.724007,10.970477],[106.724533,10.970717],[106.725075,10.969744],[106.726601,10.967643],[106.725998,10.966554],[106.724602,10.964713],[106.725395,10.963223],[106.725754,10.962311],[106.725983,10.960794],[106.725746,10.957521],[106.725952,10.956398],[106.726204,10.95482],[106.726349,10.953122],[106.726402,10.94921],[106.726395,10.94724],[106.726326,10.945967],[106.726227,10.945634],[106.725922,10.945332],[106.725677,10.945243],[106.725426,10.945063],[106.72506,10.944731],[106.72496,10.944489],[106.724564,10.943885],[106.724541,10.943521],[106.724533,10.942006],[106.723305,10.942013],[106.722443,10.941835],[106.722229,10.941685],[106.722015,10.941413],[106.721886,10.941081],[106.721794,10.940384],[106.721695,10.939657],[106.721573,10.939445],[106.72142,10.939294],[106.72123,10.939174],[106.720985,10.938691],[106.72081,10.938207],[106.720406,10.936754],[106.720245,10.936451],[106.720032,10.93621],[106.719788,10.93609],[106.719421,10.935971],[106.7192,10.93576],[106.719078,10.935397],[106.71907,10.935033],[106.719162,10.934366],[106.719131,10.934093],[106.71904,10.93379],[106.718788,10.933519],[106.718513,10.933278],[106.718048,10.932917],[106.717445,10.932617],[106.717232,10.932406],[106.716957,10.932104],[106.716583,10.931561],[106.716393,10.930986],[106.716148,10.930714],[106.715591,10.930444],[106.715225,10.930234],[106.71479,10.929843],[106.712006,10.927177],[106.710754,10.93196],[106.710289,10.933624],[106.708443,10.933819],[106.708267,10.935488],[106.707039,10.935313],[106.707016,10.933948],[106.704437,10.93369]]],"type":"Polygon"},"properties":{"boundary_claim":true,"boundary_confidence":"source_snapshot","boundary_source":"source_snapshot","current_ward_after_2025":"Thuận Giao","dashboard_href":"/?tab=signals","dashboard_label":"Xem toàn bộ tin đang bán","derived_from":"","former_units":"","group":"Thuận An trước 2025","is_derived_boundary":false,"last_updated":"2026-07-29","layer":"legacy","name":"Thuận Giao","slug":"thuan-giao","source":"Stanford Geospatial Center / GADM v2.8 snapshot","source_id":"FID:1147","source_url":"https://geodiscovery.uwm.edu/catalog/stanford-dk039bc2779/metadata","summary":"Ranh đơn vị cũ tham khảo từ snapshot hành chính lịch sử.","unit_type":"Phường cũ"},"type":"Feature"},{"geometry":{"coordinates":[[[106.715649,10.893147],[106.713107,10.889902],[106.713105,10.889426],[106.713471,10.888785],[106.714505,10.888152],[106.713863,10.887505],[106.714427,10.886869],[106.71555,10.887704],[106.71704,10.887985],[106.717586,10.887748],[106.716614,10.884616],[106.716935,10.882678],[106.717879,10.880983],[106.713983,10.879366],[106.712647,10.877882],[106.712851,10.877417],[106.713841,10.877807],[106.714047,10.876996],[106.715294,10.877417],[106.721437,10.876385],[106.721736,10.87485],[106.722628,10.873419],[106.72348,10.872746],[106.723645,10.871782],[106.72146,10.871735],[106.719961,10.872322],[106.717914,10.872412],[106.716293,10.872861],[106.71504,10.872618],[106.715473,10.868384],[106.713114,10.865707],[106.710178,10.86647],[106.704391,10.866925],[106.701602,10.867503],[106.698489,10.869681],[106.694908,10.873533],[106.690009,10.880012],[106.688961,10.883116],[106.689114,10.884974],[106.689599,10.886296],[106.69142,10.889235],[106.702492,10.884915],[106.704025,10.887637],[106.704575,10.888095],[106.705048,10.888477],[106.7052,10.888707],[106.705284,10.889091],[106.705246,10.889361],[106.705116,10.889796],[106.70504,10.890252],[106.7052,10.89128],[106.705231,10.892051],[106.705307,10.892468],[106.705933,10.892484],[106.706108,10.892166],[106.706429,10.891728],[106.706612,10.891707],[106.706848,10.891766],[106.707092,10.891923],[106.707375,10.891921],[106.707733,10.8919],[106.707993,10.891719],[106.708153,10.89158],[106.708443,10.891705],[106.708664,10.891977],[106.708817,10.892856],[106.708923,10.894191],[106.709137,10.894402],[106.70932,10.894279],[106.709503,10.893853],[106.709862,10.892607],[106.709984,10.892303],[106.710594,10.891662],[106.711426,10.89093],[106.712067,10.890501],[106.712372,10.890257],[106.7127,10.889808],[106.715027,10.892617],[106.71563,10.893472],[106.716034,10.894167],[106.717354,10.896416],[106.717527,10.896248],[106.715649,10.893147]]],"type":"Polygon"},"properties":{"boundary_claim":true,"boundary_confidence":"derived_reference","boundary_source":"derived_boundary","current_ward_after_2025":"Bình Hòa, Lái Thiêu","dashboard_href":"/?tab=signals","dashboard_label":"Xem toàn bộ tin đang bán","derived_from":"Current Bình Hòa, Lái Thiêu boundaries minus all sourced Thuận An legacy polygons; largest meaningful residual retained","former_units":"","group":"Thuận An trước 2025","is_derived_boundary":true,"last_updated":"2026-07-29","layer":"legacy","name":"Vĩnh Phú","slug":"vinh-phu","source":"Radar BDS derived boundary","source_id":"derived:vinh-phu","source_url":"https://geodiscovery.uwm.edu/catalog/stanford-dk039bc2779/metadata","summary":"Ranh suy luận tham khảo từ phần dư hình học.","unit_type":"Phường cũ"},"type":"Feature"}],"name":"TP Thuận An trước sắp xếp 2025 - 10 ranh đơn vị cũ tham khảo","type":"FeatureCollection","updated_at":"2026-07-29"}
