{"features":[{"geometry":{"coordinates":[[[106.76878,10.896133],[106.769114,10.89403],[106.769544,10.893924],[106.772706,10.889706],[106.775107,10.887546],[106.776906,10.884986],[106.780507,10.881336],[106.781107,10.880086],[106.781306,10.878246],[106.782106,10.877196],[106.782004,10.875577],[106.781854,10.873959],[106.78023,10.869659],[106.780332,10.868267],[106.783027,10.867488],[106.787728,10.867211],[106.787951,10.870076],[106.788922,10.871952],[106.792166,10.871976],[106.792171,10.872595],[106.793528,10.872587],[106.795159,10.873559],[106.795881,10.873561],[106.795885,10.873221],[106.797826,10.873208],[106.797883,10.872357],[106.798666,10.872007],[106.801333,10.873632],[106.804349,10.873703],[106.804994,10.874274],[106.805297,10.875117],[106.807719,10.873853],[106.808483,10.872917],[106.813063,10.87911],[106.813825,10.878395],[106.815244,10.879604],[106.816292,10.881227],[106.817191,10.881066],[106.817817,10.882869],[106.817536,10.882915],[106.817482,10.883598],[106.818071,10.884222],[106.819108,10.884243],[106.819402,10.885751],[106.820408,10.886344],[106.820374,10.885742],[106.821784,10.885887],[106.822171,10.886191],[106.822384,10.88706],[106.824128,10.888235],[106.824231,10.889129],[106.823578,10.891013],[106.823578,10.892543],[106.823895,10.892877],[106.825091,10.892868],[106.825347,10.893211],[106.824986,10.893274],[106.825093,10.893755],[106.825869,10.893664],[106.826729,10.894795],[106.827945,10.894291],[106.829854,10.894976],[106.830494,10.896057],[106.831681,10.896906],[106.832364,10.896814],[106.832336,10.897181],[106.832917,10.897281],[106.833271,10.897996],[106.833911,10.897977],[106.83392,10.898259],[106.838218,10.898363],[106.840126,10.898846],[106.839289,10.902998],[106.834571,10.903665],[106.833467,10.90467],[106.832671,10.906353],[106.832115,10.906747],[106.830784,10.906298],[106.830014,10.905004],[106.828612,10.904101],[106.826526,10.903821],[106.823553,10.902796],[106.822318,10.903154],[106.821839,10.903836],[106.821362,10.903174],[106.816106,10.903352],[106.814803,10.904694],[106.814727,10.906357],[106.813948,10.907508],[106.815273,10.907972],[106.815187,10.91035],[106.8137,10.913101],[106.812387,10.914157],[106.811517,10.915417],[106.811628,10.916933],[106.812107,10.917525],[106.810838,10.918012],[106.810745,10.918643],[106.810212,10.918511],[106.809333,10.918936],[106.808915,10.919566],[106.809041,10.91984],[106.808371,10.919755],[106.807546,10.92038],[106.805315,10.920779],[106.805121,10.920423],[106.804293,10.920493],[106.803394,10.919955],[106.801987,10.919813],[106.796587,10.912159],[106.794362,10.905666],[106.79304,10.905844],[106.792898,10.905445],[106.791147,10.904895],[106.789569,10.903754],[106.786854,10.903444],[106.786809,10.902947],[106.782715,10.903674],[106.782373,10.904624],[106.778638,10.90466],[106.776948,10.905047],[106.773187,10.904683],[106.772891,10.902757],[106.772252,10.901781],[106.77075,10.902335],[106.770273,10.901328],[106.769066,10.900634],[106.769495,10.899679],[106.769477,10.898543],[106.76878,10.896133]]],"type":"Polygon"},"properties":{"dashboard_href":"/?tab=signals","dashboard_label":"Xem toàn bộ tin đang bán","former_units":"Bình An, Bình Thắng và Đông Hòa","group":"Dĩ An","layer":"current","name":"Đông Hòa","slug":"dong-hoa","source":"OpenStreetMap","summary":"Phường Đông Hòa thuộc khu vực Dĩ An sau sắp xếp năm 2025.","unit_type":"Phường"},"type":"Feature"},{"geometry":{"coordinates":[[[106.734177,10.880511],[106.735375,10.880226],[106.736065,10.879605],[106.736658,10.8806],[106.738403,10.879431],[106.739669,10.880904],[106.74039,10.880763],[106.741142,10.881441],[106.74329,10.880437],[106.743536,10.880935],[106.74377,10.880709],[106.744981,10.881626],[106.745658,10.880786],[106.744687,10.880077],[106.747197,10.877387],[106.748377,10.878217],[106.749396,10.876763],[106.750372,10.877295],[106.751339,10.875463],[106.746443,10.873879],[106.747041,10.872075],[106.745986,10.871725],[106.747341,10.869485],[106.747918,10.869223],[106.747941,10.867316],[106.748705,10.865656],[106.74909,10.865804],[106.750035,10.864295],[106.750257,10.864407],[106.750508,10.864032],[106.75121,10.864427],[106.75162,10.863476],[106.752497,10.863786],[106.753747,10.865195],[106.753576,10.86571],[106.754917,10.866401],[106.75604,10.866395],[106.757501,10.867087],[106.759539,10.866876],[106.76224,10.867262],[106.763174,10.868973],[106.763285,10.86992],[106.760377,10.872381],[106.761794,10.87439],[106.761271,10.874563],[106.761898,10.875542],[106.761427,10.878521],[106.761942,10.878706],[106.760521,10.88126],[106.763561,10.883864],[106.764012,10.884942],[106.764547,10.884859],[106.764737,10.886317],[106.765279,10.887615],[106.766019,10.888455],[106.766892,10.891551],[106.767668,10.891634],[106.767265,10.892506],[106.768418,10.892243],[106.768421,10.89404],[106.769114,10.89403],[106.76878,10.896133],[106.769477,10.898543],[106.769495,10.899679],[106.769066,10.900634],[106.770273,10.901328],[106.77075,10.902335],[106.772252,10.901781],[106.772891,10.902757],[106.773187,10.904683],[106.776948,10.905047],[106.778638,10.90466],[106.782373,10.904624],[106.782715,10.903674],[106.786809,10.902947],[106.786854,10.903444],[106.789569,10.903754],[106.791147,10.904895],[106.792898,10.905445],[106.79304,10.905844],[106.794362,10.905666],[106.794616,10.906516],[106.783114,10.909994],[106.780943,10.911695],[106.7782,10.913091],[106.768565,10.915992],[106.768453,10.919071],[106.765141,10.924968],[106.756016,10.929561],[106.7507,10.937264],[106.74674,10.934695],[106.747145,10.934106],[106.746394,10.934117],[106.744857,10.933358],[106.745123,10.932569],[106.743144,10.932169],[106.743132,10.931877],[106.742101,10.931882],[106.73976,10.890382],[106.73687,10.884839],[106.734177,10.880511]]],"type":"Polygon"},"properties":{"dashboard_href":"/?tab=signals","dashboard_label":"Xem toàn bộ tin đang bán","former_units":"An Bình, Dĩ An và một phần Tân Đông Hiệp","group":"Dĩ An","layer":"current","name":"Dĩ An","slug":"di-an","source":"OpenStreetMap","summary":"Phường Dĩ An thuộc khu vực Dĩ An sau sắp xếp năm 2025.","unit_type":"Phường"},"type":"Feature"},{"geometry":{"coordinates":[[[106.745368,10.953401],[106.746941,10.947302],[106.748311,10.944508],[106.749375,10.940229],[106.7507,10.937264],[106.756016,10.929561],[106.765141,10.924968],[106.768453,10.919071],[106.768565,10.915992],[106.7782,10.913091],[106.780943,10.911695],[106.783114,10.909994],[106.794616,10.906516],[106.796587,10.912159],[106.801987,10.919813],[106.80113,10.920041],[106.798779,10.921945],[106.797925,10.921868],[106.796367,10.922703],[106.794652,10.923036],[106.794472,10.923699],[106.788182,10.922147],[106.788057,10.922861],[106.791772,10.926598],[106.79135,10.92834],[106.79177,10.929847],[106.790752,10.931846],[106.788628,10.932923],[106.787217,10.93282],[106.785617,10.933305],[106.783695,10.932752],[106.783351,10.935809],[106.782664,10.936631],[106.782036,10.938211],[106.779809,10.937094],[106.779598,10.937233],[106.779297,10.93682],[106.777773,10.937731],[106.778302,10.938472],[106.778321,10.939121],[106.776989,10.939323],[106.776385,10.938631],[106.77542,10.940308],[106.774587,10.939899],[106.77266,10.941204],[106.770098,10.944236],[106.769823,10.94642],[106.769315,10.947594],[106.769522,10.949078],[106.769999,10.949648],[106.769854,10.950876],[106.770399,10.951352],[106.771011,10.951013],[106.770882,10.952036],[106.770198,10.952513],[106.768736,10.951725],[106.766994,10.952162],[106.765906,10.951838],[106.764455,10.952188],[106.762821,10.953413],[106.764025,10.955967],[106.764537,10.956092],[106.764807,10.956848],[106.764657,10.958149],[106.765157,10.958562],[106.76483,10.959791],[106.76248,10.96097],[106.761966,10.961871],[106.76229,10.962989],[106.762087,10.963298],[106.763623,10.964723],[106.764424,10.963409],[106.765779,10.964404],[106.766305,10.964009],[106.766492,10.964562],[106.766606,10.963452],[106.767929,10.964445],[106.76929,10.964158],[106.770257,10.965152],[106.771328,10.965262],[106.771582,10.964737],[106.771169,10.96343],[106.772056,10.963089],[106.772777,10.962237],[106.773213,10.959461],[106.774192,10.959235],[106.775519,10.959245],[106.77615,10.95959],[106.777896,10.961956],[106.778905,10.9628],[106.78325,10.964617],[106.781463,10.971618],[106.779838,10.974088],[106.777264,10.975528],[106.771953,10.976929],[106.769174,10.979387],[106.768937,10.980479],[106.767267,10.980802],[106.764994,10.977736],[106.765175,10.9762],[106.766092,10.97521],[106.749764,10.977184],[106.749391,10.973936],[106.74955,10.973092],[106.748957,10.971388],[106.748932,10.970847],[106.749366,10.970429],[106.749358,10.969176],[106.75066,10.969373],[106.751227,10.968463],[106.750718,10.967832],[106.751528,10.967185],[106.751953,10.967783],[106.753359,10.965711],[106.752653,10.964027],[106.750429,10.961727],[106.747058,10.957145],[106.745368,10.953401]]],"type":"Polygon"},"properties":{"dashboard_href":"/?tab=signals","dashboard_label":"Xem toàn bộ tin đang bán","former_units":"Tân Bình, một phần Thái Hòa và phần còn lại của Tân Đông Hiệp","group":"Dĩ An","layer":"current","name":"Tân Đông Hiệp","slug":"tan-dong-hiep","source":"OpenStreetMap","summary":"Phường Tân Đông Hiệp thuộc khu vực Dĩ An sau sắp xếp năm 2025.","unit_type":"Phường"},"type":"Feature"}],"name":"Khu vực Dĩ An sau sắp xếp 2025 - 3 phường hiện tại","type":"FeatureCollection","updated_at":"2026-07-29"}
