{"features":[{"geometry":{"coordinates":[[[106.766019,10.888455],[106.765279,10.887615],[106.764737,10.886317],[106.764547,10.884859],[106.764012,10.884942],[106.763561,10.883864],[106.760521,10.88126],[106.761942,10.878706],[106.761427,10.878521],[106.761898,10.875542],[106.761271,10.874563],[106.761794,10.87439],[106.760377,10.872381],[106.763285,10.86992],[106.763174,10.868973],[106.76224,10.867262],[106.759539,10.866876],[106.757501,10.867087],[106.75604,10.866395],[106.754917,10.866401],[106.753576,10.86571],[106.753747,10.865195],[106.752497,10.863786],[106.75162,10.863476],[106.75121,10.864427],[106.750508,10.864032],[106.750257,10.864407],[106.750035,10.864295],[106.74909,10.865804],[106.748705,10.865656],[106.747941,10.867316],[106.747918,10.869223],[106.747341,10.869485],[106.745986,10.871725],[106.747041,10.872075],[106.746443,10.873879],[106.751339,10.875463],[106.750372,10.877295],[106.749396,10.876763],[106.748377,10.878217],[106.747197,10.877387],[106.747082,10.87751],[106.748535,10.878637],[106.749146,10.877552],[106.749817,10.877931],[106.750084,10.878073],[106.754852,10.886852],[106.758141,10.893693],[106.765923,10.889133],[106.766235,10.889877],[106.766273,10.890466],[106.766335,10.891084],[106.766457,10.891436],[106.766878,10.891504],[106.766019,10.888455]]],"type":"Polygon"},"properties":{"boundary_claim":true,"boundary_confidence":"derived_reference","boundary_source":"derived_boundary","current_ward_after_2025":"Dĩ An, Tân Đông Hiệp","dashboard_href":"/?tab=signals","dashboard_label":"Xem toàn bộ tin đang bán","derived_from":"Current Dĩ An boundaries minus all sourced Dĩ An legacy polygons; largest meaningful residual retained","former_units":"","group":"Dĩ An trước 2025","is_derived_boundary":true,"last_updated":"2026-07-29","layer":"legacy","name":"An Bình","slug":"an-binh","source":"Radar BDS derived boundary","source_id":"derived:an-binh","source_url":"https://geodiscovery.uwm.edu/catalog/stanford-dk039bc2779/metadata","summary":"Ranh suy luận tham khảo từ phần dư hình học.","unit_type":"Phường cũ"},"type":"Feature"},{"geometry":{"coordinates":[[[106.811775,10.880153],[106.813408,10.881573],[106.813507,10.881721],[106.813698,10.881999],[106.813736,10.882177],[106.813599,10.882427],[106.812981,10.882609],[106.811867,10.882829],[106.811005,10.882905],[106.810318,10.883016],[106.809311,10.883805],[106.808037,10.88481],[106.807465,10.885668],[106.806358,10.887385],[106.805504,10.889242],[106.804718,10.890743],[106.804214,10.891209],[106.803749,10.891389],[106.802071,10.891399],[106.80127,10.891476],[106.8022,10.893391],[106.804115,10.89408],[106.806847,10.899734],[106.808823,10.899232],[106.80983,10.901396],[106.811035,10.901249],[106.812172,10.901732],[106.813454,10.902845],[106.814308,10.90319],[106.815895,10.903659],[106.816162,10.903397],[106.816574,10.903362],[106.816971,10.903392],[106.817215,10.903488],[106.817711,10.903599],[106.818008,10.903581],[106.818176,10.903515],[106.818474,10.903367],[106.818604,10.903333],[106.818771,10.903397],[106.819069,10.903412],[106.819244,10.903395],[106.819923,10.903081],[106.820122,10.903096],[106.820221,10.90316],[106.82029,10.903242],[106.820389,10.903355],[106.820488,10.903371],[106.820755,10.903476],[106.820847,10.903682],[106.820999,10.904042],[106.821175,10.904195],[106.82132,10.904281],[106.82151,10.904262],[106.821663,10.904107],[106.821785,10.903728],[106.821922,10.903486],[106.822144,10.903279],[106.822426,10.903209],[106.822792,10.903206],[106.823456,10.903288],[106.824585,10.90366],[106.825417,10.904088],[106.825943,10.904274],[106.826363,10.904288],[106.827019,10.904301],[106.827599,10.904453],[106.828346,10.904775],[106.829185,10.905286],[106.829689,10.906091],[106.830544,10.906688],[106.830734,10.906842],[106.831299,10.906924],[106.831421,10.906924],[106.831749,10.906767],[106.831955,10.906508],[106.832268,10.905784],[106.832855,10.905023],[106.833237,10.904677],[106.834373,10.903793],[106.834961,10.903755],[106.83606,10.903663],[106.836647,10.903505],[106.837479,10.903103],[106.837601,10.902998],[106.837662,10.902948],[106.838104,10.902567],[106.838486,10.901877],[106.83857,10.901683],[106.838707,10.901366],[106.839172,10.900307],[106.839867,10.898824],[106.839676,10.898698],[106.83844,10.898883],[106.838219,10.898903],[106.837074,10.899009],[106.835693,10.899018],[106.834579,10.899025],[106.833359,10.899003],[106.832626,10.898408],[106.832268,10.897793],[106.831757,10.897295],[106.831184,10.896751],[106.830925,10.896506],[106.830147,10.896068],[106.829643,10.895571],[106.827827,10.895404],[106.82682,10.89541],[106.825706,10.89558],[106.825081,10.895141],[106.824303,10.894115],[106.823524,10.893149],[106.823296,10.892721],[106.823273,10.891295],[106.823273,10.891191],[106.823326,10.889375],[106.823334,10.88916],[106.823296,10.888306],[106.822762,10.887573],[106.821922,10.887196],[106.820984,10.886598],[106.82048,10.886277],[106.819305,10.886242],[106.818848,10.886228],[106.818367,10.88573],[106.818092,10.885295],[106.817886,10.884967],[106.817352,10.884293],[106.817253,10.883057],[106.816963,10.882426],[106.816177,10.881968],[106.81324,10.878954],[106.813164,10.879025],[106.812614,10.879543],[106.812553,10.87959],[106.811775,10.880153]]],"type":"Polygon"},"properties":{"boundary_claim":true,"boundary_confidence":"source_snapshot","boundary_source":"source_snapshot","current_ward_after_2025":"Đông Hòa","dashboard_href":"/?tab=signals","dashboard_label":"Xem toàn bộ tin đang bán","derived_from":"","former_units":"","group":"Dĩ An trước 2025","is_derived_boundary":false,"last_updated":"2026-07-29","layer":"legacy","name":"Bình An","slug":"binh-an","source":"Stanford Geospatial Center / GADM v2.8 snapshot","source_id":"FID:1089","source_url":"https://geodiscovery.uwm.edu/catalog/stanford-dk039bc2779/metadata","summary":"Ranh đơn vị cũ tham khảo từ snapshot hành chính lịch sử.","unit_type":"Phường cũ"},"type":"Feature"},{"geometry":{"coordinates":[[[106.815895,10.903659],[106.814308,10.90319],[106.813454,10.902845],[106.812172,10.901732],[106.811035,10.901249],[106.80983,10.901396],[106.808823,10.899232],[106.806847,10.899734],[106.804115,10.89408],[106.8022,10.893391],[106.80127,10.891476],[106.800087,10.891589],[106.798325,10.89224],[106.797386,10.892602],[106.796379,10.892715],[106.795265,10.892864],[106.794075,10.893262],[106.792709,10.89384],[106.790588,10.894967],[106.791206,10.897025],[106.789391,10.897386],[106.789101,10.896128],[106.787827,10.896345],[106.787971,10.897534],[106.786415,10.897543],[106.786491,10.898733],[106.787842,10.898725],[106.787834,10.901347],[106.788597,10.901665],[106.789909,10.902092],[106.790039,10.903701],[106.788025,10.90414],[106.788666,10.905861],[106.791496,10.905144],[106.791573,10.907341],[106.794975,10.90907],[106.796127,10.91221],[106.801521,10.92014],[106.80162,10.920136],[106.802063,10.920088],[106.802246,10.920109],[106.802711,10.92015],[106.803154,10.920235],[106.803619,10.92043],[106.803909,10.920516],[106.804245,10.920514],[106.80442,10.920556],[106.804604,10.920687],[106.804802,10.920795],[106.805,10.920838],[106.805199,10.920859],[106.805534,10.920835],[106.805908,10.920833],[106.806465,10.920742],[106.806709,10.920631],[106.806908,10.920476],[106.807259,10.920233],[106.807419,10.920079],[106.807663,10.920011],[106.80806,10.920009],[106.808334,10.920069],[106.808517,10.920003],[106.808624,10.919871],[106.808693,10.919717],[106.808708,10.919607],[106.808823,10.919497],[106.808975,10.919584],[106.809044,10.919715],[106.809135,10.919846],[106.809242,10.919823],[106.809334,10.919713],[106.809486,10.919493],[106.80986,10.919206],[106.809975,10.91903],[106.809906,10.918965],[106.809799,10.918944],[106.809708,10.918966],[106.809639,10.918857],[106.809708,10.918725],[106.809929,10.918658],[106.810104,10.918723],[106.810265,10.918831],[106.81044,10.91883],[106.810509,10.918742],[106.810463,10.918436],[106.810616,10.918172],[106.810883,10.918017],[106.811234,10.918015],[106.811523,10.918035],[106.811699,10.917969],[106.81179,10.917771],[106.811745,10.917552],[106.811493,10.917334],[106.811409,10.91716],[106.811447,10.916984],[106.811562,10.916589],[106.811554,10.91637],[106.811378,10.916065],[106.811241,10.915934],[106.811195,10.915737],[106.81131,10.915474],[106.811485,10.915275],[106.811729,10.914902],[106.81192,10.914528],[106.812416,10.914055],[106.813171,10.913398],[106.813408,10.913041],[106.813568,10.912809],[106.813728,10.912221],[106.814018,10.911403],[106.814247,10.911076],[106.814713,10.910747],[106.814812,10.910616],[106.814774,10.910323],[106.814606,10.909965],[106.814606,10.909475],[106.814697,10.908986],[106.814857,10.908528],[106.81459,10.908138],[106.814461,10.908074],[106.813835,10.908045],[106.813698,10.907948],[106.813667,10.907752],[106.813812,10.90749],[106.814171,10.906966],[106.814224,10.906574],[106.814186,10.906102],[106.814201,10.905792],[106.814301,10.905628],[106.814674,10.905332],[106.814888,10.905119],[106.814919,10.904972],[106.814934,10.904743],[106.814789,10.904565],[106.814774,10.904467],[106.81485,10.904336],[106.815163,10.904285],[106.815437,10.9042],[106.815666,10.904019],[106.815895,10.903659]]],"type":"Polygon"},"properties":{"boundary_claim":true,"boundary_confidence":"source_snapshot","boundary_source":"source_snapshot","current_ward_after_2025":"Đông Hòa","dashboard_href":"/?tab=signals","dashboard_label":"Xem toàn bộ tin đang bán","derived_from":"","former_units":"","group":"Dĩ An trước 2025","is_derived_boundary":false,"last_updated":"2026-07-29","layer":"legacy","name":"Bình Thắng","slug":"binh-thang","source":"Stanford Geospatial Center / GADM v2.8 snapshot","source_id":"FID:1090","source_url":"https://geodiscovery.uwm.edu/catalog/stanford-dk039bc2779/metadata","summary":"Ranh đơn vị cũ tham khảo từ snapshot hành chính lịch sử.","unit_type":"Phường cũ"},"type":"Feature"},{"geometry":{"coordinates":[[[106.740578,10.908719],[106.7444,10.909494],[106.746925,10.907588],[106.747192,10.908556],[106.747551,10.909125],[106.748306,10.909779],[106.748894,10.910039],[106.749916,10.910121],[106.751289,10.910069],[106.753975,10.909037],[106.754906,10.908812],[106.75544,10.908634],[106.758102,10.908224],[106.758644,10.908204],[106.760353,10.911673],[106.761848,10.91402],[106.762527,10.91481],[106.763535,10.915731],[106.764748,10.916121],[106.767563,10.916436],[106.768364,10.916299],[106.7687,10.916187],[106.769058,10.915148],[106.770004,10.909559],[106.770088,10.909136],[106.76963,10.908457],[106.768784,10.907221],[106.769318,10.906884],[106.77066,10.907624],[106.771675,10.907975],[106.772285,10.908078],[106.772972,10.90811],[106.773422,10.908036],[106.773781,10.907785],[106.773819,10.907606],[106.773743,10.907357],[106.773125,10.906506],[106.772408,10.905087],[106.770111,10.902023],[106.769226,10.900616],[106.769363,10.899782],[106.769035,10.899675],[106.768867,10.89938],[106.768715,10.89873],[106.768303,10.897176],[106.768082,10.896779],[106.768188,10.8962],[106.768036,10.895368],[106.767693,10.89402],[106.767685,10.893343],[106.766815,10.893299],[106.766647,10.89329],[106.766609,10.892466],[106.766991,10.891787],[106.766991,10.891522],[106.766457,10.891436],[106.766335,10.891084],[106.766273,10.890466],[106.766235,10.889877],[106.765923,10.889133],[106.758141,10.893693],[106.754852,10.886852],[106.750084,10.878073],[106.749817,10.877931],[106.749146,10.877552],[106.748535,10.878637],[106.747063,10.877496],[106.746819,10.877497],[106.746414,10.877804],[106.744812,10.879402],[106.744339,10.880114],[106.745026,10.880956],[106.745201,10.88109],[106.745201,10.881293],[106.744995,10.881429],[106.74472,10.881397],[106.743225,10.881116],[106.743149,10.881102],[106.742294,10.880701],[106.741508,10.880807],[106.74086,10.881081],[106.740005,10.881018],[106.739388,10.880819],[106.738739,10.880383],[106.738319,10.87998],[106.737709,10.879848],[106.737129,10.879919],[106.735565,10.880803],[106.73526,10.880511],[106.734428,10.880655],[106.735413,10.882124],[106.736748,10.884202],[106.73822,10.886472],[106.739014,10.887898],[106.739349,10.88839],[106.739525,10.890035],[106.740578,10.908719]]],"type":"Polygon"},"properties":{"boundary_claim":true,"boundary_confidence":"source_snapshot","boundary_source":"source_snapshot","current_ward_after_2025":"Dĩ An","dashboard_href":"/?tab=signals","dashboard_label":"Xem toàn bộ tin đang bán","derived_from":"","former_units":"","group":"Dĩ An trước 2025","is_derived_boundary":false,"last_updated":"2026-07-29","layer":"legacy","name":"Dĩ An","slug":"di-an","source":"Stanford Geospatial Center / GADM v2.8 snapshot","source_id":"FID:1091","source_url":"https://geodiscovery.uwm.edu/catalog/stanford-dk039bc2779/metadata","summary":"Ranh đơn vị cũ tham khảo từ snapshot hành chính lịch sử.","unit_type":"Phường cũ"},"type":"Feature"},{"geometry":{"coordinates":[[[106.811775,10.880153],[106.811363,10.87958],[106.809998,10.877524],[106.808159,10.874848],[106.807747,10.874967],[106.806801,10.875447],[106.806023,10.87595],[106.80571,10.876309],[106.805588,10.876883],[106.805298,10.876788],[106.804665,10.876501],[106.80394,10.876095],[106.803391,10.875789],[106.803009,10.875499],[106.801651,10.874571],[106.801239,10.874252],[106.801056,10.873616],[106.800568,10.873725],[106.799652,10.87302],[106.798561,10.872374],[106.798294,10.872296],[106.797974,10.872298],[106.797791,10.872347],[106.797318,10.87188],[106.796883,10.872036],[106.796638,10.8723],[106.796371,10.872778],[106.796188,10.873324],[106.794853,10.873656],[106.793694,10.873574],[106.792831,10.873079],[106.791618,10.872383],[106.790794,10.872217],[106.789375,10.872158],[106.7882,10.872147],[106.788071,10.871942],[106.787857,10.871402],[106.787727,10.871019],[106.78759,10.870531],[106.787476,10.870095],[106.787376,10.869528],[106.787308,10.86904],[106.78727,10.868551],[106.787315,10.868307],[106.78746,10.867957],[106.787666,10.867589],[106.787773,10.867344],[106.78698,10.867349],[106.785561,10.867393],[106.783363,10.867496],[106.782509,10.86763],[106.781769,10.867753],[106.781174,10.867876],[106.779991,10.868274],[106.779961,10.868641],[106.779877,10.868891],[106.779816,10.869111],[106.7798,10.869364],[106.7798,10.869525],[106.779968,10.869813],[106.780029,10.870246],[106.780083,10.870587],[106.780235,10.871091],[106.780418,10.871614],[106.780693,10.872262],[106.780884,10.872802],[106.781013,10.87309],[106.781242,10.873642],[106.781334,10.873912],[106.781403,10.874454],[106.78141,10.874823],[106.781471,10.875243],[106.781609,10.875662],[106.781631,10.876107],[106.781677,10.87645],[106.781708,10.876777],[106.781738,10.877248],[106.781677,10.877439],[106.781456,10.877809],[106.781204,10.87804],[106.780998,10.878296],[106.780937,10.878627],[106.780907,10.878958],[106.780922,10.87941],[106.780884,10.879818],[106.780792,10.880137],[106.780632,10.880481],[106.780388,10.880941],[106.780289,10.881234],[106.780212,10.881388],[106.779808,10.881791],[106.779266,10.882316],[106.779114,10.882572],[106.77887,10.882891],[106.778397,10.88334],[106.777832,10.883916],[106.77729,10.884409],[106.77697,10.884666],[106.776619,10.885037],[106.776131,10.8856],[106.775826,10.886009],[106.775612,10.886367],[106.775436,10.886782],[106.775269,10.887063],[106.775017,10.88737],[106.774757,10.887603],[106.774582,10.887767],[106.774094,10.888241],[106.773659,10.888574],[106.77314,10.888895],[106.772751,10.88921],[106.772545,10.889491],[106.772369,10.889759],[106.772102,10.890206],[106.77182,10.89059],[106.771538,10.890859],[106.771034,10.891333],[106.770836,10.891671],[106.770714,10.89199],[106.770607,10.892309],[106.770294,10.892718],[106.769905,10.893065],[106.769615,10.893225],[106.769409,10.893316],[106.769112,10.893406],[106.768547,10.893162],[106.768478,10.89323],[106.768242,10.893672],[106.768097,10.894172],[106.767693,10.89402],[106.768036,10.895368],[106.768188,10.8962],[106.768082,10.896779],[106.768303,10.897176],[106.768715,10.89873],[106.768867,10.89938],[106.769035,10.899675],[106.769363,10.899782],[106.769226,10.900616],[106.770111,10.902023],[106.772408,10.905087],[106.773125,10.906506],[106.781998,10.906668],[106.782608,10.9067],[106.783134,10.906519],[106.783562,10.906161],[106.783775,10.905803],[106.783813,10.905376],[106.784065,10.905232],[106.785538,10.904796],[106.788025,10.90414],[106.790039,10.903701],[106.789909,10.902092],[106.788597,10.901665],[106.787834,10.901347],[106.787842,10.898725],[106.786491,10.898733],[106.786415,10.897543],[106.787971,10.897534],[106.787827,10.896345],[106.789101,10.896128],[106.789391,10.897386],[106.791206,10.897025],[106.790588,10.894967],[106.792709,10.89384],[106.794075,10.893262],[106.795265,10.892864],[106.796379,10.892715],[106.797386,10.892602],[106.798325,10.89224],[106.800087,10.891589],[106.80127,10.891476],[106.802071,10.891399],[106.803749,10.891389],[106.804214,10.891209],[106.804718,10.890743],[106.805504,10.889242],[106.806358,10.887385],[106.807465,10.885668],[106.808037,10.88481],[106.809311,10.883805],[106.810318,10.883016],[106.811005,10.882905],[106.811867,10.882829],[106.812981,10.882609],[106.813599,10.882427],[106.813736,10.882177],[106.813698,10.881999],[106.813507,10.881721],[106.813408,10.881573],[106.811775,10.880153]]],"type":"Polygon"},"properties":{"boundary_claim":true,"boundary_confidence":"source_snapshot","boundary_source":"source_snapshot","current_ward_after_2025":"Đông Hòa","dashboard_href":"/?tab=signals","dashboard_label":"Xem toàn bộ tin đang bán","derived_from":"","former_units":"","group":"Dĩ An trước 2025","is_derived_boundary":false,"last_updated":"2026-07-29","layer":"legacy","name":"Đông Hòa","slug":"dong-hoa","source":"Stanford Geospatial Center / GADM v2.8 snapshot","source_id":"FID:1087","source_url":"https://geodiscovery.uwm.edu/catalog/stanford-dk039bc2779/metadata","summary":"Ranh đơn vị cũ tham khảo từ snapshot hành chính lịch sử.","unit_type":"Phường cũ"},"type":"Feature"},{"geometry":{"coordinates":[[[106.782799,10.93772],[106.782921,10.937592],[106.782883,10.937215],[106.783157,10.93656],[106.783676,10.935594],[106.783813,10.935112],[106.783775,10.934254],[106.783798,10.933051],[106.783867,10.932844],[106.784218,10.932842],[106.784599,10.933287],[106.785408,10.933522],[106.786591,10.933447],[106.788086,10.933163],[106.789078,10.932716],[106.789665,10.932197],[106.790497,10.931539],[106.791252,10.930469],[106.791634,10.929882],[106.791733,10.929366],[106.791801,10.9283],[106.791756,10.927727],[106.790756,10.928669],[106.790565,10.928806],[106.79026,10.928835],[106.79007,10.928809],[106.789467,10.928568],[106.789024,10.9283],[106.788803,10.928247],[106.788559,10.928357],[106.788338,10.928683],[106.788124,10.928847],[106.787849,10.928876],[106.78746,10.92877],[106.786568,10.928368],[106.785934,10.927884],[106.785767,10.927777],[106.784698,10.927783],[106.78373,10.92768],[106.782799,10.927441],[106.780548,10.927346],[106.778969,10.927193],[106.778664,10.927194],[106.778557,10.927385],[106.778282,10.927766],[106.777161,10.928667],[106.77681,10.928968],[106.776535,10.929077],[106.776123,10.929107],[106.775246,10.929167],[106.774117,10.929227],[106.773651,10.929177],[106.773186,10.929098],[106.772858,10.929153],[106.771576,10.929591],[106.770126,10.930033],[106.764404,10.932369],[106.764236,10.931936],[106.763512,10.931046],[106.762108,10.929835],[106.76078,10.928515],[106.76001,10.927761],[106.759727,10.927884],[106.758492,10.9285],[106.755501,10.929841],[106.75013,10.937645],[106.749977,10.938452],[106.749008,10.940064],[106.748764,10.941491],[106.748444,10.943342],[106.747787,10.944831],[106.746696,10.947293],[106.746155,10.949418],[106.745697,10.951695],[106.744904,10.95367],[106.745682,10.955333],[106.747017,10.957872],[106.747627,10.958687],[106.749664,10.961494],[106.750443,10.962521],[106.751862,10.963695],[106.752388,10.964207],[106.752853,10.965235],[106.753105,10.965961],[106.753105,10.966265],[106.753044,10.966477],[106.752846,10.966716],[106.753288,10.966934],[106.753563,10.967087],[106.753738,10.967307],[106.753876,10.967527],[106.75399,10.967681],[106.754417,10.967899],[106.754707,10.968184],[106.754913,10.968426],[106.755173,10.968778],[106.7556,10.969085],[106.756027,10.969259],[106.756363,10.969323],[106.756943,10.969298],[106.758102,10.969048],[106.758797,10.969044],[106.759109,10.969152],[106.759338,10.969328],[106.759445,10.969526],[106.759583,10.96979],[106.759766,10.969988],[106.759941,10.970097],[106.760277,10.970095],[106.760567,10.969851],[106.76049,10.969608],[106.760147,10.969014],[106.75956,10.968245],[106.759468,10.967848],[106.759468,10.967539],[106.759598,10.96714],[106.759888,10.966785],[106.760178,10.966585],[106.760628,10.96645],[106.760918,10.96647],[106.761101,10.966535],[106.761612,10.966643],[106.761879,10.966597],[106.7621,10.966463],[106.762535,10.966019],[106.763206,10.965176],[106.762459,10.964813],[106.761864,10.964294],[106.761719,10.964034],[106.761658,10.963716],[106.761711,10.963309],[106.76178,10.963048],[106.761749,10.962439],[106.76178,10.962091],[106.762009,10.961509],[106.762329,10.961304],[106.762917,10.961011],[106.763443,10.960805],[106.76371,10.960687],[106.76432,10.960219],[106.764732,10.959811],[106.7649,10.959114],[106.764931,10.958795],[106.764816,10.958651],[106.764488,10.958565],[106.764091,10.958273],[106.764442,10.957691],[106.764465,10.957488],[106.764465,10.957111],[106.764374,10.956735],[106.764229,10.956475],[106.763786,10.956072],[106.763725,10.955579],[106.763512,10.955059],[106.763161,10.954626],[106.762863,10.954048],[106.762627,10.95344],[106.763649,10.952797],[106.764847,10.952123],[106.76561,10.9518],[106.76609,10.951855],[106.766273,10.952027],[106.766685,10.952199],[106.767097,10.952226],[106.767418,10.952166],[106.768066,10.95193],[106.768646,10.951869],[106.768944,10.951896],[106.769211,10.951952],[106.769417,10.952096],[106.770119,10.952411],[106.7705,10.952293],[106.770706,10.952089],[106.77079,10.951653],[106.770821,10.951363],[106.770584,10.951161],[106.770119,10.951251],[106.769821,10.951108],[106.769669,10.950732],[106.769753,10.95018],[106.769722,10.949775],[106.769547,10.949544],[106.769402,10.949168],[106.769295,10.948501],[106.769318,10.947892],[106.76931,10.947196],[106.769402,10.94679],[106.76963,10.94644],[106.769661,10.946092],[106.76963,10.945686],[106.769539,10.945484],[106.769539,10.945165],[106.769684,10.94499],[106.769974,10.944756],[106.770058,10.944553],[106.770218,10.943653],[106.770592,10.9431],[106.770859,10.942895],[106.772057,10.942105],[106.772438,10.94132],[106.772842,10.941115],[106.773315,10.940909],[106.774193,10.940324],[106.774445,10.939992],[106.776245,10.938868],[106.776588,10.938866],[106.777115,10.939172],[106.777573,10.93941],[106.777779,10.939374],[106.777809,10.938962],[106.777771,10.938378],[106.777878,10.938],[106.778183,10.937482],[106.778603,10.937343],[106.779472,10.937475],[106.78038,10.93771],[106.780731,10.937639],[106.781006,10.937363],[106.781425,10.937361],[106.781944,10.937667],[106.782265,10.937768],[106.7826,10.937744],[106.782799,10.93772]]],"type":"Polygon"},"properties":{"boundary_claim":true,"boundary_confidence":"source_snapshot","boundary_source":"source_snapshot","current_ward_after_2025":"Tân Đông Hiệp","dashboard_href":"/?tab=signals","dashboard_label":"Xem toàn bộ tin đang bán","derived_from":"","former_units":"","group":"Dĩ An trước 2025","is_derived_boundary":false,"last_updated":"2026-07-29","layer":"legacy","name":"Tân Bình","slug":"tan-binh","source":"Stanford Geospatial Center / GADM v2.8 snapshot","source_id":"FID:1093","source_url":"https://geodiscovery.uwm.edu/catalog/stanford-dk039bc2779/metadata","summary":"Ranh đơn vị cũ tham khảo từ snapshot hành chính lịch sử.","unit_type":"Phường cũ"},"type":"Feature"},{"geometry":{"coordinates":[[[106.773125,10.906506],[106.773743,10.907357],[106.773819,10.907606],[106.773781,10.907785],[106.773422,10.908036],[106.772972,10.90811],[106.772285,10.908078],[106.771675,10.907975],[106.77066,10.907624],[106.769318,10.906884],[106.768784,10.907221],[106.76963,10.908457],[106.770088,10.909136],[106.770004,10.909559],[106.769058,10.915148],[106.7687,10.916187],[106.768364,10.916299],[106.767563,10.916436],[106.764748,10.916121],[106.763535,10.915731],[106.762527,10.91481],[106.761848,10.91402],[106.760353,10.911673],[106.758644,10.908204],[106.758102,10.908224],[106.75544,10.908634],[106.754906,10.908812],[106.753975,10.909037],[106.751289,10.910069],[106.749916,10.910121],[106.748894,10.910039],[106.748306,10.909779],[106.747551,10.909125],[106.747192,10.908556],[106.746925,10.907588],[106.7444,10.909494],[106.740578,10.908719],[106.740906,10.914512],[106.741531,10.925065],[106.741562,10.92702],[106.741745,10.931326],[106.742416,10.931492],[106.743126,10.932034],[106.744019,10.932574],[106.744476,10.932632],[106.744926,10.932751],[106.744926,10.933812],[106.745148,10.933872],[106.745575,10.933899],[106.745758,10.93405],[106.745979,10.934473],[106.745949,10.934625],[106.746071,10.934806],[106.746506,10.935289],[106.749977,10.938452],[106.75013,10.937645],[106.755501,10.929841],[106.758492,10.9285],[106.759727,10.927884],[106.76001,10.927761],[106.76078,10.928515],[106.762108,10.929835],[106.763512,10.931046],[106.764236,10.931936],[106.764404,10.932369],[106.770126,10.930033],[106.771576,10.929591],[106.772858,10.929153],[106.773186,10.929098],[106.773651,10.929177],[106.774117,10.929227],[106.775246,10.929167],[106.776123,10.929107],[106.776535,10.929077],[106.77681,10.928968],[106.777161,10.928667],[106.778282,10.927766],[106.778557,10.927385],[106.778664,10.927194],[106.778969,10.927193],[106.780548,10.927346],[106.782799,10.927441],[106.78373,10.92768],[106.784698,10.927783],[106.785767,10.927777],[106.785934,10.927884],[106.786568,10.928368],[106.78746,10.92877],[106.787849,10.928876],[106.788124,10.928847],[106.788338,10.928683],[106.788559,10.928357],[106.788803,10.928247],[106.789024,10.9283],[106.789467,10.928568],[106.79007,10.928809],[106.79026,10.928835],[106.790565,10.928806],[106.790756,10.928669],[106.791756,10.927727],[106.791687,10.927303],[106.791481,10.92703],[106.791214,10.926447],[106.790512,10.92566],[106.789848,10.924839],[106.788239,10.923267],[106.788025,10.922993],[106.787949,10.922512],[106.787949,10.922203],[106.794113,10.923815],[106.794411,10.923513],[106.794685,10.923287],[106.794846,10.923201],[106.795319,10.923181],[106.79554,10.923093],[106.795784,10.922903],[106.79599,10.922799],[106.796272,10.922539],[106.796631,10.92231],[106.797119,10.922178],[106.798073,10.922084],[106.798386,10.922061],[106.798599,10.921928],[106.79882,10.921817],[106.799263,10.921398],[106.79966,10.921023],[106.800041,10.920779],[106.800369,10.920537],[106.80072,10.920271],[106.801056,10.92016],[106.801521,10.92014],[106.796127,10.91221],[106.794975,10.90907],[106.791573,10.907341],[106.791496,10.905144],[106.788666,10.905861],[106.788025,10.90414],[106.785538,10.904796],[106.784065,10.905232],[106.783813,10.905376],[106.783775,10.905803],[106.783562,10.906161],[106.783134,10.906519],[106.782608,10.9067],[106.781998,10.906668],[106.773125,10.906506]]],"type":"Polygon"},"properties":{"boundary_claim":true,"boundary_confidence":"source_snapshot","boundary_source":"source_snapshot","current_ward_after_2025":"Dĩ An, Tân Đông Hiệp","dashboard_href":"/?tab=signals","dashboard_label":"Xem toàn bộ tin đang bán","derived_from":"","former_units":"","group":"Dĩ An trước 2025","is_derived_boundary":false,"last_updated":"2026-07-29","layer":"legacy","name":"Tân Đông Hiệp","slug":"tan-dong-hiep","source":"Stanford Geospatial Center / GADM v2.8 snapshot","source_id":"FID:1092","source_url":"https://geodiscovery.uwm.edu/catalog/stanford-dk039bc2779/metadata","summary":"Ranh đơn vị cũ tham khảo từ snapshot hành chính lịch sử.","unit_type":"Phường cũ"},"type":"Feature"}],"name":"TP Dĩ An trước sắp xếp 2025 - 7 ranh đơn vị cũ tham khảo","type":"FeatureCollection","updated_at":"2026-07-29"}
