{"type":"FeatureCollection","name":"9 đơn vị cấp huyện Bình Dương cũ","source":"geoBoundaries ADM2","updated_at":"2026-07-28","features":[{"type":"Feature","properties":{"slug":"thu-dau-mot","name":"Thủ Dầu Một","layer":"legacy","unit_type":"Thành phố cũ","group":"Thủ Dầu Một","summary":"Trung tâm hành chính và thị trường nhà đất lõi của Bình Dương cũ.","dashboard_href":"/?tab=signals&city=Th%E1%BB%A7%20D%E1%BA%A7u%20M%E1%BB%99t","dashboard_label":"Lọc tin Thủ Dầu Một","source":"geoBoundaries"},"geometry":{"type":"Polygon","coordinates":[[[106.60339237200009,11.039569590000042],[106.59538173800007,11.029222966000077],[106.59513153200004,11.024385221000045],[106.59785519600007,11.015984961000072],[106.60878700900008,11.011836842000037],[106.61625412300003,11.011593797000046],[106.61961893700004,11.008916283000076],[106.62111485300005,11.005925494000053],[106.62094172700006,11.001586168000074],[106.61632162100005,10.992928996000046],[106.61617414200003,10.989802436000048],[106.62695268900006,10.979680632000054],[106.63740617200006,10.977437377000058],[106.64425311900004,10.98104045100007],[106.64855370700008,10.980037118000041],[106.65015025700006,10.974442102000069],[106.64891157100004,10.964490965000039],[106.65242443800008,10.95095520500007],[106.65158977300007,10.942173835000062],[106.65407740700005,10.939891928000065],[106.65785935700006,10.93931129400005],[106.66111224400004,10.945689106000032],[106.66333931700007,10.946283833000052],[106.66521549100008,10.943332610000027],[106.66810102500006,10.943223489000047],[106.67034306400006,10.946747139000024],[106.66795725900005,10.949791382000058],[106.66821451900006,10.952030381000043],[106.67107285500003,10.953903808000064],[106.66859511600006,10.956421342000056],[106.67937403100007,10.96268673700007],[106.68192154700006,10.957334423000077],[106.69079497900009,10.965244225000049],[106.70102601400004,10.97121314800006],[106.70221961600004,10.973074911000026],[106.70123197200007,10.978265441000076],[106.69664196900004,10.989659309000047],[106.70697810800004,10.996870173000048],[106.70217560900005,11.00257461800004],[106.70691890600006,11.003691],[106.70727901400005,11.005876944000022],[106.70093625000004,11.007292638000024],[106.70155926000007,11.011759820000066],[106.70505449600006,11.010819930000025],[106.70582419500005,11.013521276000063],[106.69794370000005,11.015584961000059],[106.69985213200005,11.023232948000043],[106.70223852200007,11.031818445000056],[106.70960134000006,11.032045063000055],[106.71047698200005,11.034710059000076],[106.71365594200006,11.036956270000076],[106.71331779600007,11.040414206000037],[106.72006619600006,11.040693306000037],[106.72100371700009,11.04192458500006],[106.72177209600005,11.05411910500004],[106.71568396200007,11.059502915000053],[106.71007229600008,11.058925905000024],[106.70626447500007,11.061435021000023],[106.69781347400004,11.062217197000052],[106.69753067800008,11.061292752000043],[106.69547890100006,11.062696857000049],[106.69535070700005,11.06758099800004],[106.69603568400004,11.069465728000068],[106.69773037800007,11.069298153000034],[106.69273092100008,11.077010802000075],[106.68982457400006,11.08845014700006],[106.67189855700008,11.084060669000053],[106.66991408600006,11.084688847000052],[106.66824716500008,11.079731524000067],[106.67046113300006,11.078968086000032],[106.66978255300006,11.076531651000039],[106.66728686000005,11.076659254000049],[106.66361677500004,11.07034505300004],[106.66360987500008,11.057016414000032],[106.65354356300008,11.058205799000064],[106.65335928100006,11.052416477000065],[106.64669999800009,11.04558577000006],[106.64031262400005,11.034065747000056],[106.63428656800005,11.045029391000071],[106.62998967900006,11.043217520000042],[106.62580026100005,11.043881170000077],[106.62412929800007,11.054148594000026],[106.61180978000004,11.049216949000026],[106.60339237200009,11.039569590000042]]]}},{"type":"Feature","properties":{"slug":"ben-cat","name":"Bến Cát","layer":"legacy","unit_type":"Thành phố cũ","group":"Bến Cát","summary":"Khu công nghiệp và đô thị phát triển dọc Quốc lộ 13, Mỹ Phước và các trục vành đai.","dashboard_href":"/?tab=signals&city=B%E1%BA%BFn%20C%C3%A1t","dashboard_label":"Lọc tin Bến Cát","source":"geoBoundaries"},"geometry":{"type":"Polygon","coordinates":[[[106.68444217000007,11.182872073000055],[106.68408023200004,11.186779528000045],[106.67927325500006,11.18590787100004],[106.67539988200008,11.215324125000052],[106.68244251800007,11.225236599000027],[106.68659382100009,11.227495782000062],[106.68501063400004,11.229450618000044],[106.68206689900006,11.228059158000065],[106.67039256700008,11.212495147000027],[106.66505160700007,11.212672963000045],[106.66075421400006,11.210274684000069],[106.65422060500003,11.200191324000059],[106.65461343700008,11.197864070000037],[106.65094693200007,11.192027273000065],[106.65153012700006,11.18932721300007],[106.63956469500005,11.182134434000034],[106.63111742400008,11.174013914000057],[106.62605570600005,11.171400170000027],[106.62538274700006,11.169369757000027],[106.62180575500008,11.168083692000039],[106.61719647000007,11.161004449000075],[106.61544555700004,11.160900819000062],[106.61523097100007,11.163107427000057],[106.61371124100003,11.163679002000038],[106.61582216000005,11.166735008000046],[106.60552148800008,11.165820090000068],[106.60236268000006,11.171245363000025],[106.59878758400004,11.173110017000056],[106.58989090400007,11.167768538000075],[106.58697180300004,11.160222839000028],[106.58578632200005,11.162966894000022],[106.58132573300009,11.160084201000075],[106.58001166200006,11.161620601000038],[106.57441435800007,11.159513267000023],[106.57513785800006,11.156268204000071],[106.57383177800006,11.153206986000043],[106.57128535900006,11.151702616000023],[106.56888897800007,11.152352587000053],[106.56951099200006,11.153593902000068],[106.56451315900006,11.153953920000049],[106.56436815200004,11.155593800000076],[106.56067942700008,11.156250452000052],[106.55889575700007,11.165062602000035],[106.55844067100008,11.163395473000037],[106.55567708400008,11.164441816000021],[106.55624919600007,11.167868955000074],[106.55212531300003,11.170622301000037],[106.54996710300009,11.169813824000073],[106.55004136600007,11.172211485000048],[106.54630352900006,11.166524125000024],[106.54411343600009,11.16550343800003],[106.54558303000005,11.160256391000075],[106.54216041700005,11.159189792000063],[106.54397414800007,11.152672171000063],[106.51641335500005,11.144581405000054],[106.51464003300003,11.145344497000053],[106.51439859000004,11.143007829000055],[106.50769065500003,11.14182637500005],[106.51590037700004,11.125415934000046],[106.52121901100008,11.121809384000073],[106.52684974800007,11.120673460000035],[106.52777658900004,11.114152907000062],[106.52632459200004,11.105856214000028],[106.52411066400003,11.10361578100003],[106.51701055500007,11.102030549000062],[106.51617993600007,11.100171216000035],[106.52238463000003,11.090054673000054],[106.52422200200004,11.089526],[106.52907607400005,11.092228344000034],[106.53381315700005,11.090546052000036],[106.53387707100006,11.088516629000026],[106.52681623500007,11.080699535000065],[106.52374666700007,11.073728149000033],[106.52516202000004,11.06972732500003],[106.52911683900004,11.066276252000023],[106.53290261400008,11.05909988600007],[106.54623893300004,11.052103601000056],[106.55031995900003,11.04603422100007],[106.56673656000004,11.045035830000074],[106.56851511000008,11.04694622900007],[106.56901954500006,11.05089672500003],[106.57227024900004,11.054666091000058],[106.57946155300004,11.048034795000035],[106.58133809700007,11.040604746000042],[106.58364360700006,11.037448321000056],[106.59079254300008,11.036921215000064],[106.59293766400003,11.043429695000043],[106.59716990800007,11.045651384000053],[106.60031920100005,11.044461954000042],[106.60339237200009,11.039569590000042],[106.61180978000004,11.049216949000026],[106.62412929800007,11.054148594000026],[106.62580026100005,11.043881170000077],[106.62998967900006,11.043217520000042],[106.63428656800005,11.045029391000071],[106.64031262400005,11.034065747000056],[106.64669999800009,11.04558577000006],[106.65335928100006,11.052416477000065],[106.65354356300008,11.058205799000064],[106.66360987500008,11.057016414000032],[106.66361677500004,11.07034505300004],[106.66728686000005,11.076659254000049],[106.66978255300006,11.076531651000039],[106.67046113300006,11.078968086000032],[106.66824716500008,11.079731524000067],[106.66991408600006,11.084688847000052],[106.67189855700008,11.084060669000053],[106.68982457400006,11.08845014700006],[106.69988137000007,11.094693681000024],[106.69870452500004,11.097754398000063],[106.69300450700007,11.102515035000067],[106.69355375600009,11.118476351000027],[106.68337801500007,11.140957376000074],[106.68368740000005,11.14958321000006],[106.68243734500004,11.154288415000053],[106.67969991600006,11.15439469000006],[106.68040309800006,11.161902346000034],[106.67924586400005,11.162058330000036],[106.68444217000007,11.182872073000055]]]}},{"type":"Feature","properties":{"slug":"di-an","name":"Dĩ An","layer":"legacy","unit_type":"Thành phố cũ","group":"Dĩ An","summary":"Cửa ngõ phía nam, kết nối trực tiếp Thủ Đức, Đồng Nai và các khu công nghiệp lâu năm.","dashboard_href":"/?tab=signals","dashboard_label":"Xem tin đang bán","source":"geoBoundaries"},"geometry":{"type":"Polygon","coordinates":[[[106.76352096400007,10.965176735000057],[106.75992018400007,10.967140678000021],[106.76059754700009,10.970095785000069],[106.75591668600003,10.969084946000066],[106.75316258100008,10.966715978000025],[106.75270414200008,10.964207789000056],[106.74522608000007,10.953670127000066],[106.75029567500007,10.938452446000042],[106.74524182100004,10.932751536000069],[106.74206040000007,10.93132636100006],[106.73966853400009,10.888391343000023],[106.73685942700007,10.884767444000033],[106.73416846800006,10.880519241000059],[106.73850873300006,10.878710762000026],[106.74061698200006,10.880822422000051],[106.74251967300006,10.879383027000074],[106.74477903000007,10.881752076000055],[106.74672676400007,10.877805412000043],[106.75034537800008,10.877360517000056],[106.75137006400007,10.875521010000057],[106.74644901500005,10.873902046000069],[106.74703227900005,10.872088440000027],[106.74598238500005,10.87175342300003],[106.74831641400004,10.866244037000058],[106.75175905900005,10.863807554000061],[106.75480260000006,10.866396640000062],[106.76221222000004,10.867279394000036],[106.76319117800006,10.86906080600005],[106.76036021900006,10.87239210100006],[106.76196438700003,10.87872197200005],[106.76016715900005,10.882125705000021],[106.76482182000007,10.886196166000047],[106.76840914200005,10.89417379200006],[106.78110913700004,10.880137854000054],[106.78202374000006,10.876777852000032],[106.78030412600003,10.868276217000073],[106.78773728700008,10.867348219000064],[106.78851562000006,10.872149278000052],[106.79400858700006,10.873576180000043],[106.79759960800004,10.871839574000035],[106.80520769100008,10.874994861000062],[106.80859230300007,10.873032796000075],[106.81303470700004,10.87914134500005],[106.81727714600004,10.88132329900003],[106.81915926800008,10.886229659000037],[106.82307321400003,10.887575408000032],[106.82361232500006,10.892722487000071],[106.82539163900009,10.895143019000045],[106.82995355200006,10.895572147000053],[106.83367257500004,10.899003763000053],[106.84037633500009,10.898641017000045],[106.83841866400007,10.902568160000044],[106.83469053900006,10.903794267000023],[106.83173164000004,10.90692454200007],[106.82376779700007,10.903289285000028],[106.82163165400004,10.904281619000074],[106.82043648600006,10.903096978000065],[106.81647394900006,10.90339760300003],[106.81398136000007,10.907753143000036],[106.81512200700007,10.910616942000047],[106.81162208800004,10.91547481300006],[106.81201456200006,10.91796959900006],[106.80956165200007,10.919824075000065],[106.80137190500005,10.92016099500006],[106.79442825000007,10.923816586000044],[106.78826552600009,10.922203953000064],[106.79200450500008,10.92730467900003],[106.79195036300007,10.929883473000075],[106.78840079900004,10.93316457900005],[106.78418544800007,10.93284568300004],[106.78310031600006,10.937730798000075],[106.77850227600004,10.937482665000061],[106.77809574200006,10.939374728000075],[106.77656047600004,10.938868307000064],[106.77091312800007,10.943100153000046],[106.76960874700006,10.948501434000036],[106.77102531100007,10.95208914400007],[106.76592755600007,10.951800461000062],[106.76294058800005,10.95344090900005],[106.76524921300006,10.958795162000058],[106.76209567800004,10.962090930000045],[106.76352096400007,10.965176735000057]]]}},{"type":"Feature","properties":{"slug":"tan-uyen","name":"Tân Uyên","layer":"legacy","unit_type":"Thành phố cũ","group":"Tân Uyên","summary":"Vùng đô thị - công nghiệp ven sông Đồng Nai, nối Dĩ An, Bắc Tân Uyên và Bến Cát.","dashboard_href":"/?tab=signals","dashboard_label":"Xem tin đang bán","source":"geoBoundaries"},"geometry":{"type":"Polygon","coordinates":[[[106.68368740000005,11.14958321000006],[106.68337801500007,11.140957376000074],[106.69355375600009,11.118476351000027],[106.69300450700007,11.102515035000067],[106.69870452500004,11.097754398000063],[106.69988137000007,11.094693681000024],[106.68982457400006,11.08845014700006],[106.69273092100008,11.077010802000075],[106.69773037800007,11.069298153000034],[106.69603568400004,11.069465728000068],[106.69535070700005,11.06758099800004],[106.69547890100006,11.062696857000049],[106.69753067800008,11.061292752000043],[106.69781347400004,11.062217197000052],[106.70626447500007,11.061435021000023],[106.71007229600008,11.058925905000024],[106.71568396200007,11.059502915000053],[106.72177209600005,11.05411910500004],[106.72100371700009,11.04192458500006],[106.72006619600006,11.040693306000037],[106.71331779600007,11.040414206000037],[106.71365594200006,11.036956270000076],[106.71047698200005,11.034710059000076],[106.70960134000006,11.032045063000055],[106.70223852200007,11.031818445000056],[106.69985213200005,11.023232948000043],[106.69794370000005,11.015584961000059],[106.70582419500005,11.013521276000063],[106.70505449600006,11.010819930000025],[106.70155926000007,11.011759820000066],[106.70093625000004,11.007292638000024],[106.70727901400005,11.005876944000022],[106.70691890600006,11.003691],[106.70217560900005,11.00257461800004],[106.70697810800004,10.996870173000048],[106.70862960800008,10.997838579000074],[106.70756754400009,10.991761864000068],[106.71043996100008,10.991913742000065],[106.71581160000005,10.996178972000052],[106.71570112800003,10.99368445500005],[106.71746257500007,10.993769230000055],[106.71913248900006,10.991702744000065],[106.72288708300005,10.990460768000048],[106.72324713200004,10.992802467000047],[106.74231546100003,10.986639663000062],[106.74145228000003,10.978131440000027],[106.75004503300005,10.977316526000038],[106.74947513300003,10.969341368000073],[106.75316258100008,10.966715978000025],[106.75591668600003,10.969084946000066],[106.76059754700009,10.970095785000069],[106.75992018400007,10.967140678000021],[106.76352096400007,10.965176735000057],[106.76664505900004,10.963922033000074],[106.77129615800004,10.965812934000041],[106.77302942000006,10.960086580000052],[106.77549915800006,10.959694049000063],[106.78527709000008,10.96740528500004],[106.79492654200004,10.97106087700007],[106.79639954600009,10.972805212000026],[106.79618437500005,10.974662624000075],[106.78226220500005,10.987221908000038],[106.77577044200007,10.999256191000029],[106.77467902400008,11.005999772000052],[106.77704872000004,11.009182604000046],[106.78330661300004,11.013236272000029],[106.78513046500007,11.018278465000037],[106.78819801300006,11.018775927000036],[106.79569882300007,11.023853188000032],[106.80830322800006,11.026321824000036],[106.81150794800004,11.029293163000034],[106.81306127400006,11.032721092000031],[106.81210819200004,11.03915448600003],[106.80608932800004,11.04871167300007],[106.79972121400004,11.052461888000039],[106.79877052200004,11.056489180000028],[106.80281420200004,11.059902324000063],[106.81566839400006,11.063325035000048],[106.81519248200004,11.067287312000076],[106.81717694000008,11.069222053000033],[106.81925589300005,11.077739221000058],[106.81534116900008,11.082716289000075],[106.81487656700006,11.08848635000004],[106.82560913000003,11.091706178000038],[106.82324017900004,11.095919595000055],[106.82260703200006,11.110923554000067],[106.82105170700004,11.11310775000004],[106.81521381000005,11.114266348000058],[106.78319019800006,11.113619418000042],[106.78454103300004,11.134506316000056],[106.78282029800005,11.136629535000054],[106.77955830900004,11.134066357000052],[106.77997300700008,11.14077174700003],[106.76481994300008,11.140929373000063],[106.76472404300006,11.133484077000048],[106.76265832000007,11.126318768000033],[106.75718142800008,11.122824339000033],[106.75137038700007,11.121685095000032],[106.74810753700007,11.122567864000075],[106.74661788000009,11.116866825000045],[106.74114694300005,11.11026015300007],[106.73778745500005,11.10926448600003],[106.73784584200007,11.113618591000034],[106.73545675900004,11.117297120000046],[106.73764739700005,11.119694697000057],[106.73579446500008,11.12060262500006],[106.73633382900005,11.132526187000053],[106.73294587500004,11.131521538000072],[106.73247333200004,11.13654600600006],[106.72774923300005,11.136110737000024],[106.72779736700005,11.138588302000073],[106.72462366200006,11.137020693000068],[106.71932949500007,11.142138897000052],[106.71635807100006,11.140801423000028],[106.71336873700005,11.136992577000058],[106.71252801400004,11.147240515000021],[106.71374333400007,11.151757799000052],[106.70184625700006,11.153114063000032],[106.70094918600006,11.154341593000026],[106.68368740000005,11.14958321000006]]]}},{"type":"Feature","properties":{"slug":"thuan-an","name":"Thuận An","layer":"legacy","unit_type":"Thành phố cũ","group":"Thuận An","summary":"Vùng đô thị mật độ cao giáp Thành phố Hồ Chí Minh, tập trung dọc Quốc lộ 13.","dashboard_href":"/?tab=signals","dashboard_label":"Xem tin đang bán","source":"geoBoundaries"},"geometry":{"type":"Polygon","coordinates":[[[106.65744425300005,10.925786794000032],[106.66896670200003,10.921026918000052],[106.67950670900007,10.92387504800007],[106.68274725000003,10.922911076000048],[106.68729414200004,10.917310407000059],[106.69285758600006,10.904236156000024],[106.69444924900006,10.895711964000043],[106.68937154900004,10.885906746000046],[106.68975185900007,10.880666981000047],[106.69945605700008,10.868955327000037],[106.71317303100005,10.865865279000047],[106.71527062800004,10.868529239000054],[106.71495797900008,10.872547136000037],[106.72349602200006,10.87222928400007],[106.72120582300005,10.876526886000022],[106.71245498300004,10.878003633000048],[106.71770822400003,10.880915206000054],[106.71744361300006,10.88793477300004],[106.71429922000004,10.887129137000045],[106.71298553200006,10.889767392000067],[106.71767326300005,10.896417694000036],[106.72702923200006,10.890497848000052],[106.72795651200005,10.891329420000034],[106.72917921400006,10.889873744000056],[106.73294933600005,10.891524748000052],[106.73184986100006,10.885720814000024],[106.73685942700007,10.884767444000033],[106.73966853400009,10.888391343000023],[106.74206040000007,10.93132636100006],[106.74524182100004,10.932751536000069],[106.75029567500007,10.938452446000042],[106.74522608000007,10.953670127000066],[106.75270414200008,10.964207789000056],[106.75316258100008,10.966715978000025],[106.74947513300003,10.969341368000073],[106.75004503300005,10.977316526000038],[106.74145228000003,10.978131440000027],[106.74231546100003,10.986639663000062],[106.72324713200004,10.992802467000047],[106.72288708300005,10.990460768000048],[106.71913248900006,10.991702744000065],[106.71746257500007,10.993769230000055],[106.71570112800003,10.99368445500005],[106.71581160000005,10.996178972000052],[106.71043996100008,10.991913742000065],[106.70756754400009,10.991761864000068],[106.70862960800008,10.997838579000074],[106.70697810800004,10.996870173000048],[106.69664196900004,10.989659309000047],[106.70123197200007,10.978265441000076],[106.70221961600004,10.973074911000026],[106.70102601400004,10.97121314800006],[106.69079497900009,10.965244225000049],[106.68192154700006,10.957334423000077],[106.67937403100007,10.96268673700007],[106.66859511600006,10.956421342000056],[106.67107285500003,10.953903808000064],[106.66821451900006,10.952030381000043],[106.66795725900005,10.949791382000058],[106.67034306400006,10.946747139000024],[106.66810102500006,10.943223489000047],[106.66521549100008,10.943332610000027],[106.66333931700007,10.946283833000052],[106.66111224400004,10.945689106000032],[106.65785935700006,10.93931129400005],[106.65407740700005,10.939891928000065],[106.65158977300007,10.942173835000062],[106.65019652800004,10.937416702000064],[106.65082196700007,10.933121742000026],[106.65744425300005,10.925786794000032]]]}},{"type":"Feature","properties":{"slug":"bau-bang","name":"Bàu Bàng","layer":"legacy","unit_type":"Huyện cũ","group":"Bàu Bàng","summary":"Vùng công nghiệp phía bắc, gắn với Quốc lộ 13 và hành lang phát triển Bến Cát - Chơn Thành.","dashboard_href":"/?tab=signals","dashboard_label":"Xem tin đang bán","source":"geoBoundaries"},"geometry":{"type":"Polygon","coordinates":[[[106.72170462200006,11.20353385900006],[106.71175762600006,11.211286082000072],[106.71058662500008,11.225242781000077],[106.70578524200005,11.224705226000026],[106.70429668000008,11.236474586000043],[106.70682385300006,11.236919256000022],[106.70623005900006,11.23946558700004],[106.70923942000007,11.239695519000065],[106.71226170800009,11.242115050000052],[106.71650388100005,11.247953369000072],[106.71627835900006,11.252192799000056],[106.72120240100008,11.252199586000074],[106.72124164500008,11.258803776000036],[106.71678962400006,11.256887028000051],[106.71173515000004,11.259064668000065],[106.70859127300008,11.254282707000073],[106.70214604200004,11.251317783000047],[106.67938360400007,11.248815580000041],[106.67790224800007,11.28042116000006],[106.67908821600008,11.30889632800006],[106.67777715400007,11.316213291000054],[106.67026626900008,11.31227130700006],[106.66324513800004,11.318714244000034],[106.65756675800009,11.319168317000049],[106.64678952600008,11.330672743000036],[106.64623184200008,11.338209633000076],[106.64414287400007,11.341988167000068],[106.65324351400005,11.348991676000026],[106.65888795800004,11.356013860000076],[106.65199074800006,11.359983879000026],[106.63298952700006,11.359134144000052],[106.61623816900004,11.363341053000056],[106.61350808100008,11.375886179000076],[106.61298214100009,11.387215001000072],[106.60102555000009,11.386427644000037],[106.59297371300005,11.380812966000065],[106.58944305800009,11.382147831000054],[106.57627222500008,11.378597052000032],[106.57057589200008,11.373685549000072],[106.56269324600004,11.370063793000043],[106.55308949800008,11.372658869000077],[106.54662341700003,11.38282687000003],[106.53896749000006,11.387419842000043],[106.52547071000004,11.381967365000037],[106.53035040400005,11.378947864000054],[106.54330270900005,11.33496787300004],[106.54754488000003,11.335631093000075],[106.55002770200008,11.33234571500003],[106.55019077200006,11.329761811000026],[106.54094138000005,11.322930930000041],[106.53684461600005,11.316143295000074],[106.54789377200007,11.309828026000048],[106.56278864400008,11.294447471000069],[106.56821598200008,11.292942932000074],[106.57400503900004,11.266264743000022],[106.57668938600006,11.262317707000022],[106.55789930600008,11.255607181000073],[106.55663835000007,11.259137701000043],[106.54934513600006,11.257493122000028],[106.54829043400008,11.261511190000022],[106.52391560400008,11.248796689000073],[106.51855322000006,11.247374426000022],[106.52175157700009,11.239099719000023],[106.51295014400006,11.240050661000055],[106.51320210700004,11.238030134000041],[106.51159163600005,11.236252007000076],[106.50857163700005,11.238493748000053],[106.50887153700006,11.235592659000076],[106.51194223700008,11.233014224000044],[106.51162712600006,11.227941717000022],[106.50679806500005,11.228043822000075],[106.49833583600008,11.233645310000043],[106.49767774900005,11.232878755000058],[106.50067399500006,11.228121551000072],[106.50671709600005,11.225376873000073],[106.51161936500006,11.22528968000006],[106.51799736100008,11.220078404000049],[106.51846134000004,11.215053197000032],[106.52165841300007,11.21250993800004],[106.52230089900007,11.205331164000029],[106.52078014400007,11.204839776000028],[106.52014906300008,11.202097545000072],[106.52308546600005,11.198120480000057],[106.52216521800005,11.194500946000062],[106.52386041800008,11.192091706000042],[106.52467461900005,11.184605177000037],[106.52884445600006,11.178786137000031],[106.53250047200004,11.177704982000023],[106.53181711400003,11.173549878000074],[106.53418227200007,11.16983446300003],[106.54011741800008,11.16625246600006],[106.54362786500008,11.166780804000041],[106.54411343600009,11.16550343800003],[106.54630352900006,11.166524125000024],[106.55004136600007,11.172211485000048],[106.54996710300009,11.169813824000073],[106.55212531300003,11.170622301000037],[106.55624919600007,11.167868955000074],[106.55567708400008,11.164441816000021],[106.55844067100008,11.163395473000037],[106.55889575700007,11.165062602000035],[106.56067942700008,11.156250452000052],[106.56436815200004,11.155593800000076],[106.56451315900006,11.153953920000049],[106.56951099200006,11.153593902000068],[106.56888897800007,11.152352587000053],[106.57128535900006,11.151702616000023],[106.57383177800006,11.153206986000043],[106.57513785800006,11.156268204000071],[106.57441435800007,11.159513267000023],[106.58001166200006,11.161620601000038],[106.58132573300009,11.160084201000075],[106.58578632200005,11.162966894000022],[106.58697180300004,11.160222839000028],[106.58989090400007,11.167768538000075],[106.59878758400004,11.173110017000056],[106.60236268000006,11.171245363000025],[106.60552148800008,11.165820090000068],[106.61582216000005,11.166735008000046],[106.61371124100003,11.163679002000038],[106.61523097100007,11.163107427000057],[106.61544555700004,11.160900819000062],[106.61719647000007,11.161004449000075],[106.62180575500008,11.168083692000039],[106.62538274700006,11.169369757000027],[106.62605570600005,11.171400170000027],[106.63111742400008,11.174013914000057],[106.63956469500005,11.182134434000034],[106.65153012700006,11.18932721300007],[106.65094693200007,11.192027273000065],[106.65461343700008,11.197864070000037],[106.65422060500003,11.200191324000059],[106.66075421400006,11.210274684000069],[106.66505160700007,11.212672963000045],[106.67039256700008,11.212495147000027],[106.68206689900006,11.228059158000065],[106.68501063400004,11.229450618000044],[106.68659382100009,11.227495782000062],[106.68244251800007,11.225236599000027],[106.67539988200008,11.215324125000052],[106.67927325500006,11.18590787100004],[106.68408023200004,11.186779528000045],[106.68444217000007,11.182872073000055],[106.69115486100009,11.192092228000035],[106.70418987000005,11.201095929000076],[106.72170462200006,11.20353385900006]]]}},{"type":"Feature","properties":{"slug":"bac-tan-uyen","name":"Bắc Tân Uyên","layer":"legacy","unit_type":"Huyện cũ","group":"Bắc Tân Uyên","summary":"Vùng sinh thái và sản xuất phía đông, có kết nối với Tân Uyên và Phú Giáo.","dashboard_href":"/?tab=signals","dashboard_label":"Xem tin đang bán","source":"geoBoundaries"},"geometry":{"type":"Polygon","coordinates":[[[106.91335461700004,11.230935100000067],[106.90757931100006,11.23265228300005],[106.90344847400007,11.242313212000056],[106.89101309300008,11.23883924100005],[106.88732614100007,11.239675833000035],[106.88677936500005,11.242419372000029],[106.89076991500008,11.246902015000046],[106.88636000200006,11.25371842100003],[106.88389732800005,11.252655685000036],[106.88658917000004,11.247618029000023],[106.88569659000007,11.244052620000048],[106.88396841300005,11.242914542000051],[106.87007099300007,11.251515674000075],[106.85998227700009,11.253116701000067],[106.85453246900005,11.25567829800002],[106.85018554300007,11.254150009000057],[106.84874742600005,11.246452550000072],[106.84966856100004,11.24335368800007],[106.85413360800004,11.240957406000064],[106.85388982100005,11.237865794000072],[106.84466554600004,11.233027024000023],[106.84077525500004,11.227147579000075],[106.83215717800005,11.227430527000024],[106.82745420300006,11.220495268000036],[106.82734869200004,11.217968321000058],[106.83332177400007,11.21886851000005],[106.83851688300007,11.217175027000053],[106.83864579800007,11.213480065000056],[106.82923220200007,11.209720116000028],[106.82394326800005,11.213588039000058],[106.82334965000007,11.216688648000058],[106.82008611600008,11.215750305000029],[106.81851957200007,11.20881339600004],[106.81347515900006,11.205945296000039],[106.81123966500007,11.202335413000071],[106.80401705300005,11.199265495000077],[106.79794164700007,11.194637932000035],[106.79694386100005,11.19552757200006],[106.79439318600004,11.194447234000052],[106.79300669100007,11.193306835000044],[106.79367398800008,11.18966234800007],[106.76443347100007,11.189200193000033],[106.76287981600007,11.191506749000041],[106.75877715600006,11.191495582000073],[106.75830993300008,11.21054928500007],[106.75715421100006,11.210535396000068],[106.75229429700005,11.209786878000045],[106.75091930300005,11.205066473000045],[106.74631425500007,11.200409697000055],[106.73438398900004,11.200090126000077],[106.73207403300006,11.197205790000055],[106.73220745600008,11.192536597000071],[106.73050612600008,11.189579926000022],[106.72594491500007,11.187628638000035],[106.72170462200006,11.20353385900006],[106.70418987000005,11.201095929000076],[106.69115486100009,11.192092228000035],[106.68444217000007,11.182872073000055],[106.67924586400005,11.162058330000036],[106.68040309800006,11.161902346000034],[106.67969991600006,11.15439469000006],[106.68243734500004,11.154288415000053],[106.68368740000005,11.14958321000006],[106.70094918600006,11.154341593000026],[106.70184625700006,11.153114063000032],[106.71374333400007,11.151757799000052],[106.71252801400004,11.147240515000021],[106.71336873700005,11.136992577000058],[106.71635807100006,11.140801423000028],[106.71932949500007,11.142138897000052],[106.72462366200006,11.137020693000068],[106.72779736700005,11.138588302000073],[106.72774923300005,11.136110737000024],[106.73247333200004,11.13654600600006],[106.73294587500004,11.131521538000072],[106.73633382900005,11.132526187000053],[106.73579446500008,11.12060262500006],[106.73764739700005,11.119694697000057],[106.73545675900004,11.117297120000046],[106.73784584200007,11.113618591000034],[106.73778745500005,11.10926448600003],[106.74114694300005,11.11026015300007],[106.74661788000009,11.116866825000045],[106.74810753700007,11.122567864000075],[106.75137038700007,11.121685095000032],[106.75718142800008,11.122824339000033],[106.76265832000007,11.126318768000033],[106.76472404300006,11.133484077000048],[106.76481994300008,11.140929373000063],[106.77997300700008,11.14077174700003],[106.77955830900004,11.134066357000052],[106.78282029800005,11.136629535000054],[106.78454103300004,11.134506316000056],[106.78319019800006,11.113619418000042],[106.81521381000005,11.114266348000058],[106.82105170700004,11.11310775000004],[106.82260703200006,11.110923554000067],[106.82324017900004,11.095919595000055],[106.82560913000003,11.091706178000038],[106.81487656700006,11.08848635000004],[106.81534116900008,11.082716289000075],[106.81925589300005,11.077739221000058],[106.81717694000008,11.069222053000033],[106.81519248200004,11.067287312000076],[106.81566839400006,11.063325035000048],[106.82712253700004,11.065118417000065],[106.83985195300005,11.03984648200003],[106.84455227500007,11.036861892000047],[106.85836845300008,11.032549665000033],[106.86864323400005,11.021728190000033],[106.87361260900008,11.020082044000048],[106.89455657200006,11.027891686000032],[106.89819074000008,11.027112775000035],[106.90582085400007,11.022287308000045],[106.90831326800009,11.022684102000028],[106.91140558800004,11.026995378000038],[106.91243584600005,11.040909008000028],[106.92333158700006,11.048229589000073],[106.92246106600004,11.056277868000052],[106.92768774400008,11.059337897000034],[106.93186797200008,11.064810524000052],[106.93734274100007,11.063194383000052],[106.94117015500007,11.057361270000058],[106.94543924100009,11.057780629000035],[106.94782047200005,11.059758826000063],[106.94840455300005,11.066457187000026],[106.95222079600006,11.07210359800007],[106.94472212000005,11.078407329000072],[106.94676196900008,11.084030808000023],[106.94662101400007,11.089049749000026],[106.95240836600004,11.097742288000063],[106.95920359000007,11.100825851000025],[106.95755551700006,11.10702307400004],[106.96484344000004,11.108212957000035],[106.96575844600005,11.109616145000075],[106.96268866200006,11.116750693000029],[106.95861546600008,11.119698609000068],[106.95343639800006,11.129218389000073],[106.95711252000007,11.134590568000021],[106.95428253700004,11.141173620000075],[106.96577353500004,11.143023214000038],[106.96606831300005,11.148004902000025],[106.96430480200007,11.149975528000027],[106.95615490400007,11.152881475000072],[106.95555548400006,11.159621882000067],[106.95335581600006,11.164104215000066],[106.94127389200008,11.167826037000054],[106.94121610600007,11.169613618000028],[106.94544276900007,11.173882390000074],[106.94570567500006,11.176733370000022],[106.93925984300006,11.179311521000045],[106.93331250800009,11.189748036000026],[106.92710334700007,11.190462498000045],[106.92327564800007,11.187621057000058],[106.92117535000006,11.189392776000034],[106.92032336500006,11.193492707000075],[106.91306336000008,11.194093269000064],[106.90764548600004,11.192634570000052],[106.90542329200008,11.194455146000053],[106.90706456800007,11.202730072000065],[106.90559302300005,11.205461082000056],[106.90183194500008,11.207219169000041],[106.90114476000008,11.210426952000034],[106.90790529100008,11.211780709000038],[106.91076903500004,11.214676753000049],[106.91438317700005,11.21470174600006],[106.91605335800006,11.21618426300006],[106.91796629800007,11.222988015000055],[106.91409605000007,11.226722004000067],[106.91525372800004,11.230080433000069],[106.91335461700004,11.230935100000067]]]}},{"type":"Feature","properties":{"slug":"dau-tieng","name":"Dầu Tiếng","layer":"legacy","unit_type":"Huyện cũ","group":"Dầu Tiếng","summary":"Địa bàn có diện tích lớn ở phía tây bắc, nổi bật với hồ Dầu Tiếng và đất nông nghiệp.","dashboard_href":"/?tab=signals","dashboard_label":"Xem tin đang bán","source":"geoBoundaries"},"geometry":{"type":"Polygon","coordinates":[[[106.53896749000006,11.387419842000043],[106.54574563600005,11.395615188000022],[106.54820226500004,11.406568037000056],[106.54663307000004,11.415258601000062],[106.54103535800004,11.423731382000028],[106.54145288300003,11.426225005000049],[106.54328959800006,11.42711814200004],[106.54861775100005,11.435984720000022],[106.55533414800004,11.439984869000057],[106.55895469500007,11.43946115500006],[106.56527452900008,11.444790775000058],[106.57317084600004,11.455050252000035],[106.57277161600007,11.458102344000054],[106.55805237800007,11.482535743000028],[106.55614165500003,11.484232961000032],[106.55034370300007,11.473296852000033],[106.54614147900008,11.468803785000034],[106.54031888800006,11.467506472000025],[106.52483532000008,11.479805815000077],[106.51431534100004,11.48221028100005],[106.51322704700004,11.484197812000048],[106.50361120700006,11.48902853900006],[106.49715751100007,11.495902753000053],[106.48916309200007,11.499542254000062],[106.48428083000005,11.498047162000034],[106.48254047900008,11.499256051000032],[106.47624971900007,11.495927622000067],[106.47026256700008,11.496518137000066],[106.46527920800008,11.498824266000042],[106.44188545200007,11.498620821000031],[106.43550026600008,11.500853410000047],[106.42894411800006,11.495318810000072],[106.42472554700004,11.494165532000068],[106.42348458600009,11.491118845000074],[106.41849937400008,11.48643673500004],[106.41887803500003,11.482728050000048],[106.41591503000006,11.481792864000056],[106.41615004800008,11.479767456000047],[106.41443582400007,11.478409656000053],[106.41766391500005,11.476569765000022],[106.41121455600006,11.47481846100004],[106.41211869500006,11.469666089000043],[106.40251170500005,11.466888571000027],[106.40522842300004,11.46418494300002],[106.40479870400009,11.462754178000068],[106.39509506700006,11.460893081000052],[106.39053706800007,11.456941340000071],[106.38809731000003,11.459268659000031],[106.38237069700006,11.453098343000022],[106.37953791000007,11.454527754000026],[106.37412390600008,11.451796020000074],[106.37206992100005,11.455262640000058],[106.37137958600005,11.452300379000064],[106.36890383900004,11.450679260000072],[106.37081806400005,11.448037990000046],[106.36754823000007,11.446487197000067],[106.36411320300004,11.44218820900005],[106.36696238400003,11.442399819000059],[106.36490828700005,11.438785727000038],[106.36725924400008,11.439108045000069],[106.36753508700008,11.434933298000033],[106.36479199900003,11.433929869000053],[106.36493962800006,11.431221838000056],[106.36183788200009,11.42942031800004],[106.36422083300005,11.427584963000072],[106.36339953600009,11.423731880000048],[106.35984409300005,11.42391499300004],[106.35779724900004,11.416785570000059],[106.35801032000006,11.411836411000024],[106.35957639300005,11.410612885000035],[106.35950402800006,11.40785597100006],[106.35754109900006,11.407348624000065],[106.35906471700008,11.406100351000077],[106.35874368300006,11.399004502000025],[106.35605388900007,11.398450511000021],[106.35624490000004,11.394176253000069],[106.35280834000008,11.396574300000054],[106.35155959300005,11.391606997000054],[106.34818898700007,11.38823198600005],[106.34845749300007,11.380650306000064],[106.34989657600005,11.377611456000068],[106.34804142300004,11.37662858300007],[106.34656964400006,11.379900889000055],[106.34484955300007,11.377076456000054],[106.34476225500003,11.367472053000029],[106.34712067000004,11.36949383800004],[106.34532832100007,11.363862469000026],[106.34035065800003,11.36183595500006],[106.33497164600004,11.364342761000046],[106.33575568300006,11.36031564600006],[106.33041044900006,11.353700526000068],[106.33182884800004,11.349845561000052],[106.32636737400009,11.343597418000058],[106.32829891800009,11.339248671000064],[106.33776996400007,11.332905061000076],[106.33974598800006,11.32852198200004],[106.34332022100006,11.329160407000074],[106.34275994900008,11.324785039000062],[106.34487366600007,11.323916117000067],[106.33822294400005,11.304319215000021],[106.33520205100007,11.300071350000053],[106.33518061200004,11.295454049000057],[106.33967122900003,11.29192501700004],[106.33785554300005,11.296245432000035],[106.33875914000004,11.297614483000075],[106.34012283400006,11.29811680000006],[106.34379233200008,11.29546601100003],[106.34448499200005,11.293611902000066],[106.34077248600005,11.29364897000005],[106.34038974600008,11.286734784000032],[106.34332163900007,11.282958379000036],[106.34509517800007,11.282889324000053],[106.34387128400004,11.285844344000054],[106.34666358200008,11.28972705800004],[106.35151574000008,11.28859635200007],[106.35229550300005,11.285531513000024],[106.35476368600007,11.288429028000053],[106.35618940100005,11.284578036000028],[106.35308898100004,11.283188609000035],[106.35498099200004,11.279793262000055],[106.35252763100004,11.266786242000023],[106.35033440300003,11.263083983000058],[106.35886349900005,11.261092349000023],[106.36195654800008,11.263163184000064],[106.36378588500008,11.261852993000048],[106.36412745300004,11.25991902100003],[106.36114287600009,11.258986888000038],[106.36039849500008,11.255840247000037],[106.35658171200004,11.255532260000052],[106.35137413500007,11.251070845000072],[106.35133043300004,11.248355520000075],[106.35540512200004,11.246800785000062],[106.35888786800007,11.239340544000072],[106.36127473800008,11.238190460000055],[106.37098777100005,11.244726198000023],[106.37772772300008,11.235256998000068],[106.37887178900007,11.228640858000063],[106.38354121200007,11.22836502000007],[106.37981243300004,11.218283081000038],[106.38918718900004,11.212361121000072],[106.38662548700006,11.202711069000031],[106.38448070300007,11.20047332300004],[106.38378994400006,11.193947216000026],[106.38783375300005,11.185812532000057],[106.39557848500004,11.184189865000064],[106.39928679300004,11.181416376000072],[106.40431645400008,11.18331497500003],[106.40535978200006,11.188039381000067],[106.40781443500003,11.183979932000057],[106.41068768600007,11.183366441000032],[106.40960280600007,11.180727223000076],[106.41041668600008,11.172088744000064],[106.41635390900007,11.174104999000065],[106.42556178500007,11.17032880100004],[106.42916909600007,11.174400063000064],[106.43147379300007,11.17349405400006],[106.43286293300008,11.170883777000029],[106.43269430400005,11.165199133000044],[106.43706887400003,11.158232458000043],[106.43618113800005,11.154726427000071],[106.42952633600004,11.148836022000069],[106.43604930800007,11.140343672000029],[106.44301773700005,11.135246189000043],[106.44736173900009,11.13487076000007],[106.45122713400008,11.135691415000053],[106.45696141800005,11.142799151000077],[106.45745100800008,11.15189299800005],[106.45587487200004,11.152504213000043],[106.45254227100008,11.150440412000023],[106.45122435600007,11.152197810000075],[106.45181781700006,11.157012297000051],[106.45517625100007,11.159381684000039],[106.45974969100007,11.15737006300003],[106.46339246900004,11.159459281000068],[106.46615745600008,11.155918892000045],[106.47080825000006,11.154365576000032],[106.47067929700006,11.152098425000077],[106.46683018600004,11.147181802000034],[106.47181699700008,11.142546244000073],[106.48065298400007,11.141451605000043],[106.49023785800006,11.143948450000039],[106.50114988900003,11.140245932000028],[106.50769065500003,11.14182637500005],[106.51439859000004,11.143007829000055],[106.51464003300003,11.145344497000053],[106.51641335500005,11.144581405000054],[106.54397414800007,11.152672171000063],[106.54216041700005,11.159189792000063],[106.54558303000005,11.160256391000075],[106.54411343600009,11.16550343800003],[106.54362786500008,11.166780804000041],[106.54011741800008,11.16625246600006],[106.53418227200007,11.16983446300003],[106.53181711400003,11.173549878000074],[106.53250047200004,11.177704982000023],[106.52884445600006,11.178786137000031],[106.52467461900005,11.184605177000037],[106.52386041800008,11.192091706000042],[106.52216521800005,11.194500946000062],[106.52308546600005,11.198120480000057],[106.52014906300008,11.202097545000072],[106.52078014400007,11.204839776000028],[106.52230089900007,11.205331164000029],[106.52165841300007,11.21250993800004],[106.51846134000004,11.215053197000032],[106.51799736100008,11.220078404000049],[106.51161936500006,11.22528968000006],[106.50671709600005,11.225376873000073],[106.50067399500006,11.228121551000072],[106.49767774900005,11.232878755000058],[106.49833583600008,11.233645310000043],[106.50679806500005,11.228043822000075],[106.51162712600006,11.227941717000022],[106.51194223700008,11.233014224000044],[106.50887153700006,11.235592659000076],[106.50857163700005,11.238493748000053],[106.51159163600005,11.236252007000076],[106.51320210700004,11.238030134000041],[106.51295014400006,11.240050661000055],[106.52175157700009,11.239099719000023],[106.51855322000006,11.247374426000022],[106.52391560400008,11.248796689000073],[106.54829043400008,11.261511190000022],[106.54934513600006,11.257493122000028],[106.55663835000007,11.259137701000043],[106.55789930600008,11.255607181000073],[106.57668938600006,11.262317707000022],[106.57400503900004,11.266264743000022],[106.56821598200008,11.292942932000074],[106.56278864400008,11.294447471000069],[106.54789377200007,11.309828026000048],[106.53684461600005,11.316143295000074],[106.54094138000005,11.322930930000041],[106.55019077200006,11.329761811000026],[106.55002770200008,11.33234571500003],[106.54754488000003,11.335631093000075],[106.54330270900005,11.33496787300004],[106.53035040400005,11.378947864000054],[106.52547071000004,11.381967365000037],[106.53896749000006,11.387419842000043]]]}},{"type":"Feature","properties":{"slug":"phu-giao","name":"Phú Giáo","layer":"legacy","unit_type":"Huyện cũ","group":"Phú Giáo","summary":"Vùng nông nghiệp - dân cư phía đông bắc, kết nối Bắc Tân Uyên và Đồng Phú.","dashboard_href":"/?tab=signals","dashboard_label":"Xem tin đang bán","source":"geoBoundaries"},"geometry":{"type":"Polygon","coordinates":[[[106.91335461700004,11.230935100000067],[106.91384091300006,11.233086570000069],[106.91847337300004,11.236016487000029],[106.91173000100008,11.236360175000073],[106.91334838600005,11.237593769000057],[106.91100713100008,11.238938475000054],[106.91111481600007,11.242069138000033],[106.91465431400007,11.240937684000073],[106.91736724200007,11.243152257000077],[106.91848372800007,11.240870095000048],[106.91888983400008,11.24305658700007],[106.92216731500008,11.24179063400004],[106.92636681100004,11.24502566600006],[106.92840365200004,11.243724749000023],[106.93154501900005,11.244906237000066],[106.93004243500008,11.248006370000041],[106.92646983800006,11.247428643000035],[106.92820257300008,11.24947773200006],[106.92796197200005,11.252569678000043],[106.92531840200007,11.254260874000067],[106.92552845000006,11.256405596000036],[106.92705175000003,11.256395723000026],[106.92732941200006,11.258883510000032],[106.92594157700006,11.25962217700004],[106.92729992200009,11.260986854000066],[106.92395004900004,11.264485299000057],[106.92804456900006,11.264973871000052],[106.92566885700006,11.267693417000032],[106.92741175300006,11.26798259800006],[106.92742176200005,11.269484797000075],[106.92475708500007,11.271304840000028],[106.93077476500008,11.272982656000067],[106.92965410700003,11.277883161000034],[106.93336396400008,11.279404193000062],[106.93224873000008,11.281858019000026],[106.93455646300004,11.285233920000053],[106.93335157400008,11.287301995000064],[106.93644009900004,11.287024366000026],[106.93919952700008,11.289581657000042],[106.93923799600009,11.29207088100003],[106.94181470400008,11.293341715000054],[106.94156339600005,11.294802685000036],[106.93739637000004,11.296546853000052],[106.94014024900008,11.296786453000038],[106.93997763300007,11.301723628000047],[106.93858446000007,11.301689826000029],[106.94003527800004,11.303826382000068],[106.93741103300005,11.305217132000053],[106.93821450400009,11.308173539000052],[106.93682533600008,11.30874059200005],[106.93905535300007,11.310228237000047],[106.93812734300008,11.312304647000076],[106.94146157300008,11.312308268000038],[106.94427798900006,11.31792434600004],[106.94696492100007,11.317753667000034],[106.94785367900005,11.321137371000077],[106.95178983900007,11.322232732000032],[106.95302320000008,11.328774137000039],[106.95043538700008,11.33404116500003],[106.95089334000005,11.33867643700006],[106.94005879900004,11.351851005000071],[106.93339454200009,11.354355245000022],[106.92361674100005,11.355128093000076],[106.91957759500008,11.352430777000052],[106.91768244700006,11.35624879200003],[106.91626417000003,11.356388604000074],[106.90710264100005,11.35310873900005],[106.90255418300006,11.342407278000053],[106.90044292300007,11.340783404000035],[106.88571899600004,11.341407627000024],[106.87303881000008,11.327714159000038],[106.87014414500004,11.322001268000065],[106.87452451300004,11.312072948000036],[106.87495832700006,11.307443652000075],[106.87374897800004,11.309288707000064],[106.86900421900003,11.311154054000042],[106.86538204600004,11.310718079000026],[106.86639117300007,11.314841326000021],[106.85717145500007,11.314638718000026],[106.85593168600008,11.330088922000073],[106.85897292700008,11.335657360000027],[106.86196169600004,11.335740109000028],[106.86358375600008,11.339590349000048],[106.86172607400005,11.34444456700004],[106.85704768500005,11.345997965000038],[106.86067730100007,11.349564625000028],[106.85628316800006,11.352606163000075],[106.85702080100003,11.357782659000065],[106.85540627300009,11.357759027000043],[106.85463136500005,11.36010047700006],[106.85451899400005,11.36132026200005],[106.85736157600007,11.360015588000067],[106.85867558600006,11.361361850000037],[106.85760707400004,11.36875082000006],[106.85582597400008,11.369540908000033],[106.85726994000004,11.37237637000004],[106.85679408300007,11.374995562000038],[106.85296018200006,11.376640162000058],[106.84049252700004,11.37506515800004],[106.83428924100008,11.380388836000066],[106.82678003600006,11.380367784000043],[106.82522323100005,11.384137850000059],[106.81660467700004,11.377212371000041],[106.81164629400007,11.37568456200006],[106.80195057600008,11.380453148000072],[106.79922786400004,11.379216360000044],[106.79788438000008,11.380805830000043],[106.79604331800005,11.379417208000064],[106.78498489400005,11.380139308000025],[106.78597345200006,11.39907695100004],[106.77363797100008,11.398993720000021],[106.76977981700009,11.408500136000043],[106.76991190700005,11.426111004000063],[106.78142046500005,11.427463741000054],[106.78592244700008,11.431202497000072],[106.78918040100007,11.431972432000066],[106.79878849800008,11.445424528000046],[106.80602338900007,11.451359600000046],[106.80636334700006,11.457832860000053],[106.80804716500006,11.460874128000057],[106.80360064100006,11.47204596000006],[106.80274073900006,11.482292933000053],[106.79705275900005,11.491114546000063],[106.79126314100006,11.491858654000055],[106.78182794400004,11.487961262000056],[106.77941369900009,11.485030754000036],[106.77366839100006,11.482377619000033],[106.76855781900008,11.482595644000071],[106.76741689900007,11.47985539900003],[106.76331794600009,11.480422024000063],[106.75839278200004,11.477325979000057],[106.75382012300008,11.476520015000062],[106.75009406100008,11.46731541400004],[106.75255729500009,11.462270647000025],[106.75265098500006,11.456321919000061],[106.75703217500006,11.452976335000074],[106.75603928400005,11.449689858000056],[106.75216597300005,11.445628730000067],[106.74204120200005,11.440779637000048],[106.74192365600004,11.434135207000054],[106.74051983600003,11.432768234000037],[106.72636200200009,11.431891545000042],[106.72635550200005,11.423653613000056],[106.72393650300006,11.422209096000074],[106.71805903600006,11.422243601000048],[106.71885982100008,11.414792463000026],[106.70899117200008,11.40497887400005],[106.71020915900004,11.399934611000049],[106.70419935800004,11.396279689000039],[106.70028738600007,11.398492503000057],[106.69722460600008,11.402733071000057],[106.69260532900006,11.401406976000033],[106.69206762000005,11.39867735100006],[106.68676405600007,11.39535274700006],[106.68316315200008,11.399134333000063],[106.67916113600006,11.39775024200003],[106.67811406400006,11.401733637000063],[106.67489690700006,11.400777942000047],[106.67942924900007,11.384964249000063],[106.67578174700009,11.381701874000044],[106.67753967500005,11.380881474000034],[106.67916690100009,11.375319571000034],[106.67759421000005,11.372635201000037],[106.67835642400007,11.369850748000033],[106.67590890000008,11.35822263700004],[106.67410759800003,11.356611117000057],[106.67418233500007,11.354322807000074],[106.67148284200005,11.353771146000042],[106.65888795800004,11.356013860000076],[106.65324351400005,11.348991676000026],[106.64414287400007,11.341988167000068],[106.64623184200008,11.338209633000076],[106.64678952600008,11.330672743000036],[106.65756675800009,11.319168317000049],[106.66324513800004,11.318714244000034],[106.67026626900008,11.31227130700006],[106.67777715400007,11.316213291000054],[106.67908821600008,11.30889632800006],[106.67790224800007,11.28042116000006],[106.67938360400007,11.248815580000041],[106.70214604200004,11.251317783000047],[106.70859127300008,11.254282707000073],[106.71173515000004,11.259064668000065],[106.71678962400006,11.256887028000051],[106.72124164500008,11.258803776000036],[106.72120240100008,11.252199586000074],[106.71627835900006,11.252192799000056],[106.71650388100005,11.247953369000072],[106.71226170800009,11.242115050000052],[106.70923942000007,11.239695519000065],[106.70623005900006,11.23946558700004],[106.70682385300006,11.236919256000022],[106.70429668000008,11.236474586000043],[106.70578524200005,11.224705226000026],[106.71058662500008,11.225242781000077],[106.71175762600006,11.211286082000072],[106.72170462200006,11.20353385900006],[106.72594491500007,11.187628638000035],[106.73050612600008,11.189579926000022],[106.73220745600008,11.192536597000071],[106.73207403300006,11.197205790000055],[106.73438398900004,11.200090126000077],[106.74631425500007,11.200409697000055],[106.75091930300005,11.205066473000045],[106.75229429700005,11.209786878000045],[106.75715421100006,11.210535396000068],[106.75830993300008,11.21054928500007],[106.75877715600006,11.191495582000073],[106.76287981600007,11.191506749000041],[106.76443347100007,11.189200193000033],[106.79367398800008,11.18966234800007],[106.79300669100007,11.193306835000044],[106.79439318600004,11.194447234000052],[106.79694386100005,11.19552757200006],[106.79794164700007,11.194637932000035],[106.80401705300005,11.199265495000077],[106.81123966500007,11.202335413000071],[106.81347515900006,11.205945296000039],[106.81851957200007,11.20881339600004],[106.82008611600008,11.215750305000029],[106.82334965000007,11.216688648000058],[106.82394326800005,11.213588039000058],[106.82923220200007,11.209720116000028],[106.83864579800007,11.213480065000056],[106.83851688300007,11.217175027000053],[106.83332177400007,11.21886851000005],[106.82734869200004,11.217968321000058],[106.82745420300006,11.220495268000036],[106.83215717800005,11.227430527000024],[106.84077525500004,11.227147579000075],[106.84466554600004,11.233027024000023],[106.85388982100005,11.237865794000072],[106.85413360800004,11.240957406000064],[106.84966856100004,11.24335368800007],[106.84874742600005,11.246452550000072],[106.85018554300007,11.254150009000057],[106.85453246900005,11.25567829800002],[106.85998227700009,11.253116701000067],[106.87007099300007,11.251515674000075],[106.88396841300005,11.242914542000051],[106.88569659000007,11.244052620000048],[106.88658917000004,11.247618029000023],[106.88389732800005,11.252655685000036],[106.88636000200006,11.25371842100003],[106.89076991500008,11.246902015000046],[106.88677936500005,11.242419372000029],[106.88732614100007,11.239675833000035],[106.89101309300008,11.23883924100005],[106.90344847400007,11.242313212000056],[106.90757931100006,11.23265228300005],[106.91335461700004,11.230935100000067]]]}}]}
