{
  "type": "FeatureCollection",
  "features": [
    {
      "type": "Feature",
      "properties": {
        "name": "Chánh Mỹ",
        "source": "Wikidata Q2396887 revision 2343412947 (pre-merger ward coordinate)",
        "source_url": "https://www.wikidata.org/w/index.php?title=Q2396887&oldid=2343412947",
        "confidence": "high",
        "boundary_claim": false
      },
      "geometry": {
        "type": "Point",
        "coordinates": [106.6316667, 10.99194444]
      }
    },
    {
      "type": "Feature",
      "properties": {
        "name": "Chánh Nghĩa",
        "source": "Wikidata Q2791462 revision 2343413007 (pre-merger ward coordinate)",
        "source_url": "https://www.wikidata.org/w/index.php?title=Q2791462&oldid=2343413007",
        "confidence": "high",
        "boundary_claim": false
      },
      "geometry": {
        "type": "Point",
        "coordinates": [106.65972222222, 10.966944444444]
      }
    },
    {
      "type": "Feature",
      "properties": {
        "name": "Định Hòa",
        "source": "Wikidata Q10841802 revision 1493037585 (pre-merger ward coordinate)",
        "source_url": "https://www.wikidata.org/w/index.php?title=Q10841802&oldid=1493037585",
        "confidence": "high",
        "boundary_claim": false
      },
      "geometry": {
        "type": "Point",
        "coordinates": [106.65222222222, 11.025833333333]
      }
    },
    {
      "type": "Feature",
      "properties": {
        "name": "Hiệp An",
        "source": "Wikidata Q2304628 revision 1493038282 (pre-merger ward coordinate)",
        "source_url": "https://www.wikidata.org/w/index.php?title=Q2304628&oldid=1493038282",
        "confidence": "high",
        "boundary_claim": false
      },
      "geometry": {
        "type": "Point",
        "coordinates": [106.63333333333, 11.031388888889]
      }
    },
    {
      "type": "Feature",
      "properties": {
        "name": "Hiệp Thành",
        "source": "Wikidata Q2672609 revision 1493038915 (pre-merger ward coordinate)",
        "source_url": "https://www.wikidata.org/w/index.php?title=Q2672609&oldid=1493038915",
        "confidence": "high",
        "boundary_claim": false
      },
      "geometry": {
        "type": "Point",
        "coordinates": [106.65916666667, 10.998055555556]
      }
    },
    {
      "type": "Feature",
      "properties": {
        "name": "Hòa Phú",
        "source": "Wikidata Q4825307 revision 1674988450 (pre-merger ward coordinate)",
        "source_url": "https://www.wikidata.org/w/index.php?title=Q4825307&oldid=1674988450",
        "confidence": "high",
        "boundary_claim": false
      },
      "geometry": {
        "type": "Point",
        "coordinates": [106.676032, 11.071286]
      }
    },
    {
      "type": "Feature",
      "properties": {
        "name": "Phú Cường",
        "source": "Wikidata Q86010735 (Nhà thờ chính tòa Phú Cường reference landmark)",
        "source_url": "https://www.wikidata.org/wiki/Q86010735",
        "confidence": "medium",
        "boundary_claim": false
      },
      "geometry": {
        "type": "Point",
        "coordinates": [106.65407, 10.98155]
      }
    },
    {
      "type": "Feature",
      "properties": {
        "name": "Phú Hòa",
        "source": "Wikidata Q10805927 revision 1493047954 (pre-merger ward coordinate)",
        "source_url": "https://www.wikidata.org/w/index.php?title=Q10805927&oldid=1493047954",
        "confidence": "high",
        "boundary_claim": false
      },
      "geometry": {
        "type": "Point",
        "coordinates": [106.68611111111, 10.9775]
      }
    },
    {
      "type": "Feature",
      "properties": {
        "name": "Phú Lợi",
        "source": "Wikidata Q1901452 revision 2362556003 (pre-merger ward coordinate)",
        "source_url": "https://www.wikidata.org/w/index.php?title=Q1901452&oldid=2362556003",
        "confidence": "high",
        "boundary_claim": false
      },
      "geometry": {
        "type": "Point",
        "coordinates": [106.67406, 10.990696]
      }
    },
    {
      "type": "Feature",
      "properties": {
        "name": "Phú Mỹ",
        "source": "Wikidata Q10806024 revision 1493049868 (pre-merger ward coordinate)",
        "source_url": "https://www.wikidata.org/w/index.php?title=Q10806024&oldid=1493049868",
        "confidence": "high",
        "boundary_claim": false
      },
      "geometry": {
        "type": "Point",
        "coordinates": [106.67083333333, 11.013333333333]
      }
    },
    {
      "type": "Feature",
      "properties": {
        "name": "Phú Tân",
        "source": "Wikidata Q2392572 revision 1493049566 (pre-merger ward coordinate)",
        "source_url": "https://www.wikidata.org/w/index.php?title=Q2392572&oldid=1493049566",
        "confidence": "high",
        "boundary_claim": false
      },
      "geometry": {
        "type": "Point",
        "coordinates": [106.68111111111, 11.0275]
      }
    },
    {
      "type": "Feature",
      "properties": {
        "name": "Phú Thọ",
        "source": "Wikidata Q10806124 revision 2362662091 (pre-merger ward coordinate)",
        "source_url": "https://www.wikidata.org/w/index.php?title=Q10806124&oldid=2362662091",
        "confidence": "high",
        "boundary_claim": false
      },
      "geometry": {
        "type": "Point",
        "coordinates": [106.66555555556, 10.9575]
      }
    },
    {
      "type": "Feature",
      "properties": {
        "name": "Tân An",
        "source": "Wikidata Q2646896 revision 2083099363 (pre-merger ward coordinate)",
        "source_url": "https://www.wikidata.org/w/index.php?title=Q2646896&oldid=2083099363",
        "confidence": "high",
        "boundary_claim": false
      },
      "geometry": {
        "type": "Point",
        "coordinates": [106.6158333, 11.03361111]
      }
    },
    {
      "type": "Feature",
      "properties": {
        "name": "Tương Bình Hiệp",
        "source": "Wikidata Q2262454 revision 2343413257 (pre-merger ward coordinate)",
        "source_url": "https://www.wikidata.org/w/index.php?title=Q2262454&oldid=2343413257",
        "confidence": "high",
        "boundary_claim": false
      },
      "geometry": {
        "type": "Point",
        "coordinates": [106.6305556, 11.01611111]
      }
    }
  ]
}
