{"type":"FeatureCollection","name":"TP Thủ Dầu Một sau sắp xếp 2025 - 5 phường hiện tại","updated_at":"2026-07-29","features":[{"type":"Feature","properties":{"slug":"thu-dau-mot","name":"Thủ Dầu Một","layer":"current","unit_type":"Phường","group":"Thủ Dầu Một","summary":"Phường Thủ Dầu Một thuộc khu vực Bình Dương cũ sau sắp xếp năm 2025.","dashboard_href":"/?tab=signals&city=Th%E1%BB%A7%20D%E1%BA%A7u%20M%E1%BB%99t","dashboard_label":"Lọc tin Thủ Dầu Một","source":"OpenStreetMap","former_units":"Phú Cường, Phú Thọ, Chánh Nghĩa, Chánh Mỹ và một phần Hiệp Thành","last_updated":"2026-07-29","is_derived_boundary":false,"boundary_confidence":"verified","current_ward_after_2025":"Thủ Dầu Một"},"geometry":{"type":"Polygon","coordinates":[[[106.6298032,10.9822892],[106.6305985,10.9813545],[106.6302207,10.980452],[106.6304247,10.9785269],[106.6337022,10.977713],[106.6374022,10.977443],[106.6431022,10.980673],[106.6459,10.9813],[106.6475,10.98096],[106.6486,10.98004],[106.6492,10.97888],[106.6502,10.97444],[106.6488,10.96706],[106.6489,10.96449],[106.6496,10.96138],[106.6518,10.95474],[106.6524,10.95096],[106.6524,10.9472],[106.6516,10.94217],[106.6525994,10.9419639],[106.6533909,10.9405918],[106.654142,10.9401165],[106.6556943,10.9403623],[106.6574469,10.9397232],[106.6580645,10.9400018],[106.659116,10.9428861],[106.6600007,10.9439841],[106.6605515,10.9456393],[106.6609521,10.9461473],[106.6617199,10.9464095],[106.663606,10.9466717],[106.6644239,10.9456229],[106.6648412,10.943853],[106.6656424,10.9436399],[106.6664791,10.9444116],[106.6669324,10.943528],[106.6677121,10.9433286],[106.6701104,10.9469431],[106.6684367,10.9482744],[106.6678248,10.9498416],[106.6658918,10.9510288],[106.6663445,10.9526524],[106.6678305,10.9520079],[106.6699317,10.9532528],[106.6691082,10.9544035],[106.6715491,10.9558492],[106.671423,10.9562311],[106.6723001,10.9563522],[106.6719808,10.9572096],[106.6730618,10.957761],[106.6728446,10.9585273],[106.6737941,10.9588012],[106.6737834,10.9590592],[106.6750279,10.9589855],[106.6750145,10.9591988],[106.6772849,10.9598625],[106.6781473,10.9606129],[106.6800463,10.9614635],[106.6817521,10.9573098],[106.6856309,10.9600371],[106.686103,10.9608946],[106.6892607,10.9636049],[106.6815189,10.9672355],[106.6710515,10.9730759],[106.6671288,10.9809148],[106.6656724,10.9859466],[106.6634488,10.9903859],[106.6625981,10.9914295],[106.6611224,10.9921717],[106.6559413,10.9928846],[106.648752,10.9972336],[106.6495565,10.9963669],[106.6489721,10.9945275],[106.6484258,10.9941432],[106.6485954,10.9938331],[106.647727,10.993007],[106.6475219,10.9933849],[106.64575,10.9926694],[106.6441932,10.9926529],[106.6441798,10.9900804],[106.6394999,10.9893236],[106.6378283,10.9894893],[106.6362043,10.990112],[106.6346714,10.9901436],[106.6345471,10.9880254],[106.6315067,10.9860566],[106.6298032,10.9822892]]]}},{"type":"Feature","properties":{"slug":"phu-loi","name":"Phú Lợi","layer":"current","unit_type":"Phường","group":"Thủ Dầu Một","summary":"Phường Phú Lợi thuộc khu vực Bình Dương cũ sau sắp xếp năm 2025.","dashboard_href":"/?tab=signals&city=Th%E1%BB%A7%20D%E1%BA%A7u%20M%E1%BB%99t","dashboard_label":"Lọc tin Thủ Dầu Một","source":"OpenStreetMap","former_units":"Phú Hòa, Phú Lợi và phần còn lại của Hiệp Thành","last_updated":"2026-07-29","is_derived_boundary":false,"boundary_confidence":"verified","current_ward_after_2025":"Phú Lợi"},"geometry":{"type":"Polygon","coordinates":[[[106.6456634,11.0050672],[106.6470186,10.9995005],[106.648752,10.9972336],[106.6559413,10.9928846],[106.6611224,10.9921717],[106.663092,10.9909098],[106.6656724,10.9859466],[106.6669625,10.9813163],[106.6685423,10.9778788],[106.6707163,10.9735328],[106.6721901,10.9722399],[106.6818315,10.9670758],[106.6892607,10.9636049],[106.6903283,10.9650197],[106.6935387,10.966329],[106.6976224,10.9686812],[106.7002898,10.9708711],[106.7008209,10.9708132],[106.7021782,10.9726439],[106.7019303,10.9733855],[106.7010855,10.9742029],[106.7008936,10.9749649],[106.7011523,10.9781929],[106.7005681,10.9796021],[106.6994247,10.9809785],[106.6991911,10.982355],[106.6984483,10.982953],[106.6988072,10.9841492],[106.6983481,10.9858779],[106.6972048,10.9862957],[106.6972465,10.9867955],[106.6962587,10.9874029],[106.6964447,10.9886377],[106.6977846,10.9903837],[106.7047896,10.9946791],[106.7071673,10.9966615],[106.7065835,10.9980549],[106.7041333,11.0013001],[106.7030865,11.0018786],[106.7032045,11.0022632],[106.6998332,11.0037721],[106.6983819,11.0056216],[106.6953962,11.0076813],[106.692753,11.0046354],[106.6898916,11.0043067],[106.6890848,11.0051385],[106.6868889,11.0025457],[106.6863583,11.0015153],[106.6862887,11.0002421],[106.6838427,10.9963389],[106.6810979,10.9989118],[106.671949,11.0051689],[106.6688359,11.0083388],[106.6668487,11.0055617],[106.6639089,11.0086935],[106.6623133,11.0097598],[106.6609615,11.0102074],[106.6588885,11.0117079],[106.6581161,11.0101628],[106.6561544,11.0085097],[106.6492253,11.0058356],[106.6456634,11.0050672]]]}},{"type":"Feature","properties":{"slug":"chanh-hiep","name":"Chánh Hiệp","layer":"current","unit_type":"Phường","group":"Thủ Dầu Một","summary":"Phường Chánh Hiệp thuộc khu vực Bình Dương cũ sau sắp xếp năm 2025.","dashboard_href":"/?tab=signals&city=Th%E1%BB%A7%20D%E1%BA%A7u%20M%E1%BB%99t","dashboard_label":"Lọc tin Thủ Dầu Một","source":"OpenStreetMap","former_units":"Định Hòa, Tương Bình Hiệp, một phần Hiệp An và phần còn lại của Chánh Mỹ","last_updated":"2026-07-29","is_derived_boundary":false,"boundary_confidence":"verified","current_ward_after_2025":"Chánh Hiệp"},"geometry":{"type":"Polygon","coordinates":[[[106.6159022,10.991263],[106.6168022,10.988623],[106.6178022,10.987603],[106.6223022,10.984573],[106.6261022,10.980293],[106.6279022,10.979243],[106.6304247,10.9785269],[106.6302207,10.980452],[106.6305985,10.9813545],[106.6299239,10.981889],[106.6298237,10.9823766],[106.6315067,10.9860566],[106.6345471,10.9880254],[106.6346714,10.9901436],[106.6362043,10.990112],[106.6378283,10.9894893],[106.6394999,10.9893236],[106.6441798,10.9900804],[106.6441932,10.9926529],[106.64575,10.9926694],[106.6466689,10.9932506],[106.6475219,10.9933849],[106.647727,10.993007],[106.6482326,10.9933085],[106.6495565,10.9963669],[106.6472201,10.999022],[106.6456634,11.0050672],[106.6492253,11.0058356],[106.6567228,11.0088175],[106.6581161,11.0101628],[106.6588845,11.0116265],[106.658793,11.0123452],[106.6614787,11.013545],[106.6635769,11.0156438],[106.6623907,11.0170555],[106.6596053,11.0231599],[106.662985,11.0246811],[106.6631366,11.0245182],[106.6640974,11.0251991],[106.6635128,11.0265756],[106.6619708,11.0268741],[106.6602731,11.0282868],[106.6608963,11.0289145],[106.6561439,11.0335796],[106.6546815,11.0383982],[106.6533987,11.0405211],[106.6575526,11.0420372],[106.6566762,11.0436266],[106.659028,11.04539],[106.6620134,11.0491838],[106.6617973,11.0493374],[106.6646737,11.0568783],[106.6602449,11.0572753],[106.6579798,11.0584467],[106.6536445,11.0580933],[106.6539977,11.0567499],[106.6534595,11.0528836],[106.6470303,11.045896],[106.6400496,11.034216],[106.6407922,11.0328064],[106.644449,11.0282642],[106.6454823,11.0272751],[106.6480861,11.0257596],[106.6455116,11.0231474],[106.6442183,11.0223709],[106.6439196,11.0229913],[106.6426241,11.0229045],[106.6396657,11.0241339],[106.6399316,11.0228607],[106.6390916,11.0223569],[106.6391431,11.0211338],[106.6384506,11.0207061],[106.6376088,11.0208457],[106.637882,11.0189777],[106.6365999,11.018234],[106.6367807,11.0174959],[106.6358792,11.0168379],[106.6323704,11.0232373],[106.625157,11.0211691],[106.6203097,11.02101],[106.6207464,11.0197948],[106.6218236,11.0183604],[106.6227462,11.0155284],[106.6190016,11.0151635],[106.6174554,11.0154279],[106.6174494,11.0138819],[106.6165693,11.0128692],[106.6162,11.01159],[106.6184,11.0104],[106.6203,11.00774],[106.6213,11.00501],[106.6212,11.00313],[106.6205022,11.000433],[106.6168022,10.993973],[106.6159022,10.991263]]]}},{"type":"Feature","properties":{"slug":"binh-duong","name":"Bình Dương","layer":"current","unit_type":"Phường","group":"Thủ Dầu Một","summary":"Phường Bình Dương thuộc khu vực Bình Dương cũ sau sắp xếp năm 2025.","dashboard_href":"/?tab=signals&city=Th%E1%BB%A7%20D%E1%BA%A7u%20M%E1%BB%99t","dashboard_label":"Lọc tin Thủ Dầu Một","source":"OpenStreetMap","former_units":"Phú Mỹ, Hòa Phú, Phú Tân và Phú Chánh","last_updated":"2026-07-29","is_derived_boundary":false,"boundary_confidence":"verified","current_ward_after_2025":"Bình Dương"},"geometry":{"type":"Polygon","coordinates":[[[106.6533987,11.0405211],[106.6546815,11.0383982],[106.6561439,11.0335796],[106.6608963,11.0289145],[106.6602731,11.0282868],[106.6619708,11.0268741],[106.6635128,11.0265756],[106.6640974,11.0251991],[106.6631366,11.0245182],[106.662985,11.0246811],[106.6596053,11.0231599],[106.6623907,11.0170555],[106.6635769,11.0156438],[106.6614787,11.013545],[106.658793,11.0123452],[106.6588885,11.0117079],[106.6609615,11.0102074],[106.6623133,11.0097598],[106.6639089,11.0086935],[106.6668487,11.0055617],[106.6688359,11.0083388],[106.671949,11.0051689],[106.6810979,10.9989118],[106.6838427,10.9963389],[106.6862887,11.0002421],[106.6863583,11.0015153],[106.6868889,11.0025457],[106.6890848,11.0051385],[106.6898916,11.0043067],[106.692753,11.0046354],[106.6953962,11.0076813],[106.6983819,11.0056216],[106.6998332,11.0037721],[106.7032045,11.0022632],[106.7038214,11.0041115],[106.7049319,11.0040562],[106.7059098,11.0032532],[106.7071966,11.0028671],[106.708741,11.0030856],[106.7097453,11.0037896],[106.7074907,11.0051251],[106.7076543,11.0061424],[106.7067477,11.0065179],[106.7069911,11.0072927],[106.7077609,11.0078192],[106.7066108,11.0081815],[106.7050773,11.0080166],[106.7056023,11.009357],[106.70527,11.0101951],[106.7058089,11.0112571],[106.7057312,11.0124576],[106.7064553,11.0129973],[106.7067477,11.0150272],[106.7076623,11.0167754],[106.7081049,11.0168096],[106.7081639,11.0173494],[106.7077927,11.0186453],[106.707087,11.0190792],[106.7064677,11.0210043],[106.7060702,11.0240079],[106.7061013,11.0270352],[106.7049077,11.0288438],[106.7044866,11.0300785],[106.7055541,11.0304155],[106.7064875,11.0312237],[106.7102963,11.032053],[106.7104152,11.0334951],[106.7117447,11.0345593],[106.7114952,11.0352701],[106.7118654,11.0361415],[106.7140594,11.0368023],[106.7137107,11.0376447],[106.7138073,11.0386319],[106.7131287,11.0397323],[106.7132387,11.0404826],[106.7152476,11.0405326],[106.7185467,11.0421359],[106.7191368,11.0428309],[106.7186165,11.046061],[106.7181766,11.0460215],[106.71819,11.0467191],[106.7172217,11.0489331],[106.7152637,11.0522947],[106.7131367,11.0571884],[106.7091858,11.0576412],[106.7085842,11.0605927],[106.7102926,11.0589884],[106.7115789,11.0593272],[106.711523,11.0598479],[106.7120228,11.0601914],[106.7130976,11.0600484],[106.7151618,11.0604275],[106.7167544,11.061219],[106.7179432,11.0612569],[106.7199044,11.0624826],[106.7228784,11.0627479],[106.721518,11.0654308],[106.720815,11.0654274],[106.7194244,11.067375],[106.7189206,11.0675388],[106.7189388,11.0680794],[106.7181627,11.0682949],[106.7182316,11.0690987],[106.7175528,11.0699527],[106.717586,11.0710245],[106.7170246,11.0712349],[106.7170144,11.0722216],[106.7161749,11.0730154],[106.716083,11.0741248],[106.7153634,11.0750514],[106.7151468,11.0768828],[106.7137719,11.078048],[106.7140173,11.0790962],[106.7137033,11.0800099],[106.7130574,11.0806616],[106.7123522,11.0807729],[106.7119334,11.0818764],[106.7108986,11.0826803],[106.7109678,11.0832313],[106.7100206,11.0845985],[106.7093929,11.0846762],[106.7090611,11.0852646],[106.7082101,11.0852471],[106.7085837,11.0860685],[106.7068394,11.088043],[106.7054031,11.0883698],[106.7043321,11.0897723],[106.7019704,11.0911133],[106.7008974,11.0922151],[106.6994281,11.0944735],[106.6985871,11.0970379],[106.6976617,11.0975919],[106.6960725,11.0995567],[106.6957205,11.1004924],[106.6947515,11.1013886],[106.6937631,11.1013926],[106.6935258,11.1019361],[106.6928874,11.1022848],[106.6936773,11.1035785],[106.6935714,11.1042759],[106.6929866,11.1046444],[106.6935553,11.1053985],[106.6934708,11.1061025],[106.6929263,11.1066289],[106.6870952,11.1059209],[106.6862975,11.1054496],[106.6858387,11.107405],[106.6854241,11.107129],[106.682812,11.1068981],[106.6787079,11.1072264],[106.6784048,11.1072817],[106.6782639,11.1079359],[106.6773534,11.1080634],[106.6771549,11.1083634],[106.6739818,11.1089082],[106.6721848,11.1085082],[106.6720292,11.1079107],[106.6714498,11.1079765],[106.6712594,11.1076475],[106.6694945,11.1078265],[106.66917,11.1073475],[106.6672441,11.1072475],[106.6671637,11.1023059],[106.6677457,11.1001332],[106.6674873,11.0985645],[106.6679361,11.0952586],[106.6671945,11.0950612],[106.666925,11.0930213],[106.6688535,11.091679],[106.6700148,11.0878598],[106.670841,11.0872096],[106.6679681,11.0794156],[106.6700973,11.0785872],[106.6692002,11.0759917],[106.6669275,11.0768637],[106.6663295,11.0752463],[106.6646934,11.0743618],[106.6648355,11.074146],[106.6631323,11.0703344],[106.663434,11.0679559],[106.6623034,11.0676562],[106.6624483,11.0668624],[106.6634488,11.0668177],[106.6637063,11.0662122],[106.6635776,11.0652593],[106.6639423,11.064875],[106.664173,11.0616635],[106.6636228,11.0570006],[106.6646737,11.0568783],[106.6617973,11.0493374],[106.6620134,11.0491838],[106.659028,11.04539],[106.6566762,11.0436266],[106.6575526,11.0420372],[106.6533987,11.0405211]]]}},{"type":"Feature","properties":{"slug":"phu-an","name":"Phú An","layer":"current","unit_type":"Phường","group":"Thủ Dầu Một","summary":"Phường Phú An thuộc khu vực Bình Dương cũ sau sắp xếp năm 2025.","dashboard_href":"/?tab=signals&city=Th%E1%BB%A7%20D%E1%BA%A7u%20M%E1%BB%99t","dashboard_label":"Lọc tin Thủ Dầu Một","source":"OpenStreetMap","former_units":"Tân An, Phú An và phần còn lại của Hiệp An","last_updated":"2026-07-29","is_derived_boundary":false,"boundary_confidence":"verified","current_ward_after_2025":"Phú An"},"geometry":{"type":"Polygon","coordinates":[[[106.5558677,11.0574989],[106.5569495,11.0551661],[106.5578264,11.0551501],[106.5594996,11.0530785],[106.5602112,11.0531336],[106.5606238,11.0526851],[106.5606534,11.0518302],[106.5600225,11.0502508],[106.5590107,11.0493218],[106.5586931,11.0485215],[106.5590326,11.0471316],[106.5587004,11.0456277],[106.5635,11.04507],[106.5667,11.04504],[106.5675,11.04545],[106.5681,11.04593],[106.5685,11.04695],[106.569,11.0509],[106.5713,11.0542],[106.572,11.05463],[106.5727,11.05461],[106.574,11.05373],[106.5754,11.05188],[106.5795,11.04803],[106.5804,11.04572],[106.5813,11.0406],[106.5831,11.03784],[106.5855,11.03668],[106.5889,11.03626],[106.5908,11.03692],[106.5916,11.03873],[106.5921,11.04195],[106.5929,11.04343],[106.5946,11.04507],[106.5954,11.0454],[106.5983,11.04559],[106.5994,11.0453],[106.6003,11.04446],[106.6027,11.04126],[106.6034321,11.0395281],[106.5957,11.03027],[106.595,11.02549],[106.5956,11.02255],[106.5973,11.0173],[106.598,11.01582],[106.5998,11.01453],[106.6088,11.01184],[106.6162,11.01159],[106.6165693,11.0128692],[106.6174494,11.0138819],[106.6174554,11.0154279],[106.6190016,11.0151635],[106.6227462,11.0155284],[106.6218236,11.0183604],[106.6207464,11.0197948],[106.6203097,11.02101],[106.625157,11.0211691],[106.6323704,11.0232373],[106.6358792,11.0168379],[106.6367807,11.0174959],[106.6365999,11.018234],[106.637882,11.0189777],[106.6376088,11.0208457],[106.6384506,11.0207061],[106.6391431,11.0211338],[106.6390916,11.0223569],[106.6399316,11.0228607],[106.6396657,11.0241339],[106.6426241,11.0229045],[106.6439196,11.0229913],[106.6442183,11.0223709],[106.6466404,11.0241299],[106.6480861,11.0257596],[106.6450169,11.0276708],[106.6407922,11.0328064],[106.6341458,11.0449783],[106.6304623,11.04324],[106.629862,11.0439562],[106.627807,11.0429831],[106.6268353,11.043839],[106.6258145,11.0436774],[106.625482,11.0456567],[106.6259428,11.0457351],[106.6258322,11.0463658],[106.6261594,11.0464314],[106.6256748,11.047627],[106.625329,11.047563],[106.6241833,11.0538237],[106.619319,11.05228],[106.6180724,11.0513283],[106.616824,11.0510833],[106.616455,11.0514245],[106.615691,11.0511355],[106.6143909,11.0535691],[106.614336,11.055119],[106.6147157,11.0563107],[106.6165577,11.0578861],[106.6164636,11.0590477],[106.6139267,11.0628746],[106.6104643,11.0642446],[106.6061582,11.067187],[106.6059185,11.0683634],[106.6066134,11.0699775],[106.6064465,11.070728],[106.6058487,11.0714011],[106.5969874,11.0744942],[106.5936679,11.0762526],[106.5903627,11.0731753],[106.5877399,11.076703],[106.5865155,11.0795849],[106.5861691,11.0824459],[106.585242,11.0854798],[106.5670939,11.0760351],[106.5680683,11.0754221],[106.5671729,11.073431],[106.5663254,11.0737393],[106.5645799,11.0700906],[106.5645435,11.0691197],[106.5631719,11.0676545],[106.5613567,11.0642615],[106.5589019,11.0618874],[106.5558677,11.0574989]]]}}]}
