{"type":"FeatureCollection","name":"TP Th? D?u M?t tr??c s?p x?p 2025 - 14 ph??ng c?","updated_at":"2026-07-29","features":[{"type":"Feature","properties":{"slug":"chanh-my","name":"Chánh Mỹ","layer":"legacy","unit_type":"Ph??ng c?","group":"Th? D?u M?t tr??c 2025","summary":"Ranh ph??ng c? tham kh?o t? snapshot h?nh ch?nh l?ch s?.","dashboard_href":"/?tab=signals&city=Th%E1%BB%A7%20D%E1%BA%A7u%20M%E1%BB%99t","dashboard_label":"L?c tin Th? D?u M?t","source":"Stanford Geospatial Center / GADM v2.8 snapshot","former_units":"","boundary_source":"source_snapshot","derived_from":""},"geometry":{"coordinates":[[[106.650719,10.991715],[106.646843,10.990514],[106.644745,10.989675],[106.643509,10.988345],[106.642822,10.987498],[106.642754,10.986404],[106.64312,10.98464],[106.641075,10.983859],[106.642693,10.980685],[106.64119,10.979906],[106.640244,10.979318],[106.638245,10.977981],[106.637085,10.977437],[106.635704,10.977438],[106.633385,10.977711],[106.630905,10.978312],[106.630165,10.978506],[106.627708,10.979193],[106.627548,10.979237],[106.626633,10.979681],[106.625778,10.980294],[106.624794,10.981178],[106.623604,10.982705],[106.621941,10.984572],[106.619041,10.986514],[106.617447,10.987604],[106.616455,10.988623],[106.615852,10.989803],[106.615646,10.990817],[106.615585,10.991257],[106.615654,10.991797],[106.615997,10.99293],[106.616386,10.993707],[106.616516,10.993974],[106.617172,10.995152],[106.618187,10.997007],[106.619614,10.999551],[106.620163,11.000426],[106.620621,11.001587],[106.620659,11.00186],[106.622162,11.001829],[106.622665,11.002322],[106.62278,11.002467],[106.623169,11.002931],[106.623405,11.003047],[106.623703,11.003103],[106.624115,11.00313],[106.624496,11.003128],[106.62468,11.003011],[106.624908,11.002747],[106.625053,11.002513],[106.625114,11.002192],[106.625145,11.001755],[106.62532,11.001521],[106.625992,11.001109],[106.62645,11.000542],[106.626709,11.000215],[106.626823,11.000035],[106.626938,10.999692],[106.627113,10.99917],[106.627251,10.999007],[106.627609,10.998777],[106.628693,10.998022],[106.629051,10.99776],[106.629234,10.997677],[106.629532,10.997627],[106.630157,10.997623],[106.630287,10.997541],[106.630501,10.997361],[106.630775,10.997001],[106.631065,10.996527],[106.631264,10.996543],[106.631462,10.996656],[106.631767,10.997126],[106.632515,10.998262],[106.633064,10.998992],[106.633263,10.999463],[106.633331,10.999658],[106.633362,10.999902],[106.633537,10.999983],[106.63382,11.000177],[106.6343,11.000272],[106.634727,11.000009],[106.634972,10.999877],[106.63517,10.999844],[106.635422,10.999972],[106.635681,11.000297],[106.635849,11.000329],[106.63623,11.000473],[106.63636,11.000537],[106.636673,11.000519],[106.636955,11.000388],[106.637344,10.99996],[106.637863,10.999827],[106.638702,10.999627],[106.639198,10.999526],[106.639694,10.999231],[106.640167,10.998577],[106.64035,10.998299],[106.640564,10.998233],[106.640724,10.998232],[106.640892,10.99828],[106.64109,10.998376],[106.641319,10.998538],[106.641762,10.998829],[106.642059,10.999088],[106.642326,10.999379],[106.642326,10.99964],[106.642197,11.000406],[106.642151,11.000797],[106.642181,11.000976],[106.642265,11.001203],[106.642464,11.001512],[106.642822,11.00208],[106.642975,11.002339],[106.643013,11.00273],[106.643211,11.003152],[106.643425,11.003526],[106.643661,11.00385],[106.643936,11.004125],[106.644402,11.004514],[106.644829,11.004853],[106.645096,11.004999],[106.645622,11.005077],[106.646088,11.001871],[106.647263,10.999086],[106.649567,10.996169],[106.650299,10.995193],[106.650352,10.994039],[106.650345,10.993068],[106.650719,10.991715]]],"type":"Polygon"}},{"type":"Feature","properties":{"slug":"chanh-nghia","name":"Chánh Nghĩa","layer":"legacy","unit_type":"Ph??ng c?","group":"Th? D?u M?t tr??c 2025","summary":"Ranh ph??ng c? tham kh?o t? snapshot h?nh ch?nh l?ch s?.","dashboard_href":"/?tab=signals&city=Th%E1%BB%A7%20D%E1%BA%A7u%20M%E1%BB%99t","dashboard_label":"L?c tin Th? D?u M?t","source":"Stanford Geospatial Center / GADM v2.8 snapshot","former_units":"","boundary_source":"source_snapshot","derived_from":""},"geometry":{"coordinates":[[[106.651886,10.952515],[106.651741,10.953525],[106.651443,10.954743],[106.650162,10.958704],[106.649292,10.961378],[106.64859,10.964491],[106.648499,10.966215],[106.648499,10.967059],[106.648849,10.969679],[106.64946,10.971537],[106.649742,10.972617],[106.64975,10.972755],[106.651337,10.972581],[106.651337,10.972864],[106.651283,10.973413],[106.651321,10.973696],[106.651466,10.974014],[106.651741,10.974242],[106.652824,10.974512],[106.652779,10.975145],[106.652969,10.975873],[106.653214,10.976176],[106.653893,10.97599],[106.654999,10.975316],[106.65567,10.975069],[106.656532,10.975004],[106.658226,10.975176],[106.659599,10.973103],[106.659546,10.974562],[106.659317,10.977844],[106.659447,10.978694],[106.65963,10.978875],[106.66037,10.978749],[106.66227,10.977828],[106.663254,10.977579],[106.664238,10.977513],[106.664978,10.97757],[106.666084,10.977867],[106.66777,10.978774],[106.667877,10.97883],[106.670586,10.98062],[106.671768,10.981834],[106.671959,10.980978],[106.672165,10.979429],[106.671928,10.976547],[106.671341,10.972545],[106.668526,10.965442],[106.667358,10.96371],[106.664879,10.960625],[106.663208,10.958265],[106.662521,10.957479],[106.662086,10.956266],[106.662018,10.955598],[106.659142,10.953359],[106.658852,10.952617],[106.658638,10.952122],[106.658417,10.951875],[106.657913,10.951418],[106.657593,10.951313],[106.657379,10.951421],[106.657127,10.952307],[106.657059,10.95291],[106.656525,10.95316],[106.655846,10.953199],[106.655197,10.953168],[106.653831,10.952892],[106.651886,10.952515]]],"type":"Polygon"}},{"type":"Feature","properties":{"slug":"dinh-hoa","name":"Định Hòa","layer":"legacy","unit_type":"Ph??ng c?","group":"Th? D?u M?t tr??c 2025","summary":"Ranh ph??ng c? tham kh?o t? snapshot h?nh ch?nh l?ch s?.","dashboard_href":"/?tab=signals&city=Th%E1%BB%A7%20D%E1%BA%A7u%20M%E1%BB%99t","dashboard_label":"L?c tin Th? D?u M?t","source":"Stanford Geospatial Center / GADM v2.8 snapshot","former_units":"","boundary_source":"source_snapshot","derived_from":""},"geometry":{"coordinates":[[[106.658394,11.011856],[106.658356,11.011601],[106.658318,11.011178],[106.658119,11.010756],[106.657852,11.010432],[106.657387,11.009978],[106.656921,11.009655],[106.656494,11.009104],[106.656227,11.008845],[106.65583,11.00862],[106.655434,11.008427],[106.654869,11.008397],[106.653336,11.007787],[106.651962,11.006818],[106.651512,11.006722],[106.650986,11.006562],[106.650375,11.006338],[106.649841,11.006178],[106.649162,11.005856],[106.648567,11.005566],[106.647964,11.005423],[106.647469,11.005393],[106.647209,11.005362],[106.646713,11.005185],[106.646484,11.005121],[106.645622,11.005077],[106.645096,11.004999],[106.644829,11.004853],[106.644402,11.004514],[106.643936,11.004125],[106.643661,11.00385],[106.643425,11.003526],[106.643211,11.003152],[106.643013,11.00273],[106.642975,11.002339],[106.642822,11.00208],[106.642464,11.001512],[106.642265,11.001203],[106.642181,11.000976],[106.642151,11.000797],[106.642197,11.000406],[106.642326,10.99964],[106.642326,10.999379],[106.642059,10.999088],[106.641762,10.998829],[106.641319,10.998538],[106.64109,10.998376],[106.640892,10.99828],[106.640724,10.998232],[106.640564,10.998233],[106.64035,10.998299],[106.640167,10.998577],[106.639694,10.999231],[106.639198,10.999526],[106.638702,10.999627],[106.637863,10.999827],[106.637344,10.99996],[106.636955,11.000388],[106.636673,11.000519],[106.636856,11.000826],[106.637009,11.000948],[106.637383,11.000977],[106.637787,11.000975],[106.637856,11.001128],[106.637825,11.001467],[106.637794,11.002053],[106.637894,11.002391],[106.637924,11.002822],[106.637863,11.003284],[106.637619,11.004025],[106.637688,11.004332],[106.637932,11.004515],[106.638275,11.004514],[106.638527,11.004697],[106.638908,11.005126],[106.639221,11.005309],[106.639404,11.005308],[106.640182,11.00515],[106.641121,11.00533],[106.64212,11.005632],[106.643158,11.006027],[106.643814,11.006301],[106.644035,11.006423],[106.644096,11.006787],[106.644035,11.007219],[106.644035,11.007434],[106.643883,11.007805],[106.643883,11.008113],[106.643761,11.008823],[106.643585,11.009964],[106.643494,11.010488],[106.643181,11.01086],[106.643028,11.011076],[106.642998,11.011415],[106.643158,11.011753],[106.643219,11.012154],[106.643166,11.013232],[106.643364,11.015337],[106.643402,11.016692],[106.643715,11.017307],[106.643753,11.018354],[106.643852,11.018662],[106.64473,11.01989],[106.645294,11.020904],[106.645706,11.021579],[106.645927,11.021825],[106.646904,11.022898],[106.647751,11.023725],[106.648178,11.024321],[106.648308,11.024721],[106.648361,11.025013],[106.647987,11.025384],[106.647469,11.025905],[106.644714,11.027737],[106.641487,11.031601],[106.639992,11.034067],[106.640968,11.03645],[106.643082,11.040384],[106.644943,11.043531],[106.646378,11.045587],[106.650208,11.049655],[106.652649,11.05178],[106.65303,11.052418],[106.653313,11.053325],[106.653481,11.055194],[106.653221,11.058208],[106.654411,11.058172],[106.656052,11.058437],[106.656425,11.058509],[106.656906,11.058457],[106.65741,11.058106],[106.657814,11.058005],[106.659218,11.057674],[106.660553,11.057369],[106.661636,11.057214],[106.664581,11.057222],[106.666412,11.057439],[106.668449,11.057702],[106.669533,11.057745],[106.670067,11.057867],[106.670296,11.058064],[106.670494,11.058262],[106.670898,11.058707],[106.671455,11.059313],[106.672729,11.05782],[106.67408,11.059425],[106.675774,11.057835],[106.67701,11.056659],[106.67746,11.05571],[106.67746,11.055263],[106.677498,11.054317],[106.677643,11.053222],[106.677483,11.051532],[106.677078,11.050638],[106.676926,11.050341],[106.676666,11.050093],[106.675156,11.049306],[106.673485,11.048768],[106.673134,11.04872],[106.672829,11.048473],[106.672386,11.048117],[106.672241,11.047946],[106.672203,11.047328],[106.671471,11.046615],[106.671432,11.046224],[106.671402,11.045736],[106.671494,11.045149],[106.671738,11.044105],[106.671997,11.04342],[106.672028,11.042899],[106.672119,11.042084],[106.672279,11.041268],[106.67234,11.040486],[106.67244,11.039639],[106.67263,11.039182],[106.672585,11.038759],[106.672562,11.035176],[106.67276,11.034556],[106.672791,11.034002],[106.672668,11.033449],[106.672264,11.032246],[106.6717,11.030783],[106.671265,11.029906],[106.671227,11.029646],[106.671356,11.029417],[106.67205,11.028892],[106.671898,11.028046],[106.671692,11.027298],[106.671524,11.026582],[106.671555,11.026322],[106.671684,11.025995],[106.671684,11.025734],[106.671585,11.025312],[106.671417,11.024889],[106.671349,11.024564],[106.671341,11.023814],[106.670944,11.023361],[106.670631,11.022809],[106.670197,11.022551],[106.669998,11.022356],[106.669403,11.022001],[106.668839,11.021809],[106.668243,11.021584],[106.667915,11.021325],[106.667679,11.021099],[106.666946,11.02019],[106.66642,11.019412],[106.666252,11.018761],[106.666245,11.01837],[106.666275,11.018142],[106.666077,11.018111],[106.665848,11.018112],[106.665489,11.018049],[106.665192,11.017985],[106.664871,11.017629],[106.664444,11.017207],[106.664246,11.016915],[106.664078,11.016428],[106.663445,11.015943],[106.662979,11.015717],[106.662613,11.015393],[106.662514,11.015133],[106.662582,11.014644],[106.662514,11.014319],[106.662315,11.01419],[106.661819,11.01416],[106.661652,11.014128],[106.661255,11.01374],[106.660957,11.013513],[106.660461,11.013353],[106.659401,11.013066],[106.658806,11.012678],[106.658524,11.012479],[106.658455,11.012251],[106.658394,11.011856]]],"type":"Polygon"}},{"type":"Feature","properties":{"slug":"hiep-an","name":"Hiệp An","layer":"legacy","unit_type":"Ph??ng c?","group":"Th? D?u M?t tr??c 2025","summary":"Ranh ph??ng c? tham kh?o t? snapshot h?nh ch?nh l?ch s?.","dashboard_href":"/?tab=signals&city=Th%E1%BB%A7%20D%E1%BA%A7u%20M%E1%BB%99t","dashboard_label":"L?c tin Th? D?u M?t","source":"Stanford Geospatial Center / GADM v2.8 snapshot","former_units":"","boundary_source":"source_snapshot","derived_from":""},"geometry":{"coordinates":[[[106.635704,11.01718],[106.634933,11.018514],[106.632378,11.023384],[106.628113,11.03142],[106.624809,11.035566],[106.618759,11.043759],[106.611069,11.048871],[106.611481,11.049219],[106.612221,11.049623],[106.612961,11.049852],[106.614525,11.049931],[106.61512,11.050103],[106.615417,11.050392],[106.615479,11.050625],[106.615448,11.050975],[106.616302,11.051305],[106.618462,11.051847],[106.620354,11.052595],[106.623802,11.05415],[106.624969,11.046683],[106.625473,11.043883],[106.625946,11.044026],[106.626541,11.044023],[106.626984,11.043991],[106.628128,11.04349],[106.628632,11.043312],[106.629189,11.043222],[106.629662,11.043219],[106.630821,11.043738],[106.632828,11.044543],[106.633965,11.045031],[106.635269,11.042855],[106.639992,11.034067],[106.641487,11.031601],[106.644714,11.027737],[106.647469,11.025905],[106.647987,11.025384],[106.645538,11.023014],[106.6446,11.022313],[106.644104,11.022139],[106.642982,11.021616],[106.642128,11.020958],[106.641548,11.020388],[106.641098,11.019816],[106.640503,11.017922],[106.639168,11.015457],[106.638405,11.014578],[106.637566,11.01388],[106.637505,11.014071],[106.635704,11.01718]]],"type":"Polygon"}},{"type":"Feature","properties":{"slug":"hiep-thanh","name":"Hiệp Thành","layer":"legacy","unit_type":"Ph??ng c?","group":"Th? D?u M?t tr??c 2025","summary":"Ranh ph??ng c? tham kh?o t? snapshot h?nh ch?nh l?ch s?.","dashboard_href":"/?tab=signals&city=Th%E1%BB%A7%20D%E1%BA%A7u%20M%E1%BB%99t","dashboard_label":"L?c tin Th? D?u M?t","source":"Stanford Geospatial Center / GADM v2.8 snapshot","former_units":"","boundary_source":"source_snapshot","derived_from":""},"geometry":{"coordinates":[[[106.673157,11.003876],[106.672554,11.00266],[106.67215,11.001814],[106.671921,11.001419],[106.67131,11.000725],[106.670547,10.999807],[106.670273,10.999511],[106.669647,10.998021],[106.6689,10.996108],[106.669716,10.99451],[106.66758,10.99161],[106.665756,10.989927],[106.66555,10.989729],[106.664948,10.986954],[106.665001,10.986487],[106.664062,10.985522],[106.663322,10.984737],[106.662666,10.983981],[106.661224,10.982928],[106.660637,10.982445],[106.659378,10.982452],[106.658119,10.982428],[106.657745,10.982248],[106.657005,10.981705],[106.656357,10.981709],[106.655899,10.981742],[106.655373,10.981717],[106.654732,10.981977],[106.654488,10.982191],[106.654381,10.982492],[106.654274,10.983395],[106.654335,10.984899],[106.653564,10.984833],[106.65229,10.984503],[106.652275,10.985388],[106.65226,10.987535],[106.651535,10.988637],[106.651184,10.989436],[106.650902,10.990146],[106.650719,10.991715],[106.650345,10.993068],[106.650352,10.994039],[106.650299,10.995193],[106.649567,10.996169],[106.647263,10.999086],[106.646088,11.001871],[106.645622,11.005077],[106.646484,11.005121],[106.646713,11.005185],[106.647209,11.005362],[106.647469,11.005393],[106.647964,11.005423],[106.648567,11.005566],[106.649162,11.005856],[106.649841,11.006178],[106.650375,11.006338],[106.650986,11.006562],[106.651512,11.006722],[106.651962,11.006818],[106.653336,11.007787],[106.654869,11.008397],[106.655434,11.008427],[106.65583,11.00862],[106.656227,11.008845],[106.656494,11.009104],[106.656921,11.009655],[106.657387,11.009978],[106.657852,11.010432],[106.658119,11.010756],[106.658318,11.011178],[106.658356,11.011601],[106.658394,11.011856],[106.661148,11.010182],[106.661377,11.010057],[106.661758,11.010005],[106.662209,11.009853],[106.663139,11.009176],[106.666122,11.0062],[106.666534,11.005953],[106.66671,11.005952],[106.666862,11.005976],[106.667595,11.005972],[106.66777,11.005996],[106.668053,11.006219],[106.668427,11.006441],[106.668709,11.006489],[106.669083,11.006462],[106.669464,11.006161],[106.670319,11.005509],[106.671165,11.004758],[106.671898,11.004405],[106.673157,11.003876]]],"type":"Polygon"}},{"type":"Feature","properties":{"slug":"hoa-phu","name":"Hòa Phú","layer":"legacy","unit_type":"Ph??ng c?","group":"Th? D?u M?t tr??c 2025","summary":"Ranh ph??ng c? tham kh?o, ???c Radar BDS suy lu?n bi?n t?p t? ph?n d? h?nh h?c.","dashboard_href":"/?tab=signals&city=Th%E1%BB%A7%20D%E1%BA%A7u%20M%E1%BB%99t","dashboard_label":"L?c tin Th? D?u M?t","source":"Radar BDS derived boundary","former_units":"","boundary_source":"derived_boundary","derived_from":"Current Bình Dương ward boundary minus sourced Phú Mỹ and Phú Chánh polygons; residual pieces assigned to nearest legacy ward center"},"geometry":{"coordinates":[[[[106.710091,11.059347],[106.711464,11.05963],[106.711544,11.059652],[106.711579,11.059327],[106.710293,11.058988],[106.709909,11.059349],[106.710091,11.059347]]],[[[106.664097,11.025199],[106.663513,11.026576],[106.661971,11.026874],[106.660273,11.028287],[106.660896,11.028915],[106.656144,11.03358],[106.654681,11.038398],[106.653399,11.040521],[106.657553,11.042037],[106.656676,11.043627],[106.659028,11.04539],[106.662013,11.049184],[106.661797,11.049337],[106.664674,11.056878],[106.663623,11.057001],[106.664173,11.061663],[106.663942,11.064875],[106.663578,11.065259],[106.663706,11.066212],[106.663449,11.066818],[106.662448,11.066862],[106.662303,11.067656],[106.663434,11.067956],[106.663132,11.070334],[106.664835,11.074146],[106.664693,11.074362],[106.66633,11.075246],[106.666927,11.076864],[106.6692,11.075992],[106.670097,11.078587],[106.667968,11.079416],[106.670841,11.08721],[106.670015,11.08786],[106.668853,11.091679],[106.666925,11.093021],[106.667194,11.095061],[106.667936,11.095259],[106.667487,11.098565],[106.667746,11.100133],[106.667164,11.102306],[106.667244,11.107247],[106.66917,11.107347],[106.669494,11.107826],[106.671259,11.107648],[106.67145,11.107976],[106.672029,11.107911],[106.672185,11.108508],[106.673982,11.108908],[106.677155,11.108363],[106.677353,11.108063],[106.678264,11.107936],[106.678405,11.107282],[106.678708,11.107226],[106.682812,11.106898],[106.685424,11.107129],[106.685839,11.107405],[106.686297,11.10545],[106.687095,11.105921],[106.692926,11.106629],[106.693471,11.106103],[106.693555,11.105398],[106.692987,11.104644],[106.693571,11.104276],[106.693677,11.103578],[106.692887,11.102285],[106.693526,11.101936],[106.693763,11.101393],[106.694751,11.101389],[106.69572,11.100492],[106.696072,11.099557],[106.697662,11.097592],[106.698587,11.097038],[106.699364,11.094668],[106.699081,11.094627],[106.698715,11.094309],[106.697716,11.093738],[106.69754,11.093483],[106.697411,11.093227],[106.697258,11.0931],[106.696457,11.092848],[106.696175,11.092593],[106.696106,11.092423],[106.696022,11.092296],[106.695869,11.092147],[106.695694,11.091956],[106.695595,11.091739],[106.695503,11.091526],[106.695351,11.091399],[106.695206,11.091293],[106.695007,11.091252],[106.694725,11.091189],[106.694443,11.090999],[106.694267,11.090829],[106.694031,11.090702],[106.693596,11.090577],[106.69342,11.090471],[106.693184,11.090174],[106.692924,11.090005],[106.692314,11.089773],[106.69207,11.089616],[106.691727,11.089207],[106.691505,11.088987],[106.691277,11.088925],[106.690926,11.088895],[106.690445,11.08893],[106.690254,11.088931],[106.689804,11.088554],[106.689224,11.088051],[106.688454,11.087486],[106.687294,11.086513],[106.687096,11.086229],[106.686775,11.085599],[106.686417,11.08519],[106.686066,11.084844],[106.685707,11.084593],[106.685005,11.084186],[106.684212,11.083716],[106.683571,11.083435],[106.683189,11.083405],[106.682579,11.083504],[106.682167,11.083506],[106.681427,11.083384],[106.679855,11.082792],[106.678116,11.082074],[106.677254,11.081826],[106.676193,11.081769],[106.675011,11.081775],[106.675552,11.079306],[106.676888,11.073576],[106.677422,11.071644],[106.672958,11.070562],[106.672852,11.068729],[106.673752,11.068629],[106.673729,11.06806],[106.673592,11.066512],[106.673592,11.065753],[106.673553,11.065279],[106.673393,11.065027],[106.673203,11.06487],[106.673035,11.06446],[106.672806,11.063639],[106.672615,11.063229],[106.672386,11.062851],[106.672142,11.062536],[106.671761,11.062],[106.672066,11.060385],[106.671974,11.060038],[106.671455,11.059313],[106.672729,11.05782],[106.67408,11.059425],[106.675774,11.057835],[106.67701,11.056659],[106.67701,11.056659],[106.67746,11.05571],[106.67746,11.055263],[106.677498,11.054317],[106.677643,11.053222],[106.677483,11.051532],[106.677078,11.050638],[106.676926,11.050341],[106.676666,11.050093],[106.675156,11.049306],[106.673485,11.048768],[106.673134,11.04872],[106.672829,11.048473],[106.672386,11.048117],[106.672241,11.047946],[106.672203,11.047328],[106.671471,11.046615],[106.671432,11.046224],[106.671402,11.045736],[106.671494,11.045149],[106.671738,11.044105],[106.671997,11.04342],[106.672028,11.042899],[106.672119,11.042084],[106.672279,11.041268],[106.67234,11.040486],[106.67244,11.039639],[106.67263,11.039182],[106.672585,11.038759],[106.672562,11.035176],[106.67276,11.034556],[106.672791,11.034002],[106.672668,11.033449],[106.672264,11.032246],[106.6717,11.030783],[106.671265,11.029906],[106.671227,11.029646],[106.671356,11.029417],[106.67205,11.028892],[106.671898,11.028046],[106.671692,11.027298],[106.671524,11.026582],[106.671555,11.026322],[106.671684,11.025995],[106.671684,11.025734],[106.671585,11.025312],[106.671417,11.024889],[106.671349,11.024564],[106.671341,11.023814],[106.670944,11.023361],[106.670631,11.022809],[106.670197,11.022551],[106.669998,11.022356],[106.669403,11.022001],[106.668839,11.021809],[106.668243,11.021584],[106.667915,11.021325],[106.667679,11.021099],[106.666946,11.02019],[106.66642,11.019412],[106.666252,11.018761],[106.666245,11.01837],[106.666275,11.018142],[106.666077,11.018111],[106.665848,11.018112],[106.665489,11.018049],[106.665192,11.017985],[106.664871,11.017629],[106.664444,11.017207],[106.664246,11.016915],[106.664078,11.016428],[106.663445,11.015943],[106.66336,11.015902],[106.662391,11.017055],[106.659605,11.02316],[106.662985,11.024681],[106.663137,11.024518],[106.664097,11.025199]]],[[[106.710594,11.082841],[106.710556,11.083145],[106.710678,11.083287],[106.710785,11.083407],[106.710772,11.083515],[106.710968,11.083231],[106.710899,11.08268],[106.711263,11.082397],[106.710884,11.082656],[106.710594,11.082841]]],[[[106.707947,11.085576],[106.707947,11.085758],[106.708031,11.086001],[106.708138,11.086488],[106.708138,11.086574],[106.708584,11.086068],[106.708297,11.085438],[106.708069,11.085514],[106.707947,11.085576]]],[[[106.706539,11.088111],[106.706839,11.088043],[106.707408,11.0874],[106.706902,11.087713],[106.706596,11.08806],[106.706539,11.088111]]],[[[106.70414,11.089758],[106.703751,11.090085],[106.70368,11.090143],[106.704332,11.089772],[106.705252,11.088568],[106.705116,11.088636],[106.704666,11.089248],[106.70414,11.089758]]],[[[106.713098,11.060048],[106.713046,11.060055],[106.713257,11.060112],[106.714699,11.060918],[106.717941,11.062088],[106.719836,11.06244],[106.717943,11.061257],[106.716754,11.061219],[106.715162,11.060427],[106.713098,11.060048]]],[[[106.72245,11.062881],[106.722374,11.063633],[106.721672,11.064591],[106.721031,11.065203],[106.720836,11.065427],[106.721518,11.065431],[106.722878,11.062748],[106.720218,11.062511],[106.72142,11.062734],[106.72245,11.062881]]],[[[106.719191,11.067451],[106.719424,11.067375],[106.72072,11.06556],[106.719894,11.066509],[106.71946,11.066978],[106.719191,11.067451]]],[[[106.716175,11.073015],[106.717014,11.072222],[106.717025,11.071235],[106.717586,11.071025],[106.717553,11.069953],[106.718232,11.069099],[106.718177,11.068461],[106.717918,11.068915],[106.717918,11.06928],[106.717819,11.069545],[106.717491,11.069729],[106.717308,11.069913],[106.717224,11.070116],[106.717232,11.07038],[106.717117,11.070787],[106.716972,11.071112],[106.716728,11.071378],[106.716606,11.071642],[106.716591,11.071987],[106.716576,11.072353],[106.716515,11.072576],[106.71608,11.072924],[106.715775,11.073149],[106.715675,11.073332],[106.715614,11.073799],[106.715508,11.074571],[106.715279,11.074958],[106.71508,11.075244],[106.714958,11.075569],[106.714935,11.075955],[106.715065,11.076218],[106.715042,11.076522],[106.71492,11.076665],[106.714676,11.077174],[106.714444,11.077479],[106.715147,11.076883],[106.715363,11.075051],[106.716083,11.074125],[106.716175,11.073015]]],[[[106.713684,11.078154],[106.713524,11.078378],[106.713501,11.078703],[106.713524,11.079048],[106.713531,11.079555],[106.71347,11.079901],[106.713142,11.080451],[106.712916,11.080684],[106.713057,11.080662],[106.713703,11.08001],[106.714017,11.079096],[106.71378,11.078082],[106.713684,11.078154]]],[[[106.711906,11.081331],[106.711761,11.0819],[106.711432,11.082266],[106.711933,11.081876],[106.712263,11.081008],[106.712189,11.081024],[106.712044,11.081086],[106.711906,11.081331]]]],"type":"MultiPolygon"}},{"type":"Feature","properties":{"slug":"phu-cuong","name":"Phú Cường","layer":"legacy","unit_type":"Ph??ng c?","group":"Th? D?u M?t tr??c 2025","summary":"Ranh ph??ng c? tham kh?o t? snapshot h?nh ch?nh l?ch s?.","dashboard_href":"/?tab=signals&city=Th%E1%BB%A7%20D%E1%BA%A7u%20M%E1%BB%99t","dashboard_label":"L?c tin Th? D?u M?t","source":"Stanford Geospatial Center / GADM v2.8 snapshot","former_units":"","boundary_source":"source_snapshot","derived_from":""},"geometry":{"coordinates":[[[106.64975,10.972755],[106.649796,10.973311],[106.649826,10.974442],[106.649506,10.975975],[106.648842,10.978885],[106.648232,10.980037],[106.647652,10.980615],[106.647141,10.980955],[106.646355,10.98123],[106.645607,10.981301],[106.643929,10.98104],[106.642693,10.980685],[106.641075,10.983859],[106.64312,10.98464],[106.642754,10.986404],[106.642822,10.987498],[106.643509,10.988345],[106.644745,10.989675],[106.646843,10.990514],[106.650719,10.991715],[106.650902,10.990146],[106.651184,10.989436],[106.651535,10.988637],[106.65226,10.987535],[106.652275,10.985388],[106.65229,10.984503],[106.653564,10.984833],[106.654335,10.984899],[106.654274,10.983395],[106.654381,10.982492],[106.654488,10.982191],[106.654732,10.981977],[106.655373,10.981717],[106.655899,10.981742],[106.656357,10.981709],[106.657005,10.981705],[106.657745,10.982248],[106.658119,10.982428],[106.659378,10.982452],[106.660637,10.982445],[106.661224,10.982928],[106.662666,10.983981],[106.663322,10.984737],[106.664062,10.985522],[106.665001,10.986487],[106.66777,10.978774],[106.666084,10.977867],[106.664978,10.97757],[106.664238,10.977513],[106.663254,10.977579],[106.66227,10.977828],[106.66037,10.978749],[106.65963,10.978875],[106.659447,10.978694],[106.659317,10.977844],[106.659546,10.974562],[106.659599,10.973103],[106.658226,10.975176],[106.656532,10.975004],[106.65567,10.975069],[106.654999,10.975316],[106.653893,10.97599],[106.653214,10.976176],[106.652969,10.975873],[106.652779,10.975145],[106.652824,10.974512],[106.651741,10.974242],[106.651466,10.974014],[106.651321,10.973696],[106.651283,10.973413],[106.651337,10.972864],[106.651337,10.972581],[106.64975,10.972755]]],"type":"Polygon"}},{"type":"Feature","properties":{"slug":"phu-hoa","name":"Phú Hòa","layer":"legacy","unit_type":"Ph??ng c?","group":"Th? D?u M?t tr??c 2025","summary":"Ranh ph??ng c? tham kh?o t? snapshot h?nh ch?nh l?ch s?.","dashboard_href":"/?tab=signals&city=Th%E1%BB%A7%20D%E1%BA%A7u%20M%E1%BB%99t","dashboard_label":"L?c tin Th? D?u M?t","source":"Stanford Geospatial Center / GADM v2.8 snapshot","former_units":"","boundary_source":"source_snapshot","derived_from":""},"geometry":{"coordinates":[[[[106.70047,10.970981],[106.700233,10.970936],[106.699898,10.970657],[106.699135,10.970101],[106.697899,10.969127],[106.69574,10.967784],[106.694077,10.966766],[106.691803,10.966031],[106.690475,10.965244],[106.689713,10.964501],[106.689178,10.963752],[106.687172,10.964609],[106.671341,10.972545],[106.671928,10.976547],[106.672165,10.979429],[106.671959,10.980978],[106.671768,10.981834],[106.673347,10.982062],[106.679886,10.984175],[106.685577,10.985918],[106.696342,10.989517],[106.696732,10.986934],[106.697784,10.985991],[106.698112,10.985568],[106.698441,10.984492],[106.698532,10.983838],[106.698898,10.982481],[106.699783,10.980374],[106.70063,10.979201],[106.700912,10.978266],[106.700836,10.977098],[106.700729,10.975651],[106.700722,10.974763],[106.700912,10.974248],[106.701431,10.973825],[106.701805,10.973356],[106.701897,10.973075],[106.701515,10.972236],[106.700706,10.971213],[106.70047,10.970981]]],[[[106.671768,10.981834],[106.670586,10.98062],[106.667877,10.97883],[106.66777,10.978774],[106.665001,10.986487],[106.666397,10.984022],[106.667473,10.983268],[106.670174,10.982078],[106.671768,10.981834]]]],"type":"MultiPolygon"}},{"type":"Feature","properties":{"slug":"phu-loi","name":"Phú Lợi","layer":"legacy","unit_type":"Ph??ng c?","group":"Th? D?u M?t tr??c 2025","summary":"Ranh ph??ng c? tham kh?o t? snapshot h?nh ch?nh l?ch s?.","dashboard_href":"/?tab=signals&city=Th%E1%BB%A7%20D%E1%BA%A7u%20M%E1%BB%99t","dashboard_label":"L?c tin Th? D?u M?t","source":"Stanford Geospatial Center / GADM v2.8 snapshot","former_units":"","boundary_source":"source_snapshot","derived_from":""},"geometry":{"coordinates":[[[106.673157,11.003876],[106.674507,11.003386],[106.675758,11.002361],[106.678802,11.000237],[106.681458,10.998566],[106.682861,10.997316],[106.684738,10.994821],[106.688789,10.99638],[106.688797,10.997622],[106.691483,11.00107],[106.692345,11.004264],[106.692673,11.005166],[106.693703,11.005819],[106.694427,11.006158],[106.695229,11.006373],[106.695892,11.006325],[106.697754,11.004559],[106.698418,11.003985],[106.700638,11.003182],[106.701851,11.002575],[106.702507,11.00225],[106.703964,11.0011],[106.704987,10.999953],[106.705956,10.99863],[106.706657,10.99687],[106.69632,10.98966],[106.696342,10.989517],[106.685577,10.985918],[106.679886,10.984175],[106.673347,10.982062],[106.671768,10.981834],[106.670174,10.982078],[106.667473,10.983268],[106.666397,10.984022],[106.665001,10.986487],[106.664948,10.986954],[106.66555,10.989729],[106.665756,10.989927],[106.66758,10.99161],[106.669716,10.99451],[106.6689,10.996108],[106.669647,10.998021],[106.670273,10.999511],[106.670547,10.999807],[106.67131,11.000725],[106.671921,11.001419],[106.67215,11.001814],[106.672554,11.00266],[106.673157,11.003876]]],"type":"Polygon"}},{"type":"Feature","properties":{"slug":"phu-my","name":"Phú Mỹ","layer":"legacy","unit_type":"Ph??ng c?","group":"Th? D?u M?t tr??c 2025","summary":"Ranh ph??ng c? tham kh?o t? snapshot h?nh ch?nh l?ch s?.","dashboard_href":"/?tab=signals&city=Th%E1%BB%A7%20D%E1%BA%A7u%20M%E1%BB%99t","dashboard_label":"L?c tin Th? D?u M?t","source":"Stanford Geospatial Center / GADM v2.8 snapshot","former_units":"","boundary_source":"source_snapshot","derived_from":""},"geometry":{"coordinates":[[[106.673157,11.003876],[106.671898,11.004405],[106.671165,11.004758],[106.670319,11.005509],[106.669464,11.006161],[106.669083,11.006462],[106.668709,11.006489],[106.668427,11.006441],[106.668053,11.006219],[106.66777,11.005996],[106.667595,11.005972],[106.666862,11.005976],[106.66671,11.005952],[106.666534,11.005953],[106.666122,11.0062],[106.663139,11.009176],[106.662209,11.009853],[106.661758,11.010005],[106.661377,11.010057],[106.661148,11.010182],[106.658394,11.011856],[106.658455,11.012251],[106.658524,11.012479],[106.658806,11.012678],[106.659401,11.013066],[106.660461,11.013353],[106.660957,11.013513],[106.661255,11.01374],[106.661652,11.014128],[106.661819,11.01416],[106.662315,11.01419],[106.662514,11.014319],[106.662582,11.014644],[106.662514,11.015133],[106.662613,11.015393],[106.662979,11.015717],[106.663445,11.015943],[106.664078,11.016428],[106.664246,11.016915],[106.664444,11.017207],[106.664871,11.017629],[106.665192,11.017985],[106.665489,11.018049],[106.665848,11.018112],[106.666077,11.018111],[106.666275,11.018142],[106.666245,11.01837],[106.666252,11.018761],[106.66642,11.019412],[106.666946,11.02019],[106.667679,11.021099],[106.667915,11.021325],[106.668243,11.021584],[106.668839,11.021809],[106.669403,11.022001],[106.669998,11.022356],[106.670197,11.022551],[106.670631,11.022809],[106.670944,11.023361],[106.671341,11.023814],[106.671349,11.024564],[106.671417,11.024889],[106.671585,11.025312],[106.671684,11.025734],[106.671684,11.025995],[106.671555,11.026322],[106.671524,11.026582],[106.671692,11.027298],[106.671898,11.028046],[106.67205,11.028892],[106.671356,11.029417],[106.671227,11.029646],[106.671265,11.029906],[106.6717,11.030783],[106.672264,11.032246],[106.672668,11.033449],[106.672791,11.034002],[106.67276,11.034556],[106.672562,11.035176],[106.672585,11.038759],[106.67263,11.039182],[106.67244,11.039639],[106.67234,11.040486],[106.672279,11.041268],[106.672119,11.042084],[106.672028,11.042899],[106.671997,11.04342],[106.671738,11.044105],[106.671494,11.045149],[106.671402,11.045736],[106.671432,11.046224],[106.671471,11.046615],[106.672203,11.047328],[106.672241,11.047946],[106.672386,11.048117],[106.672829,11.048473],[106.673134,11.04872],[106.673485,11.048768],[106.675156,11.049306],[106.676666,11.050093],[106.676926,11.050341],[106.677078,11.050638],[106.677483,11.051532],[106.677643,11.053222],[106.677498,11.054317],[106.67746,11.055263],[106.67746,11.05571],[106.67701,11.056659],[106.677513,11.056814],[106.679466,11.057372],[106.679588,11.056518],[106.680588,11.056797],[106.680901,11.055088],[106.681458,11.052618],[106.682808,11.052706],[106.68663,11.052684],[106.68676,11.052273],[106.687042,11.051544],[106.688087,11.048598],[106.690811,11.048519],[106.69072,11.047129],[106.690643,11.044568],[106.690475,11.041407],[106.690338,11.039606],[106.690269,11.037772],[106.690208,11.035712],[106.690231,11.03508],[106.690102,11.03467],[106.689941,11.034355],[106.689232,11.033474],[106.688744,11.031707],[106.688286,11.030478],[106.688118,11.029215],[106.688148,11.028109],[106.688171,11.026526],[106.688004,11.025294],[106.687996,11.024694],[106.688385,11.022637],[106.688469,11.020834],[106.690842,11.020758],[106.690826,11.01864],[106.691093,11.01709],[106.691788,11.015632],[106.69191,11.014683],[106.69194,11.013671],[106.691994,11.012343],[106.69178,11.011612],[106.69162,11.010981],[106.69162,11.010602],[106.691711,11.010127],[106.691994,11.00943],[106.692474,11.008764],[106.692757,11.008288],[106.693703,11.005819],[106.692673,11.005166],[106.692345,11.004264],[106.691483,11.00107],[106.688797,10.997622],[106.688789,10.99638],[106.684738,10.994821],[106.682861,10.997316],[106.681458,10.998566],[106.678802,11.000237],[106.675758,11.002361],[106.674507,11.003386],[106.673157,11.003876]]],"type":"Polygon"}},{"type":"Feature","properties":{"slug":"phu-tan","name":"Phú Tân","layer":"legacy","unit_type":"Ph??ng c?","group":"Th? D?u M?t tr??c 2025","summary":"Ranh ph??ng c? tham kh?o, ???c Radar BDS suy lu?n bi?n t?p t? ph?n d? h?nh h?c.","dashboard_href":"/?tab=signals&city=Th%E1%BB%A7%20D%E1%BA%A7u%20M%E1%BB%99t","dashboard_label":"L?c tin Th? D?u M?t","source":"Radar BDS derived boundary","former_units":"","boundary_source":"derived_boundary","derived_from":"Current Bình Dương ward boundary minus sourced Phú Mỹ and Phú Chánh polygons; residual pieces assigned to nearest legacy ward center"},"geometry":{"coordinates":[[[[106.666414,11.006025],[106.666534,11.005953],[106.66671,11.005952],[106.666862,11.005976],[106.667144,11.005974],[106.666849,11.005562],[106.666414,11.006025]]],[[[106.715264,11.052295],[106.717222,11.048933],[106.71819,11.046719],[106.718177,11.046022],[106.718616,11.046061],[106.719137,11.042831],[106.718547,11.042136],[106.715248,11.040533],[106.713239,11.040483],[106.713129,11.039732],[106.713807,11.038632],[106.713711,11.037645],[106.714059,11.036802],[106.711865,11.036141],[106.711495,11.03527],[106.711745,11.034559],[106.710415,11.033495],[106.710296,11.032053],[106.706487,11.031224],[106.705554,11.030416],[106.704487,11.030079],[106.704908,11.028844],[106.706101,11.027035],[106.70607,11.024008],[106.706468,11.021004],[106.707087,11.019079],[106.707793,11.018645],[106.708164,11.017349],[106.708105,11.01681],[106.707662,11.016775],[106.706748,11.015027],[106.706455,11.012997],[106.705731,11.012458],[106.705809,11.011257],[106.70527,11.010195],[106.705602,11.009357],[106.705077,11.008017],[106.706611,11.008181],[106.707761,11.007819],[106.706991,11.007293],[106.706748,11.006518],[106.707654,11.006142],[106.707491,11.005125],[106.709745,11.00379],[106.708741,11.003086],[106.707197,11.002867],[106.70591,11.003253],[106.704932,11.004056],[106.703821,11.004112],[106.703204,11.002263],[106.699833,11.003772],[106.698382,11.005622],[106.695396,11.007681],[106.692753,11.004635],[106.692468,11.004603],[106.692673,11.005166],[106.693703,11.005819],[106.692757,11.008288],[106.692474,11.008764],[106.691994,11.00943],[106.691711,11.010127],[106.69162,11.010602],[106.69162,11.010981],[106.69178,11.011612],[106.691994,11.012343],[106.69194,11.013671],[106.69191,11.014683],[106.691788,11.015632],[106.691093,11.01709],[106.690826,11.01864],[106.690842,11.020758],[106.688469,11.020834],[106.688385,11.022637],[106.687996,11.024694],[106.688004,11.025294],[106.688171,11.026526],[106.688148,11.028109],[106.688118,11.029215],[106.688286,11.030478],[106.688744,11.031707],[106.689232,11.033474],[106.689941,11.034355],[106.690102,11.03467],[106.690231,11.03508],[106.690208,11.035712],[106.690269,11.037772],[106.690338,11.039606],[106.690475,11.041407],[106.690643,11.044568],[106.69072,11.047129],[106.690811,11.048519],[106.688087,11.048598],[106.687042,11.051544],[106.686843,11.052057],[106.687042,11.051544],[106.688087,11.048598],[106.690811,11.048519],[106.697327,11.048177],[106.700134,11.048041],[106.700218,11.04896],[106.704803,11.048835],[106.705162,11.054311],[106.709023,11.054484],[106.70956,11.057598],[106.713137,11.057188],[106.715264,11.052295]]]],"type":"MultiPolygon"}},{"type":"Feature","properties":{"slug":"phu-tho","name":"Phú Thọ","layer":"legacy","unit_type":"Ph??ng c?","group":"Th? D?u M?t tr??c 2025","summary":"Ranh ph??ng c? tham kh?o t? snapshot h?nh ch?nh l?ch s?.","dashboard_href":"/?tab=signals&city=Th%E1%BB%A7%20D%E1%BA%A7u%20M%E1%BB%99t","dashboard_label":"L?c tin Th? D?u M?t","source":"Stanford Geospatial Center / GADM v2.8 snapshot","former_units":"","boundary_source":"source_snapshot","derived_from":""},"geometry":{"coordinates":[[[106.651886,10.952515],[106.653831,10.952892],[106.655197,10.953168],[106.655846,10.953199],[106.656525,10.95316],[106.657059,10.95291],[106.657127,10.952307],[106.657379,10.951421],[106.657593,10.951313],[106.657913,10.951418],[106.658417,10.951875],[106.658638,10.952122],[106.658852,10.952617],[106.659142,10.953359],[106.662018,10.955598],[106.662086,10.956266],[106.662521,10.957479],[106.663208,10.958265],[106.664879,10.960625],[106.667358,10.96371],[106.668526,10.965442],[106.671341,10.972545],[106.687172,10.964609],[106.689178,10.963752],[106.68895,10.963431],[106.687286,10.962039],[106.686142,10.961017],[106.684998,10.959716],[106.683266,10.958511],[106.681602,10.957335],[106.679054,10.962687],[106.675705,10.960553],[106.673782,10.959641],[106.671089,10.958251],[106.668274,10.956421],[106.670006,10.955182],[106.670753,10.953904],[106.670174,10.953512],[106.668831,10.952948],[106.668297,10.952599],[106.66803,10.952293],[106.667892,10.95203],[106.667839,10.950625],[106.667633,10.949791],[106.667809,10.949395],[106.66803,10.948823],[106.668205,10.948383],[106.668556,10.947854],[106.669975,10.946923],[106.670021,10.946747],[106.669487,10.945945],[106.669113,10.945084],[106.668449,10.94392],[106.668068,10.943502],[106.667778,10.943223],[106.667496,10.943132],[106.667114,10.943227],[106.666786,10.943602],[106.666458,10.944024],[106.666267,10.944165],[106.665985,10.944167],[106.665703,10.943795],[106.665131,10.943285],[106.664894,10.943333],[106.664711,10.943847],[106.664337,10.944923],[106.663918,10.945765],[106.663345,10.946235],[106.663017,10.946284],[106.661217,10.94592],[106.660789,10.945689],[106.660454,10.944944],[106.659691,10.943408],[106.658737,10.942292],[106.658356,10.941408],[106.658203,10.940335],[106.657967,10.939542],[106.657539,10.939311],[106.657112,10.93936],[106.656593,10.939737],[106.655983,10.94002],[106.654984,10.940025],[106.654182,10.939843],[106.653755,10.939892],[106.653145,10.940502],[106.652817,10.940924],[106.65258,10.941392],[106.652252,10.941814],[106.651329,10.942219],[106.651443,10.942849],[106.652046,10.947205],[106.652161,10.949434],[106.6521,10.950955],[106.651886,10.952515]]],"type":"Polygon"}},{"type":"Feature","properties":{"slug":"tan-an","name":"Tân An","layer":"legacy","unit_type":"Ph??ng c?","group":"Th? D?u M?t tr??c 2025","summary":"Ranh ph??ng c? tham kh?o t? snapshot h?nh ch?nh l?ch s?.","dashboard_href":"/?tab=signals&city=Th%E1%BB%A7%20D%E1%BA%A7u%20M%E1%BB%99t","dashboard_label":"L?c tin Th? D?u M?t","source":"Stanford Geospatial Center / GADM v2.8 snapshot","former_units":"","boundary_source":"source_snapshot","derived_from":""},"geometry":{"coordinates":[[[106.635704,11.01718],[106.635094,11.016956],[106.633926,11.016641],[106.633514,11.016439],[106.633308,11.016411],[106.633186,11.016441],[106.632896,11.016851],[106.632629,11.017203],[106.632454,11.017553],[106.632042,11.017935],[106.631485,11.017909],[106.630768,11.017592],[106.630417,11.017448],[106.629913,11.017421],[106.629143,11.017396],[106.628372,11.017313],[106.628021,11.017111],[106.627098,11.016561],[106.626389,11.015865],[106.625961,11.015687],[106.625252,11.015633],[106.623207,11.015644],[106.62191,11.015622],[106.620605,11.015366],[106.619392,11.01514],[106.619011,11.015229],[106.617325,11.015384],[106.617058,11.015356],[106.617172,11.01419],[106.617142,11.01384],[106.616997,11.013608],[106.616753,11.013346],[106.616158,11.012825],[106.616043,11.012651],[106.615921,11.011714],[106.615921,11.011595],[106.615753,11.011611],[106.615234,11.011663],[106.614586,11.011722],[106.613991,11.011725],[106.61113,11.011657],[106.610046,11.011663],[106.608459,11.011838],[106.606674,11.012355],[106.603951,11.013348],[106.60218,11.01381],[106.601158,11.014058],[106.600853,11.014131],[106.600204,11.014301],[106.599525,11.014533],[106.598511,11.015109],[106.597717,11.015816],[106.597527,11.015986],[106.596954,11.017299],[106.596443,11.018631],[106.595222,11.022556],[106.594803,11.024387],[106.594658,11.025487],[106.594826,11.028173],[106.595055,11.029225],[106.595398,11.030276],[106.595871,11.031076],[106.598335,11.033814],[106.600311,11.036206],[106.602028,11.037951],[106.602669,11.038798],[106.60302,11.039413],[106.603065,11.039571],[106.604256,11.040135],[106.604736,11.040599],[106.605698,11.041905],[106.60656,11.042804],[106.607597,11.04376],[106.608643,11.045066],[106.609932,11.046895],[106.610443,11.047854],[106.610741,11.048465],[106.611069,11.048871],[106.618759,11.043759],[106.624809,11.035566],[106.628113,11.03142],[106.632378,11.023384],[106.634933,11.018514],[106.635704,11.01718]]],"type":"Polygon"}},{"type":"Feature","properties":{"slug":"tuong-binh-hiep","name":"Tương Bình Hiệp","layer":"legacy","unit_type":"Ph??ng c?","group":"Th? D?u M?t tr??c 2025","summary":"Ranh ph??ng c? tham kh?o t? snapshot h?nh ch?nh l?ch s?.","dashboard_href":"/?tab=signals&city=Th%E1%BB%A7%20D%E1%BA%A7u%20M%E1%BB%99t","dashboard_label":"L?c tin Th? D?u M?t","source":"Stanford Geospatial Center / GADM v2.8 snapshot","former_units":"","boundary_source":"source_snapshot","derived_from":""},"geometry":{"coordinates":[[[106.636673,11.000519],[106.63636,11.000537],[106.63623,11.000473],[106.635849,11.000329],[106.635681,11.000297],[106.635422,10.999972],[106.63517,10.999844],[106.634972,10.999877],[106.634727,11.000009],[106.6343,11.000272],[106.63382,11.000177],[106.633537,10.999983],[106.633362,10.999902],[106.633331,10.999658],[106.633263,10.999463],[106.633064,10.998992],[106.632515,10.998262],[106.631767,10.997126],[106.631462,10.996656],[106.631264,10.996543],[106.631065,10.996527],[106.630775,10.997001],[106.630501,10.997361],[106.630287,10.997541],[106.630157,10.997623],[106.629532,10.997627],[106.629234,10.997677],[106.629051,10.99776],[106.628693,10.998022],[106.627609,10.998777],[106.627251,10.999007],[106.627113,10.99917],[106.626938,10.999692],[106.626823,11.000035],[106.626709,11.000215],[106.62645,11.000542],[106.625992,11.001109],[106.62532,11.001521],[106.625145,11.001755],[106.625114,11.002192],[106.625053,11.002513],[106.624908,11.002747],[106.62468,11.003011],[106.624496,11.003128],[106.624115,11.00313],[106.623703,11.003103],[106.623405,11.003047],[106.623169,11.002931],[106.62278,11.002467],[106.622665,11.002322],[106.622162,11.001829],[106.620659,11.00186],[106.62085,11.003128],[106.620934,11.005011],[106.620789,11.005926],[106.619942,11.007741],[106.619293,11.008917],[106.618698,11.00964],[106.618034,11.010401],[106.617455,11.010866],[106.616806,11.01122],[106.615921,11.011595],[106.615921,11.011714],[106.616043,11.012651],[106.616158,11.012825],[106.616753,11.013346],[106.616997,11.013608],[106.617142,11.01384],[106.617172,11.01419],[106.617058,11.015356],[106.617325,11.015384],[106.619011,11.015229],[106.619392,11.01514],[106.620605,11.015366],[106.62191,11.015622],[106.623207,11.015644],[106.625252,11.015633],[106.625961,11.015687],[106.626389,11.015865],[106.627098,11.016561],[106.628021,11.017111],[106.628372,11.017313],[106.629143,11.017396],[106.629913,11.017421],[106.630417,11.017448],[106.630768,11.017592],[106.631485,11.017909],[106.632042,11.017935],[106.632454,11.017553],[106.632629,11.017203],[106.632896,11.016851],[106.633186,11.016441],[106.633308,11.016411],[106.633514,11.016439],[106.633926,11.016641],[106.635094,11.016956],[106.635704,11.01718],[106.637505,11.014071],[106.637566,11.01388],[106.638405,11.014578],[106.639168,11.015457],[106.640503,11.017922],[106.641098,11.019816],[106.641548,11.020388],[106.642128,11.020958],[106.642982,11.021616],[106.644104,11.022139],[106.6446,11.022313],[106.645538,11.023014],[106.647987,11.025384],[106.648361,11.025013],[106.648308,11.024721],[106.648178,11.024321],[106.647751,11.023725],[106.646904,11.022898],[106.645927,11.021825],[106.645706,11.021579],[106.645294,11.020904],[106.64473,11.01989],[106.643852,11.018662],[106.643753,11.018354],[106.643715,11.017307],[106.643402,11.016692],[106.643364,11.015337],[106.643166,11.013232],[106.643219,11.012154],[106.643158,11.011753],[106.642998,11.011415],[106.643028,11.011076],[106.643181,11.01086],[106.643494,11.010488],[106.643585,11.009964],[106.643761,11.008823],[106.643883,11.008113],[106.643883,11.007805],[106.644035,11.007434],[106.644035,11.007219],[106.644096,11.006787],[106.644035,11.006423],[106.643814,11.006301],[106.643158,11.006027],[106.64212,11.005632],[106.641121,11.00533],[106.640182,11.00515],[106.639404,11.005308],[106.639221,11.005309],[106.638908,11.005126],[106.638527,11.004697],[106.638275,11.004514],[106.637932,11.004515],[106.637688,11.004332],[106.637619,11.004025],[106.637863,11.003284],[106.637924,11.002822],[106.637894,11.002391],[106.637794,11.002053],[106.637825,11.001467],[106.637856,11.001128],[106.637787,11.000975],[106.637383,11.000977],[106.637009,11.000948],[106.636856,11.000826],[106.636673,11.000519]]],"type":"Polygon"}}]}
